<?xml version="1.0" encoding="UTF-8"?>
<gpx version="1.1" xmlns="http://www.topografix.com/GPX/1/1" creator="https://github.com/georust/gpx">
  <trk>
    <name>[ele] 01: to CP-1</name>
    <trkseg>
      <trkpt lat="47.929981" lon="8.448436">
        <ele>693.4</ele>
      </trkpt>
      <trkpt lat="47.930142" lon="8.448447">
        <ele>694.1</ele>
      </trkpt>
      <trkpt lat="47.930132" lon="8.448313">
        <ele>694.1</ele>
      </trkpt>
      <trkpt lat="47.930105" lon="8.447888">
        <ele>694.6</ele>
      </trkpt>
      <trkpt lat="47.930103" lon="8.447848">
        <ele>694.5</ele>
      </trkpt>
      <trkpt lat="47.93007" lon="8.447227">
        <ele>694.2</ele>
      </trkpt>
      <trkpt lat="47.930134" lon="8.447215">
        <ele>694.3</ele>
      </trkpt>
      <trkpt lat="47.930174" lon="8.447146">
        <ele>694.2</ele>
      </trkpt>
      <trkpt lat="47.930287" lon="8.446673">
        <ele>693.2</ele>
      </trkpt>
      <trkpt lat="47.93048" lon="8.446207">
        <ele>693</ele>
      </trkpt>
      <trkpt lat="47.930831" lon="8.445602">
        <ele>692.9</ele>
      </trkpt>
      <trkpt lat="47.931001" lon="8.445171">
        <ele>694.2</ele>
      </trkpt>
      <trkpt lat="47.931295" lon="8.443858">
        <ele>695.2</ele>
      </trkpt>
      <trkpt lat="47.93135" lon="8.443733">
        <ele>694.7</ele>
      </trkpt>
      <trkpt lat="47.931448" lon="8.443612">
        <ele>694.1</ele>
      </trkpt>
      <trkpt lat="47.931622" lon="8.443477">
        <ele>693.7</ele>
      </trkpt>
      <trkpt lat="47.932153" lon="8.443388">
        <ele>692.8</ele>
      </trkpt>
      <trkpt lat="47.932469" lon="8.443353">
        <ele>692.6</ele>
      </trkpt>
      <trkpt lat="47.93268" lon="8.443199">
        <ele>692.6</ele>
      </trkpt>
      <trkpt lat="47.932819" lon="8.4429">
        <ele>692.8</ele>
      </trkpt>
      <trkpt lat="47.932927" lon="8.442474">
        <ele>693.7</ele>
      </trkpt>
      <trkpt lat="47.933082" lon="8.441965">
        <ele>694</ele>
      </trkpt>
      <trkpt lat="47.933283" lon="8.441651">
        <ele>693.9</ele>
      </trkpt>
      <trkpt lat="47.933516" lon="8.441443">
        <ele>694.1</ele>
      </trkpt>
      <trkpt lat="47.934043" lon="8.441224">
        <ele>692.8</ele>
      </trkpt>
      <trkpt lat="47.934268" lon="8.441109">
        <ele>692.5</ele>
      </trkpt>
      <trkpt lat="47.934443" lon="8.440993">
        <ele>693.4</ele>
      </trkpt>
      <trkpt lat="47.934686" lon="8.440746">
        <ele>694.5</ele>
      </trkpt>
      <trkpt lat="47.935142" lon="8.440135">
        <ele>693.2</ele>
      </trkpt>
      <trkpt lat="47.935329" lon="8.43989">
        <ele>692.2</ele>
      </trkpt>
      <trkpt lat="47.935882" lon="8.439165">
        <ele>691.1</ele>
      </trkpt>
      <trkpt lat="47.936436" lon="8.43842">
        <ele>689.8</ele>
      </trkpt>
      <trkpt lat="47.936639" lon="8.438223">
        <ele>690.8</ele>
      </trkpt>
      <trkpt lat="47.936984" lon="8.438024">
        <ele>694.3</ele>
      </trkpt>
      <trkpt lat="47.937305" lon="8.437894">
        <ele>693.6</ele>
      </trkpt>
      <trkpt lat="47.93765" lon="8.437798">
        <ele>691.2</ele>
      </trkpt>
      <trkpt lat="47.938006" lon="8.437831">
        <ele>692.2</ele>
      </trkpt>
      <trkpt lat="47.938332" lon="8.437998">
        <ele>693.7</ele>
      </trkpt>
      <trkpt lat="47.938999" lon="8.438511">
        <ele>692.1</ele>
      </trkpt>
      <trkpt lat="47.939738" lon="8.438888">
        <ele>694.9</ele>
      </trkpt>
      <trkpt lat="47.940345" lon="8.4391">
        <ele>695.5</ele>
      </trkpt>
      <trkpt lat="47.940659" lon="8.439216">
        <ele>694.9</ele>
      </trkpt>
      <trkpt lat="47.941546" lon="8.439507">
        <ele>693.7</ele>
      </trkpt>
      <trkpt lat="47.941798" lon="8.439612">
        <ele>694.6</ele>
      </trkpt>
      <trkpt lat="47.942175" lon="8.43921">
        <ele>694.8</ele>
      </trkpt>
      <trkpt lat="47.942393" lon="8.439021">
        <ele>694</ele>
      </trkpt>
      <trkpt lat="47.942991" lon="8.438597">
        <ele>692.5</ele>
      </trkpt>
      <trkpt lat="47.943492" lon="8.438361">
        <ele>694.7</ele>
      </trkpt>
      <trkpt lat="47.94391" lon="8.438228">
        <ele>696.3</ele>
      </trkpt>
      <trkpt lat="47.948014" lon="8.437446">
        <ele>698.2</ele>
      </trkpt>
      <trkpt lat="47.950547" lon="8.436996">
        <ele>699.9</ele>
      </trkpt>
      <trkpt lat="47.951652" lon="8.436761">
        <ele>702.4</ele>
      </trkpt>
      <trkpt lat="47.952208" lon="8.436638">
        <ele>702.7</ele>
      </trkpt>
      <trkpt lat="47.953333" lon="8.436414">
        <ele>701.5</ele>
      </trkpt>
      <trkpt lat="47.953466" lon="8.43646">
        <ele>700.6</ele>
      </trkpt>
      <trkpt lat="47.953564" lon="8.436493">
        <ele>700</ele>
      </trkpt>
      <trkpt lat="47.953937" lon="8.436348">
        <ele>698.5</ele>
      </trkpt>
      <trkpt lat="47.954851" lon="8.435753">
        <ele>700.9</ele>
      </trkpt>
      <trkpt lat="47.958186" lon="8.432551">
        <ele>705.3</ele>
      </trkpt>
      <trkpt lat="47.958181" lon="8.432355">
        <ele>705.4</ele>
      </trkpt>
      <trkpt lat="47.958207" lon="8.432225">
        <ele>705.4</ele>
      </trkpt>
      <trkpt lat="47.958629" lon="8.431378">
        <ele>703</ele>
      </trkpt>
      <trkpt lat="47.958771" lon="8.431155">
        <ele>703.6</ele>
      </trkpt>
      <trkpt lat="47.959565" lon="8.430225">
        <ele>703.3</ele>
      </trkpt>
      <trkpt lat="47.960825" lon="8.428829">
        <ele>705.3</ele>
      </trkpt>
      <trkpt lat="47.961123" lon="8.428209">
        <ele>707.4</ele>
      </trkpt>
      <trkpt lat="47.961332" lon="8.427866">
        <ele>708.3</ele>
      </trkpt>
      <trkpt lat="47.961595" lon="8.427676">
        <ele>707.4</ele>
      </trkpt>
      <trkpt lat="47.962108" lon="8.427453">
        <ele>705.2</ele>
      </trkpt>
      <trkpt lat="47.962313" lon="8.427292">
        <ele>706.1</ele>
      </trkpt>
      <trkpt lat="47.963177" lon="8.426382">
        <ele>707.6</ele>
      </trkpt>
      <trkpt lat="47.963709" lon="8.42594">
        <ele>708</ele>
      </trkpt>
      <trkpt lat="47.96375" lon="8.425915">
        <ele>708</ele>
      </trkpt>
      <trkpt lat="47.963906" lon="8.425749">
        <ele>707.6</ele>
      </trkpt>
      <trkpt lat="47.963954" lon="8.425622">
        <ele>707</ele>
      </trkpt>
      <trkpt lat="47.964131" lon="8.42576">
        <ele>707</ele>
      </trkpt>
      <trkpt lat="47.964644" lon="8.425971">
        <ele>708.5</ele>
      </trkpt>
      <trkpt lat="47.964802" lon="8.426006">
        <ele>708.9</ele>
      </trkpt>
      <trkpt lat="47.964942" lon="8.426027">
        <ele>708.9</ele>
      </trkpt>
      <trkpt lat="47.965059" lon="8.426032">
        <ele>709</ele>
      </trkpt>
      <trkpt lat="47.965681" lon="8.426036">
        <ele>710.6</ele>
      </trkpt>
      <trkpt lat="47.965828" lon="8.426062">
        <ele>711</ele>
      </trkpt>
      <trkpt lat="47.965844" lon="8.425859">
        <ele>710.8</ele>
      </trkpt>
      <trkpt lat="47.965808" lon="8.425637">
        <ele>710.6</ele>
      </trkpt>
      <trkpt lat="47.96595" lon="8.425341">
        <ele>710.8</ele>
      </trkpt>
      <trkpt lat="47.966116" lon="8.425155">
        <ele>710.5</ele>
      </trkpt>
      <trkpt lat="47.966685" lon="8.424487">
        <ele>709</ele>
      </trkpt>
      <trkpt lat="47.967283" lon="8.423811">
        <ele>709.4</ele>
      </trkpt>
      <trkpt lat="47.967972" lon="8.423019">
        <ele>709.5</ele>
      </trkpt>
      <trkpt lat="47.968039" lon="8.422767">
        <ele>710</ele>
      </trkpt>
      <trkpt lat="47.968029" lon="8.422547">
        <ele>710.4</ele>
      </trkpt>
      <trkpt lat="47.967972" lon="8.422112">
        <ele>709.6</ele>
      </trkpt>
      <trkpt lat="47.967969" lon="8.421931">
        <ele>709.4</ele>
      </trkpt>
      <trkpt lat="47.968013" lon="8.421584">
        <ele>709.7</ele>
      </trkpt>
      <trkpt lat="47.968099" lon="8.421304">
        <ele>709.9</ele>
      </trkpt>
      <trkpt lat="47.968865" lon="8.420266">
        <ele>708.3</ele>
      </trkpt>
      <trkpt lat="47.969319" lon="8.419635">
        <ele>709.5</ele>
      </trkpt>
      <trkpt lat="47.969397" lon="8.419509">
        <ele>709.4</ele>
      </trkpt>
      <trkpt lat="47.969622" lon="8.419054">
        <ele>708.6</ele>
      </trkpt>
      <trkpt lat="47.969804" lon="8.418533">
        <ele>708.4</ele>
      </trkpt>
      <trkpt lat="47.969958" lon="8.41777">
        <ele>708.7</ele>
      </trkpt>
      <trkpt lat="47.970149" lon="8.416809">
        <ele>710.8</ele>
      </trkpt>
      <trkpt lat="47.97033" lon="8.416303">
        <ele>714.5</ele>
      </trkpt>
      <trkpt lat="47.970475" lon="8.416012">
        <ele>715.6</ele>
      </trkpt>
      <trkpt lat="47.970622" lon="8.415774">
        <ele>717.4</ele>
      </trkpt>
      <trkpt lat="47.970921" lon="8.415346">
        <ele>722.4</ele>
      </trkpt>
      <trkpt lat="47.971202" lon="8.415007">
        <ele>720.2</ele>
      </trkpt>
      <trkpt lat="47.971319" lon="8.414868">
        <ele>720.7</ele>
      </trkpt>
      <trkpt lat="47.971623" lon="8.414468">
        <ele>725.2</ele>
      </trkpt>
      <trkpt lat="47.971927" lon="8.414189">
        <ele>720.3</ele>
      </trkpt>
      <trkpt lat="47.972111" lon="8.414087">
        <ele>716.6</ele>
      </trkpt>
      <trkpt lat="47.972343" lon="8.414007">
        <ele>713.2</ele>
      </trkpt>
      <trkpt lat="47.97285" lon="8.41395">
        <ele>714</ele>
      </trkpt>
      <trkpt lat="47.972987" lon="8.413951">
        <ele>715</ele>
      </trkpt>
      <trkpt lat="47.973372" lon="8.414">
        <ele>715.6</ele>
      </trkpt>
      <trkpt lat="47.97347" lon="8.414062">
        <ele>715.4</ele>
      </trkpt>
      <trkpt lat="47.973547" lon="8.414166">
        <ele>715.1</ele>
      </trkpt>
      <trkpt lat="47.973616" lon="8.414324">
        <ele>714.8</ele>
      </trkpt>
      <trkpt lat="47.973646" lon="8.414473">
        <ele>714.9</ele>
      </trkpt>
      <trkpt lat="47.973681" lon="8.41462">
        <ele>715.2</ele>
      </trkpt>
      <trkpt lat="47.973749" lon="8.414758">
        <ele>715.7</ele>
      </trkpt>
      <trkpt lat="47.974009" lon="8.415044">
        <ele>719.7</ele>
      </trkpt>
      <trkpt lat="47.974085" lon="8.415126">
        <ele>721.9</ele>
      </trkpt>
      <trkpt lat="47.974253" lon="8.41471">
        <ele>722.8</ele>
      </trkpt>
      <trkpt lat="47.974393" lon="8.414108">
        <ele>723.5</ele>
      </trkpt>
      <trkpt lat="47.974448" lon="8.413501">
        <ele>728.1</ele>
      </trkpt>
      <trkpt lat="47.974452" lon="8.413031">
        <ele>732.1</ele>
      </trkpt>
      <trkpt lat="47.974431" lon="8.41266">
        <ele>731.6</ele>
      </trkpt>
      <trkpt lat="47.974376" lon="8.412258">
        <ele>730.6</ele>
      </trkpt>
      <trkpt lat="47.974271" lon="8.411783">
        <ele>727</ele>
      </trkpt>
      <trkpt lat="47.974111" lon="8.411316">
        <ele>724.4</ele>
      </trkpt>
      <trkpt lat="47.973331" lon="8.409616">
        <ele>725.8</ele>
      </trkpt>
      <trkpt lat="47.97314" lon="8.409065">
        <ele>725</ele>
      </trkpt>
      <trkpt lat="47.97301" lon="8.408556">
        <ele>725.2</ele>
      </trkpt>
      <trkpt lat="47.972931" lon="8.408008">
        <ele>727.6</ele>
      </trkpt>
      <trkpt lat="47.972855" lon="8.406531">
        <ele>727.3</ele>
      </trkpt>
      <trkpt lat="47.972847" lon="8.406144">
        <ele>726</ele>
      </trkpt>
      <trkpt lat="47.972832" lon="8.405477">
        <ele>725.5</ele>
      </trkpt>
      <trkpt lat="47.972871" lon="8.404931">
        <ele>724.3</ele>
      </trkpt>
      <trkpt lat="47.972946" lon="8.404416">
        <ele>724.3</ele>
      </trkpt>
      <trkpt lat="47.973062" lon="8.403919">
        <ele>725</ele>
      </trkpt>
      <trkpt lat="47.974731" lon="8.399664">
        <ele>720.3</ele>
      </trkpt>
      <trkpt lat="47.975326" lon="8.397938">
        <ele>723.5</ele>
      </trkpt>
      <trkpt lat="47.975851" lon="8.396315">
        <ele>730.4</ele>
      </trkpt>
      <trkpt lat="47.976231" lon="8.394858">
        <ele>722.8</ele>
      </trkpt>
      <trkpt lat="47.976533" lon="8.39393">
        <ele>725.8</ele>
      </trkpt>
      <trkpt lat="47.976933" lon="8.393097">
        <ele>725.9</ele>
      </trkpt>
      <trkpt lat="47.977368" lon="8.392507">
        <ele>725.7</ele>
      </trkpt>
      <trkpt lat="47.978064" lon="8.391858">
        <ele>725.4</ele>
      </trkpt>
      <trkpt lat="47.978643" lon="8.391537">
        <ele>728.2</ele>
      </trkpt>
      <trkpt lat="47.9792" lon="8.391356">
        <ele>732.5</ele>
      </trkpt>
      <trkpt lat="47.979567" lon="8.391191">
        <ele>731.2</ele>
      </trkpt>
      <trkpt lat="47.979919" lon="8.390935">
        <ele>728</ele>
      </trkpt>
      <trkpt lat="47.980219" lon="8.390561">
        <ele>728.5</ele>
      </trkpt>
      <trkpt lat="47.980427" lon="8.390207">
        <ele>728</ele>
      </trkpt>
      <trkpt lat="47.980618" lon="8.389722">
        <ele>728.6</ele>
      </trkpt>
      <trkpt lat="47.981102" lon="8.38808">
        <ele>725</ele>
      </trkpt>
      <trkpt lat="47.981439" lon="8.387111">
        <ele>723.8</ele>
      </trkpt>
      <trkpt lat="47.982054" lon="8.385825">
        <ele>724.9</ele>
      </trkpt>
      <trkpt lat="47.98302" lon="8.384346">
        <ele>728.4</ele>
      </trkpt>
      <trkpt lat="47.983562" lon="8.383464">
        <ele>733.1</ele>
      </trkpt>
      <trkpt lat="47.984511" lon="8.382682">
        <ele>732.9</ele>
      </trkpt>
      <trkpt lat="47.986479" lon="8.382379">
        <ele>741.5</ele>
      </trkpt>
      <trkpt lat="47.987138" lon="8.382136">
        <ele>737.1</ele>
      </trkpt>
      <trkpt lat="47.987829" lon="8.381591">
        <ele>732.4</ele>
      </trkpt>
      <trkpt lat="47.988265" lon="8.380802">
        <ele>729.8</ele>
      </trkpt>
      <trkpt lat="47.988718" lon="8.379415">
        <ele>734.6</ele>
      </trkpt>
      <trkpt lat="47.988999" lon="8.378356">
        <ele>732.4</ele>
      </trkpt>
      <trkpt lat="47.989226" lon="8.377323">
        <ele>731.3</ele>
      </trkpt>
      <trkpt lat="47.989506" lon="8.376301">
        <ele>729.7</ele>
      </trkpt>
      <trkpt lat="47.989555" lon="8.376083">
        <ele>729.3</ele>
      </trkpt>
      <trkpt lat="47.98996" lon="8.37508">
        <ele>735.1</ele>
      </trkpt>
      <trkpt lat="47.990135" lon="8.374338">
        <ele>737.3</ele>
      </trkpt>
      <trkpt lat="47.990257" lon="8.372217">
        <ele>735.2</ele>
      </trkpt>
      <trkpt lat="47.99026" lon="8.369946">
        <ele>737.9</ele>
      </trkpt>
      <trkpt lat="47.990186" lon="8.36873">
        <ele>736.3</ele>
      </trkpt>
      <trkpt lat="47.990093" lon="8.367727">
        <ele>735</ele>
      </trkpt>
      <trkpt lat="47.990102" lon="8.367066">
        <ele>741.7</ele>
      </trkpt>
      <trkpt lat="47.990155" lon="8.366724">
        <ele>742.3</ele>
      </trkpt>
      <trkpt lat="47.990356" lon="8.366181">
        <ele>738.2</ele>
      </trkpt>
      <trkpt lat="47.990615" lon="8.365662">
        <ele>732.8</ele>
      </trkpt>
      <trkpt lat="47.991055" lon="8.365137">
        <ele>737.3</ele>
      </trkpt>
      <trkpt lat="47.99146" lon="8.36439">
        <ele>741.6</ele>
      </trkpt>
      <trkpt lat="47.991556" lon="8.363846">
        <ele>737.4</ele>
      </trkpt>
      <trkpt lat="47.991579" lon="8.363714">
        <ele>737.4</ele>
      </trkpt>
      <trkpt lat="47.991524" lon="8.363094">
        <ele>739.3</ele>
      </trkpt>
      <trkpt lat="47.991326" lon="8.36249">
        <ele>740.5</ele>
      </trkpt>
      <trkpt lat="47.990667" lon="8.361264">
        <ele>737.9</ele>
      </trkpt>
      <trkpt lat="47.990457" lon="8.360918">
        <ele>738.9</ele>
      </trkpt>
      <trkpt lat="47.990139" lon="8.360486">
        <ele>740</ele>
      </trkpt>
      <trkpt lat="47.989372" lon="8.35953">
        <ele>740.8</ele>
      </trkpt>
      <trkpt lat="47.989175" lon="8.359193">
        <ele>742.3</ele>
      </trkpt>
      <trkpt lat="47.989039" lon="8.358847">
        <ele>744.3</ele>
      </trkpt>
      <trkpt lat="47.988948" lon="8.358466">
        <ele>744.2</ele>
      </trkpt>
      <trkpt lat="47.988922" lon="8.358087">
        <ele>742.9</ele>
      </trkpt>
      <trkpt lat="47.988946" lon="8.35773">
        <ele>741.7</ele>
      </trkpt>
      <trkpt lat="47.989047" lon="8.35729">
        <ele>744.3</ele>
      </trkpt>
      <trkpt lat="47.990349" lon="8.353595">
        <ele>747.8</ele>
      </trkpt>
      <trkpt lat="47.990589" lon="8.353017">
        <ele>746.7</ele>
      </trkpt>
      <trkpt lat="47.990746" lon="8.352797">
        <ele>747.2</ele>
      </trkpt>
      <trkpt lat="47.990947" lon="8.352615">
        <ele>748.5</ele>
      </trkpt>
      <trkpt lat="47.991199" lon="8.352457">
        <ele>750.8</ele>
      </trkpt>
      <trkpt lat="47.991823" lon="8.35217">
        <ele>750.1</ele>
      </trkpt>
      <trkpt lat="47.992169" lon="8.351954">
        <ele>748.5</ele>
      </trkpt>
      <trkpt lat="47.992418" lon="8.351746">
        <ele>747.3</ele>
      </trkpt>
      <trkpt lat="47.992626" lon="8.351511">
        <ele>747.2</ele>
      </trkpt>
      <trkpt lat="47.992906" lon="8.351117">
        <ele>749.5</ele>
      </trkpt>
      <trkpt lat="47.993059" lon="8.350815">
        <ele>749.9</ele>
      </trkpt>
      <trkpt lat="47.993676" lon="8.349308">
        <ele>749.2</ele>
      </trkpt>
      <trkpt lat="47.994329" lon="8.347949">
        <ele>751.8</ele>
      </trkpt>
      <trkpt lat="47.994471" lon="8.347585">
        <ele>752.2</ele>
      </trkpt>
      <trkpt lat="47.994602" lon="8.347153">
        <ele>751.7</ele>
      </trkpt>
      <trkpt lat="47.994745" lon="8.346454">
        <ele>751.7</ele>
      </trkpt>
      <trkpt lat="47.994948" lon="8.344745">
        <ele>745.5</ele>
      </trkpt>
      <trkpt lat="47.995031" lon="8.344083">
        <ele>745.7</ele>
      </trkpt>
      <trkpt lat="47.995193" lon="8.342763">
        <ele>751.2</ele>
      </trkpt>
      <trkpt lat="47.995576" lon="8.33965">
        <ele>757.8</ele>
      </trkpt>
      <trkpt lat="47.99573" lon="8.338754">
        <ele>753.2</ele>
      </trkpt>
      <trkpt lat="47.995977" lon="8.338118">
        <ele>753.6</ele>
      </trkpt>
      <trkpt lat="47.996357" lon="8.337464">
        <ele>753.4</ele>
      </trkpt>
      <trkpt lat="47.996666" lon="8.336904">
        <ele>757.6</ele>
      </trkpt>
      <trkpt lat="47.996915" lon="8.336318">
        <ele>760</ele>
      </trkpt>
      <trkpt lat="47.997023" lon="8.335997">
        <ele>759.3</ele>
      </trkpt>
      <trkpt lat="47.997849" lon="8.333034">
        <ele>759.4</ele>
      </trkpt>
      <trkpt lat="47.998269" lon="8.331845">
        <ele>748.8</ele>
      </trkpt>
      <trkpt lat="47.99847" lon="8.3313">
        <ele>754.4</ele>
      </trkpt>
      <trkpt lat="47.998596" lon="8.330945">
        <ele>757.8</ele>
      </trkpt>
      <trkpt lat="47.998815" lon="8.330421">
        <ele>759.1</ele>
      </trkpt>
      <trkpt lat="47.998902" lon="8.330254">
        <ele>757.9</ele>
      </trkpt>
      <trkpt lat="47.998965" lon="8.330157">
        <ele>757.6</ele>
      </trkpt>
      <trkpt lat="47.998974" lon="8.330142">
        <ele>757.5</ele>
      </trkpt>
      <trkpt lat="47.999137" lon="8.32992">
        <ele>757.6</ele>
      </trkpt>
      <trkpt lat="47.999206" lon="8.329846">
        <ele>758.3</ele>
      </trkpt>
      <trkpt lat="47.999449" lon="8.329615">
        <ele>758.7</ele>
      </trkpt>
      <trkpt lat="47.999966" lon="8.329109">
        <ele>758.6</ele>
      </trkpt>
      <trkpt lat="48.000536" lon="8.328608">
        <ele>755.1</ele>
      </trkpt>
      <trkpt lat="48.000917" lon="8.328464">
        <ele>757.2</ele>
      </trkpt>
      <trkpt lat="48.001187" lon="8.328486">
        <ele>758.4</ele>
      </trkpt>
      <trkpt lat="48.001938" lon="8.328934">
        <ele>779.1</ele>
      </trkpt>
      <trkpt lat="48.002218" lon="8.329044">
        <ele>779.4</ele>
      </trkpt>
      <trkpt lat="48.002464" lon="8.329077">
        <ele>779.4</ele>
      </trkpt>
      <trkpt lat="48.002719" lon="8.32906">
        <ele>777.6</ele>
      </trkpt>
      <trkpt lat="48.003111" lon="8.328977">
        <ele>772.7</ele>
      </trkpt>
      <trkpt lat="48.00379" lon="8.328833">
        <ele>773.8</ele>
      </trkpt>
      <trkpt lat="48.00409" lon="8.328733">
        <ele>774.5</ele>
      </trkpt>
      <trkpt lat="48.00443" lon="8.328517">
        <ele>770.5</ele>
      </trkpt>
      <trkpt lat="48.004691" lon="8.328236">
        <ele>764.2</ele>
      </trkpt>
      <trkpt lat="48.005237" lon="8.327349">
        <ele>762.8</ele>
      </trkpt>
      <trkpt lat="48.005427" lon="8.327116">
        <ele>761.6</ele>
      </trkpt>
      <trkpt lat="48.005628" lon="8.326981">
        <ele>761.5</ele>
      </trkpt>
      <trkpt lat="48.006482" lon="8.326981">
        <ele>776.9</ele>
      </trkpt>
      <trkpt lat="48.006726" lon="8.326887">
        <ele>776.6</ele>
      </trkpt>
      <trkpt lat="48.007107" lon="8.326603">
        <ele>769.7</ele>
      </trkpt>
      <trkpt lat="48.007451" lon="8.326268">
        <ele>763.7</ele>
      </trkpt>
      <trkpt lat="48.007475" lon="8.326242">
        <ele>763.4</ele>
      </trkpt>
      <trkpt lat="48.007637" lon="8.326032">
        <ele>764.5</ele>
      </trkpt>
      <trkpt lat="48.007799" lon="8.32576">
        <ele>765.8</ele>
      </trkpt>
      <trkpt lat="48.008676" lon="8.323866">
        <ele>767.6</ele>
      </trkpt>
      <trkpt lat="48.009034" lon="8.323094">
        <ele>766.8</ele>
      </trkpt>
      <trkpt lat="48.009234" lon="8.322766">
        <ele>766.3</ele>
      </trkpt>
      <trkpt lat="48.009608" lon="8.322299">
        <ele>767.3</ele>
      </trkpt>
      <trkpt lat="48.009857" lon="8.322077">
        <ele>768.3</ele>
      </trkpt>
      <trkpt lat="48.010248" lon="8.321836">
        <ele>767.8</ele>
      </trkpt>
      <trkpt lat="48.010656" lon="8.321665">
        <ele>771.3</ele>
      </trkpt>
      <trkpt lat="48.012231" lon="8.320922">
        <ele>773.7</ele>
      </trkpt>
      <trkpt lat="48.013947" lon="8.320182">
        <ele>774.2</ele>
      </trkpt>
      <trkpt lat="48.014577" lon="8.32002">
        <ele>774.6</ele>
      </trkpt>
      <trkpt lat="48.014558" lon="8.319614">
        <ele>770.9</ele>
      </trkpt>
      <trkpt lat="48.014546" lon="8.319319">
        <ele>770.4</ele>
      </trkpt>
      <trkpt lat="48.014525" lon="8.318976">
        <ele>772.3</ele>
      </trkpt>
      <trkpt lat="48.014519" lon="8.318858">
        <ele>773.8</ele>
      </trkpt>
      <trkpt lat="48.014489" lon="8.318318">
        <ele>779.2</ele>
      </trkpt>
      <trkpt lat="48.014327" lon="8.314826">
        <ele>792.8</ele>
      </trkpt>
      <trkpt lat="48.014336" lon="8.314638">
        <ele>792.2</ele>
      </trkpt>
      <trkpt lat="48.014511" lon="8.313971">
        <ele>794.7</ele>
      </trkpt>
      <trkpt lat="48.014656" lon="8.313212">
        <ele>795</ele>
      </trkpt>
      <trkpt lat="48.014737" lon="8.312494">
        <ele>796.2</ele>
      </trkpt>
      <trkpt lat="48.014718" lon="8.311825">
        <ele>793.5</ele>
      </trkpt>
      <trkpt lat="48.014741" lon="8.311595">
        <ele>792.6</ele>
      </trkpt>
      <trkpt lat="48.014964" lon="8.310296">
        <ele>798.4</ele>
      </trkpt>
      <trkpt lat="48.015065" lon="8.30986">
        <ele>801</ele>
      </trkpt>
      <trkpt lat="48.015142" lon="8.309647">
        <ele>802.5</ele>
      </trkpt>
      <trkpt lat="48.015334" lon="8.309278">
        <ele>804.6</ele>
      </trkpt>
      <trkpt lat="48.015678" lon="8.308136">
        <ele>807.2</ele>
      </trkpt>
      <trkpt lat="48.015731" lon="8.307917">
        <ele>805.8</ele>
      </trkpt>
      <trkpt lat="48.016024" lon="8.307018">
        <ele>809</ele>
      </trkpt>
      <trkpt lat="48.016135" lon="8.306431">
        <ele>808.2</ele>
      </trkpt>
      <trkpt lat="48.016158" lon="8.30612">
        <ele>806.7</ele>
      </trkpt>
      <trkpt lat="48.016166" lon="8.305294">
        <ele>807.7</ele>
      </trkpt>
      <trkpt lat="48.016183" lon="8.305082">
        <ele>808.5</ele>
      </trkpt>
      <trkpt lat="48.016221" lon="8.304777">
        <ele>809.5</ele>
      </trkpt>
      <trkpt lat="48.016381" lon="8.304092">
        <ele>809.5</ele>
      </trkpt>
      <trkpt lat="48.016467" lon="8.303822">
        <ele>812.2</ele>
      </trkpt>
      <trkpt lat="48.016717" lon="8.30329">
        <ele>815</ele>
      </trkpt>
      <trkpt lat="48.016934" lon="8.302585">
        <ele>812.7</ele>
      </trkpt>
      <trkpt lat="48.017119" lon="8.302096">
        <ele>812.3</ele>
      </trkpt>
      <trkpt lat="48.01719" lon="8.301926">
        <ele>812.6</ele>
      </trkpt>
      <trkpt lat="48.017801" lon="8.300478">
        <ele>815.1</ele>
      </trkpt>
      <trkpt lat="48.017899" lon="8.299674">
        <ele>822.9</ele>
      </trkpt>
      <trkpt lat="48.018061" lon="8.298915">
        <ele>826.6</ele>
      </trkpt>
      <trkpt lat="48.018498" lon="8.297608">
        <ele>840.9</ele>
      </trkpt>
      <trkpt lat="48.018527" lon="8.297293">
        <ele>840.3</ele>
      </trkpt>
      <trkpt lat="48.018605" lon="8.296747">
        <ele>840.5</ele>
      </trkpt>
      <trkpt lat="48.018662" lon="8.295483">
        <ele>845.5</ele>
      </trkpt>
      <trkpt lat="48.018693" lon="8.295165">
        <ele>844.3</ele>
      </trkpt>
      <trkpt lat="48.018727" lon="8.295027">
        <ele>843.4</ele>
      </trkpt>
      <trkpt lat="48.018778" lon="8.29489">
        <ele>842.2</ele>
      </trkpt>
      <trkpt lat="48.018943" lon="8.294706">
        <ele>840.5</ele>
      </trkpt>
      <trkpt lat="48.019064" lon="8.294669">
        <ele>841.4</ele>
      </trkpt>
      <trkpt lat="48.019338" lon="8.294676">
        <ele>847.6</ele>
      </trkpt>
      <trkpt lat="48.01945" lon="8.29461">
        <ele>850</ele>
      </trkpt>
      <trkpt lat="48.019533" lon="8.29442">
        <ele>850.1</ele>
      </trkpt>
      <trkpt lat="48.019544" lon="8.294264">
        <ele>851</ele>
      </trkpt>
      <trkpt lat="48.019492" lon="8.294025">
        <ele>852.6</ele>
      </trkpt>
      <trkpt lat="48.019391" lon="8.29384">
        <ele>854.9</ele>
      </trkpt>
      <trkpt lat="48.019322" lon="8.293771">
        <ele>855.2</ele>
      </trkpt>
      <trkpt lat="48.01882" lon="8.293475">
        <ele>851.2</ele>
      </trkpt>
      <trkpt lat="48.018685" lon="8.293299">
        <ele>848.6</ele>
      </trkpt>
      <trkpt lat="48.018627" lon="8.293054">
        <ele>850.5</ele>
      </trkpt>
      <trkpt lat="48.018616" lon="8.292739">
        <ele>853.5</ele>
      </trkpt>
      <trkpt lat="48.018613" lon="8.292401">
        <ele>854.7</ele>
      </trkpt>
      <trkpt lat="48.018624" lon="8.292054">
        <ele>856.3</ele>
      </trkpt>
      <trkpt lat="48.018688" lon="8.291582">
        <ele>856.1</ele>
      </trkpt>
      <trkpt lat="48.018742" lon="8.291299">
        <ele>854.3</ele>
      </trkpt>
      <trkpt lat="48.019009" lon="8.290237">
        <ele>855.4</ele>
      </trkpt>
      <trkpt lat="48.019312" lon="8.289392">
        <ele>858</ele>
      </trkpt>
      <trkpt lat="48.019444" lon="8.288994">
        <ele>856.2</ele>
      </trkpt>
      <trkpt lat="48.020034" lon="8.286834">
        <ele>855.8</ele>
      </trkpt>
      <trkpt lat="48.020443" lon="8.285495">
        <ele>855.1</ele>
      </trkpt>
      <trkpt lat="48.020596" lon="8.284787">
        <ele>860.1</ele>
      </trkpt>
      <trkpt lat="48.020672" lon="8.2843">
        <ele>861.4</ele>
      </trkpt>
      <trkpt lat="48.020762" lon="8.283723">
        <ele>861.7</ele>
      </trkpt>
      <trkpt lat="48.020907" lon="8.282137">
        <ele>863.8</ele>
      </trkpt>
      <trkpt lat="48.021028" lon="8.281211">
        <ele>860.3</ele>
      </trkpt>
      <trkpt lat="48.021111" lon="8.280822">
        <ele>860.2</ele>
      </trkpt>
      <trkpt lat="48.021345" lon="8.280269">
        <ele>861.2</ele>
      </trkpt>
      <trkpt lat="48.021948" lon="8.279195">
        <ele>865.6</ele>
      </trkpt>
      <trkpt lat="48.022139" lon="8.278746">
        <ele>869.7</ele>
      </trkpt>
      <trkpt lat="48.022177" lon="8.278584">
        <ele>871.1</ele>
      </trkpt>
      <trkpt lat="48.022206" lon="8.277443">
        <ele>869</ele>
      </trkpt>
      <trkpt lat="48.022391" lon="8.276207">
        <ele>866.2</ele>
      </trkpt>
      <trkpt lat="48.022432" lon="8.275608">
        <ele>862.7</ele>
      </trkpt>
      <trkpt lat="48.022424" lon="8.275324">
        <ele>861</ele>
      </trkpt>
      <trkpt lat="48.022316" lon="8.27475">
        <ele>860.9</ele>
      </trkpt>
      <trkpt lat="48.022303" lon="8.274534">
        <ele>862.9</ele>
      </trkpt>
      <trkpt lat="48.022361" lon="8.273932">
        <ele>873.7</ele>
      </trkpt>
      <trkpt lat="48.022464" lon="8.273153">
        <ele>878.5</ele>
      </trkpt>
      <trkpt lat="48.022615" lon="8.271513">
        <ele>866.1</ele>
      </trkpt>
      <trkpt lat="48.022684" lon="8.271009">
        <ele>869.5</ele>
      </trkpt>
      <trkpt lat="48.022718" lon="8.269585">
        <ele>883.7</ele>
      </trkpt>
      <trkpt lat="48.022744" lon="8.269367">
        <ele>882.7</ele>
      </trkpt>
      <trkpt lat="48.022762" lon="8.269305">
        <ele>882.1</ele>
      </trkpt>
      <trkpt lat="48.023153" lon="8.267987">
        <ele>879.8</ele>
      </trkpt>
      <trkpt lat="48.023298" lon="8.267621">
        <ele>879.6</ele>
      </trkpt>
      <trkpt lat="48.023644" lon="8.266895">
        <ele>878.5</ele>
      </trkpt>
      <trkpt lat="48.023706" lon="8.266807">
        <ele>878.9</ele>
      </trkpt>
      <trkpt lat="48.023793" lon="8.266718">
        <ele>879.5</ele>
      </trkpt>
      <trkpt lat="48.023963" lon="8.266499">
        <ele>878.3</ele>
      </trkpt>
      <trkpt lat="48.024031" lon="8.266355">
        <ele>877.1</ele>
      </trkpt>
      <trkpt lat="48.024096" lon="8.265705">
        <ele>877.3</ele>
      </trkpt>
      <trkpt lat="48.024212" lon="8.265051">
        <ele>878.5</ele>
      </trkpt>
      <trkpt lat="48.024275" lon="8.264178">
        <ele>880.2</ele>
      </trkpt>
      <trkpt lat="48.0245" lon="8.263447">
        <ele>884.9</ele>
      </trkpt>
      <trkpt lat="48.02446" lon="8.262854">
        <ele>883.4</ele>
      </trkpt>
      <trkpt lat="48.024553" lon="8.261643">
        <ele>884.1</ele>
      </trkpt>
      <trkpt lat="48.024535" lon="8.261101">
        <ele>884.2</ele>
      </trkpt>
      <trkpt lat="48.024558" lon="8.260623">
        <ele>885.3</ele>
      </trkpt>
      <trkpt lat="48.02463" lon="8.25982">
        <ele>886.3</ele>
      </trkpt>
      <trkpt lat="48.024674" lon="8.259544">
        <ele>886.9</ele>
      </trkpt>
      <trkpt lat="48.024863" lon="8.258922">
        <ele>889.8</ele>
      </trkpt>
      <trkpt lat="48.024906" lon="8.258662">
        <ele>889.8</ele>
      </trkpt>
      <trkpt lat="48.024909" lon="8.258283">
        <ele>889.3</ele>
      </trkpt>
      <trkpt lat="48.024855" lon="8.257698">
        <ele>890</ele>
      </trkpt>
      <trkpt lat="48.024744" lon="8.257018">
        <ele>893.1</ele>
      </trkpt>
      <trkpt lat="48.024599" lon="8.25656">
        <ele>892.8</ele>
      </trkpt>
      <trkpt lat="48.024426" lon="8.256171">
        <ele>891.2</ele>
      </trkpt>
      <trkpt lat="48.024377" lon="8.255987">
        <ele>891</ele>
      </trkpt>
      <trkpt lat="48.024338" lon="8.25525">
        <ele>892.4</ele>
      </trkpt>
      <trkpt lat="48.024125" lon="8.253795">
        <ele>898.4</ele>
      </trkpt>
      <trkpt lat="48.024119" lon="8.253386">
        <ele>901.8</ele>
      </trkpt>
      <trkpt lat="48.024285" lon="8.252182">
        <ele>903.4</ele>
      </trkpt>
      <trkpt lat="48.024292" lon="8.251906">
        <ele>903.4</ele>
      </trkpt>
      <trkpt lat="48.024152" lon="8.24961">
        <ele>909.7</ele>
      </trkpt>
      <trkpt lat="48.024148" lon="8.248506">
        <ele>906.4</ele>
      </trkpt>
      <trkpt lat="48.024247" lon="8.247069">
        <ele>910.3</ele>
      </trkpt>
      <trkpt lat="48.024265" lon="8.246707">
        <ele>911.3</ele>
      </trkpt>
      <trkpt lat="48.024298" lon="8.246491">
        <ele>912.1</ele>
      </trkpt>
      <trkpt lat="48.024391" lon="8.246152">
        <ele>912.5</ele>
      </trkpt>
      <trkpt lat="48.024749" lon="8.245236">
        <ele>913.3</ele>
      </trkpt>
      <trkpt lat="48.024819" lon="8.244878">
        <ele>914.3</ele>
      </trkpt>
      <trkpt lat="48.024871" lon="8.244442">
        <ele>913.8</ele>
      </trkpt>
      <trkpt lat="48.024925" lon="8.243068">
        <ele>913.8</ele>
      </trkpt>
      <trkpt lat="48.024849" lon="8.241571">
        <ele>916.2</ele>
      </trkpt>
      <trkpt lat="48.024888" lon="8.240683">
        <ele>921.6</ele>
      </trkpt>
      <trkpt lat="48.024799" lon="8.240178">
        <ele>923.5</ele>
      </trkpt>
      <trkpt lat="48.024479" lon="8.239401">
        <ele>922.7</ele>
      </trkpt>
      <trkpt lat="48.024346" lon="8.23895">
        <ele>921.4</ele>
      </trkpt>
      <trkpt lat="48.024285" lon="8.238609">
        <ele>921.7</ele>
      </trkpt>
      <trkpt lat="48.024236" lon="8.237568">
        <ele>925.4</ele>
      </trkpt>
      <trkpt lat="48.024092" lon="8.236706">
        <ele>927</ele>
      </trkpt>
      <trkpt lat="48.024047" lon="8.236126">
        <ele>930</ele>
      </trkpt>
      <trkpt lat="48.02409" lon="8.235426">
        <ele>930.7</ele>
      </trkpt>
      <trkpt lat="48.024235" lon="8.234615">
        <ele>931.5</ele>
      </trkpt>
      <trkpt lat="48.024522" lon="8.233258">
        <ele>934.2</ele>
      </trkpt>
      <trkpt lat="48.02455" lon="8.233019">
        <ele>935.6</ele>
      </trkpt>
      <trkpt lat="48.024554" lon="8.232716">
        <ele>936.6</ele>
      </trkpt>
      <trkpt lat="48.024583" lon="8.231982">
        <ele>936.9</ele>
      </trkpt>
      <trkpt lat="48.024686" lon="8.231322">
        <ele>938.1</ele>
      </trkpt>
      <trkpt lat="48.024764" lon="8.231136">
        <ele>939.1</ele>
      </trkpt>
      <trkpt lat="48.024957" lon="8.230803">
        <ele>942.7</ele>
      </trkpt>
      <trkpt lat="48.0253" lon="8.229723">
        <ele>943.4</ele>
      </trkpt>
      <trkpt lat="48.025928" lon="8.228449">
        <ele>945</ele>
      </trkpt>
      <trkpt lat="48.026131" lon="8.228168">
        <ele>945.4</ele>
      </trkpt>
      <trkpt lat="48.026507" lon="8.227783">
        <ele>950</ele>
      </trkpt>
      <trkpt lat="48.026596" lon="8.227656">
        <ele>951</ele>
      </trkpt>
      <trkpt lat="48.026668" lon="8.227503">
        <ele>952.6</ele>
      </trkpt>
      <trkpt lat="48.026706" lon="8.227331">
        <ele>953.9</ele>
      </trkpt>
      <trkpt lat="48.026756" lon="8.22686">
        <ele>956</ele>
      </trkpt>
      <trkpt lat="48.027183" lon="8.225635">
        <ele>964.5</ele>
      </trkpt>
      <trkpt lat="48.027201" lon="8.225302">
        <ele>963.6</ele>
      </trkpt>
      <trkpt lat="48.027103" lon="8.224993">
        <ele>959.4</ele>
      </trkpt>
      <trkpt lat="48.027038" lon="8.224888">
        <ele>958.4</ele>
      </trkpt>
      <trkpt lat="48.026923" lon="8.224781">
        <ele>957.8</ele>
      </trkpt>
      <trkpt lat="48.026832" lon="8.224749">
        <ele>957.7</ele>
      </trkpt>
      <trkpt lat="48.026632" lon="8.224772">
        <ele>957.9</ele>
      </trkpt>
      <trkpt lat="48.026527" lon="8.224828">
        <ele>958.6</ele>
      </trkpt>
      <trkpt lat="48.026445" lon="8.224942">
        <ele>958.3</ele>
      </trkpt>
      <trkpt lat="48.026211" lon="8.225667">
        <ele>951.1</ele>
      </trkpt>
      <trkpt lat="48.026155" lon="8.22576">
        <ele>950.4</ele>
      </trkpt>
      <trkpt lat="48.026038" lon="8.225833">
        <ele>950</ele>
      </trkpt>
      <trkpt lat="48.025636" lon="8.225926">
        <ele>953.3</ele>
      </trkpt>
      <trkpt lat="48.025449" lon="8.226073">
        <ele>957.8</ele>
      </trkpt>
      <trkpt lat="48.02529" lon="8.226276">
        <ele>959.1</ele>
      </trkpt>
      <trkpt lat="48.025177" lon="8.226349">
        <ele>959.5</ele>
      </trkpt>
      <trkpt lat="48.025064" lon="8.226375">
        <ele>959.3</ele>
      </trkpt>
      <trkpt lat="48.025002" lon="8.226356">
        <ele>959.5</ele>
      </trkpt>
      <trkpt lat="48.024744" lon="8.226167">
        <ele>959.8</ele>
      </trkpt>
      <trkpt lat="48.024346" lon="8.226048">
        <ele>959</ele>
      </trkpt>
      <trkpt lat="48.024208" lon="8.225971">
        <ele>958.2</ele>
      </trkpt>
      <trkpt lat="48.024102" lon="8.22587">
        <ele>958.4</ele>
      </trkpt>
      <trkpt lat="48.024012" lon="8.225727">
        <ele>959.1</ele>
      </trkpt>
      <trkpt lat="48.0233" lon="8.223878">
        <ele>968.8</ele>
      </trkpt>
      <trkpt lat="48.023107" lon="8.223222">
        <ele>970.7</ele>
      </trkpt>
      <trkpt lat="48.022881" lon="8.222248">
        <ele>976.7</ele>
      </trkpt>
      <trkpt lat="48.022754" lon="8.221291">
        <ele>981.6</ele>
      </trkpt>
      <trkpt lat="48.022733" lon="8.220807">
        <ele>981.7</ele>
      </trkpt>
      <trkpt lat="48.02277" lon="8.220308">
        <ele>982.2</ele>
      </trkpt>
      <trkpt lat="48.02285" lon="8.219899">
        <ele>983.7</ele>
      </trkpt>
      <trkpt lat="48.023" lon="8.219358">
        <ele>987.9</ele>
      </trkpt>
      <trkpt lat="48.023064" lon="8.218648">
        <ele>987.7</ele>
      </trkpt>
      <trkpt lat="48.023138" lon="8.21822">
        <ele>988.9</ele>
      </trkpt>
      <trkpt lat="48.023515" lon="8.216676">
        <ele>1001.7</ele>
      </trkpt>
      <trkpt lat="48.02377" lon="8.216054">
        <ele>1006.7</ele>
      </trkpt>
      <trkpt lat="48.023968" lon="8.215357">
        <ele>1011.6</ele>
      </trkpt>
      <trkpt lat="48.024111" lon="8.214521">
        <ele>1008.8</ele>
      </trkpt>
      <trkpt lat="48.024422" lon="8.212725">
        <ele>1017.8</ele>
      </trkpt>
      <trkpt lat="48.024492" lon="8.21207">
        <ele>1019.2</ele>
      </trkpt>
      <trkpt lat="48.024496" lon="8.211462">
        <ele>1021.5</ele>
      </trkpt>
      <trkpt lat="48.02443" lon="8.210759">
        <ele>1024.2</ele>
      </trkpt>
      <trkpt lat="48.024309" lon="8.210224">
        <ele>1024.8</ele>
      </trkpt>
      <trkpt lat="48.0235" lon="8.207453">
        <ele>1007</ele>
      </trkpt>
      <trkpt lat="48.023091" lon="8.205937">
        <ele>991</ele>
      </trkpt>
      <trkpt lat="48.02307" lon="8.205515">
        <ele>987.8</ele>
      </trkpt>
      <trkpt lat="48.023125" lon="8.205079">
        <ele>983</ele>
      </trkpt>
      <trkpt lat="48.023336" lon="8.204448">
        <ele>977.4</ele>
      </trkpt>
      <trkpt lat="48.023727" lon="8.20373">
        <ele>970.4</ele>
      </trkpt>
      <trkpt lat="48.023966" lon="8.203431">
        <ele>967.4</ele>
      </trkpt>
      <trkpt lat="48.024305" lon="8.203106">
        <ele>960.8</ele>
      </trkpt>
      <trkpt lat="48.024549" lon="8.202915">
        <ele>956.9</ele>
      </trkpt>
      <trkpt lat="48.024711" lon="8.20273">
        <ele>955</ele>
      </trkpt>
      <trkpt lat="48.025084" lon="8.202208">
        <ele>957.3</ele>
      </trkpt>
      <trkpt lat="48.026261" lon="8.200759">
        <ele>951.5</ele>
      </trkpt>
      <trkpt lat="48.026473" lon="8.200571">
        <ele>952.1</ele>
      </trkpt>
      <trkpt lat="48.027457" lon="8.199956">
        <ele>948.4</ele>
      </trkpt>
      <trkpt lat="48.02799" lon="8.199466">
        <ele>942.7</ele>
      </trkpt>
      <trkpt lat="48.028087" lon="8.199414">
        <ele>941.2</ele>
      </trkpt>
      <trkpt lat="48.029323" lon="8.199222">
        <ele>939</ele>
      </trkpt>
      <trkpt lat="48.030151" lon="8.198941">
        <ele>928.2</ele>
      </trkpt>
      <trkpt lat="48.030653" lon="8.198674">
        <ele>924.3</ele>
      </trkpt>
      <trkpt lat="48.03153" lon="8.197996">
        <ele>923.3</ele>
      </trkpt>
      <trkpt lat="48.032369" lon="8.197177">
        <ele>919.2</ele>
      </trkpt>
      <trkpt lat="48.032756" lon="8.196776">
        <ele>917.3</ele>
      </trkpt>
      <trkpt lat="48.033528" lon="8.196005">
        <ele>909.7</ele>
      </trkpt>
      <trkpt lat="48.03376" lon="8.195851">
        <ele>909.4</ele>
      </trkpt>
      <trkpt lat="48.033988" lon="8.195733">
        <ele>907.7</ele>
      </trkpt>
      <trkpt lat="48.034787" lon="8.195506">
        <ele>894.7</ele>
      </trkpt>
      <trkpt lat="48.035001" lon="8.195409">
        <ele>890.3</ele>
      </trkpt>
      <trkpt lat="48.035102" lon="8.195361">
        <ele>888.9</ele>
      </trkpt>
      <trkpt lat="48.035278" lon="8.195269">
        <ele>889.3</ele>
      </trkpt>
      <trkpt lat="48.035621" lon="8.194952">
        <ele>892.6</ele>
      </trkpt>
      <trkpt lat="48.036625" lon="8.193831">
        <ele>891.8</ele>
      </trkpt>
      <trkpt lat="48.038425" lon="8.192006">
        <ele>886.7</ele>
      </trkpt>
      <trkpt lat="48.038945" lon="8.191285">
        <ele>883.7</ele>
      </trkpt>
      <trkpt lat="48.039052" lon="8.191141">
        <ele>882.8</ele>
      </trkpt>
      <trkpt lat="48.039137" lon="8.191033">
        <ele>882.8</ele>
      </trkpt>
      <trkpt lat="48.0393" lon="8.190845">
        <ele>883.7</ele>
      </trkpt>
      <trkpt lat="48.039502" lon="8.190711">
        <ele>885.2</ele>
      </trkpt>
      <trkpt lat="48.039808" lon="8.190629">
        <ele>884.1</ele>
      </trkpt>
      <trkpt lat="48.040037" lon="8.190618">
        <ele>883.7</ele>
      </trkpt>
      <trkpt lat="48.041818" lon="8.190756">
        <ele>893.8</ele>
      </trkpt>
      <trkpt lat="48.042119" lon="8.190863">
        <ele>893.7</ele>
      </trkpt>
      <trkpt lat="48.042584" lon="8.191102">
        <ele>893</ele>
      </trkpt>
      <trkpt lat="48.043578" lon="8.19181">
        <ele>883.7</ele>
      </trkpt>
      <trkpt lat="48.043747" lon="8.191873">
        <ele>882.9</ele>
      </trkpt>
      <trkpt lat="48.043896" lon="8.191881">
        <ele>881.8</ele>
      </trkpt>
      <trkpt lat="48.044146" lon="8.191779">
        <ele>882.4</ele>
      </trkpt>
      <trkpt lat="48.044283" lon="8.191714">
        <ele>882.6</ele>
      </trkpt>
      <trkpt lat="48.044339" lon="8.191701">
        <ele>882.6</ele>
      </trkpt>
      <trkpt lat="48.044676" lon="8.191557">
        <ele>881.4</ele>
      </trkpt>
      <trkpt lat="48.044847" lon="8.191614">
        <ele>881.4</ele>
      </trkpt>
      <trkpt lat="48.044895" lon="8.191671">
        <ele>881.6</ele>
      </trkpt>
      <trkpt lat="48.044921" lon="8.191825">
        <ele>881.7</ele>
      </trkpt>
      <trkpt lat="48.044958" lon="8.19198">
        <ele>881.5</ele>
      </trkpt>
      <trkpt lat="48.04496" lon="8.192073">
        <ele>881.2</ele>
      </trkpt>
      <trkpt lat="48.044963" lon="8.192265">
        <ele>880.8</ele>
      </trkpt>
      <trkpt lat="48.044958" lon="8.192432">
        <ele>880.3</ele>
      </trkpt>
      <trkpt lat="48.044955" lon="8.19263">
        <ele>880.4</ele>
      </trkpt>
      <trkpt lat="48.044953" lon="8.19285">
        <ele>880.5</ele>
      </trkpt>
      <trkpt lat="48.044969" lon="8.193813">
        <ele>877.3</ele>
      </trkpt>
      <trkpt lat="48.045054" lon="8.19484">
        <ele>875.5</ele>
      </trkpt>
      <trkpt lat="48.045054" lon="8.19484">
        <ele>875.5</ele>
      </trkpt>
      <trkpt lat="48.045229" lon="8.195854">
        <ele>872.8</ele>
      </trkpt>
      <trkpt lat="48.045333" lon="8.1962">
        <ele>872.1</ele>
      </trkpt>
      <trkpt lat="48.045377" lon="8.196318">
        <ele>871.8</ele>
      </trkpt>
      <trkpt lat="48.045451" lon="8.196436">
        <ele>871.4</ele>
      </trkpt>
      <trkpt lat="48.045616" lon="8.196675">
        <ele>870.5</ele>
      </trkpt>
      <trkpt lat="48.045857" lon="8.196904">
        <ele>872.4</ele>
      </trkpt>
      <trkpt lat="48.045911" lon="8.196954">
        <ele>872.7</ele>
      </trkpt>
      <trkpt lat="48.045927" lon="8.196969">
        <ele>872.7</ele>
      </trkpt>
      <trkpt lat="48.046067" lon="8.19709">
        <ele>873.1</ele>
      </trkpt>
      <trkpt lat="48.046159" lon="8.19717">
        <ele>873.1</ele>
      </trkpt>
      <trkpt lat="48.046274" lon="8.197272">
        <ele>872.7</ele>
      </trkpt>
      <trkpt lat="48.046391" lon="8.197379">
        <ele>872.2</ele>
      </trkpt>
      <trkpt lat="48.046576" lon="8.197546">
        <ele>871</ele>
      </trkpt>
      <trkpt lat="48.046673" lon="8.19763">
        <ele>870.5</ele>
      </trkpt>
      <trkpt lat="48.046747" lon="8.197693">
        <ele>870.4</ele>
      </trkpt>
      <trkpt lat="48.047215" lon="8.198111">
        <ele>871.6</ele>
      </trkpt>
      <trkpt lat="48.047634" lon="8.198592">
        <ele>869.1</ele>
      </trkpt>
      <trkpt lat="48.047831" lon="8.198875">
        <ele>868.2</ele>
      </trkpt>
      <trkpt lat="48.047997" lon="8.199146">
        <ele>868.4</ele>
      </trkpt>
      <trkpt lat="48.048046" lon="8.199238">
        <ele>868.6</ele>
      </trkpt>
      <trkpt lat="48.048326" lon="8.1998">
        <ele>870.4</ele>
      </trkpt>
      <trkpt lat="48.048471" lon="8.200221">
        <ele>872.1</ele>
      </trkpt>
      <trkpt lat="48.048561" lon="8.20067">
        <ele>868.5</ele>
      </trkpt>
      <trkpt lat="48.048569" lon="8.2007">
        <ele>868.2</ele>
      </trkpt>
      <trkpt lat="48.048593" lon="8.200866">
        <ele>866.5</ele>
      </trkpt>
      <trkpt lat="48.048612" lon="8.200994">
        <ele>865.7</ele>
      </trkpt>
      <trkpt lat="48.048641" lon="8.201235">
        <ele>865</ele>
      </trkpt>
      <trkpt lat="48.048698" lon="8.201638">
        <ele>864.7</ele>
      </trkpt>
      <trkpt lat="48.048733" lon="8.201808">
        <ele>864.6</ele>
      </trkpt>
      <trkpt lat="48.048779" lon="8.201997">
        <ele>864.4</ele>
      </trkpt>
      <trkpt lat="48.048813" lon="8.202103">
        <ele>864.4</ele>
      </trkpt>
      <trkpt lat="48.048824" lon="8.202139">
        <ele>864.4</ele>
      </trkpt>
      <trkpt lat="48.049052" lon="8.202656">
        <ele>863.1</ele>
      </trkpt>
      <trkpt lat="48.049436" lon="8.203303">
        <ele>863.5</ele>
      </trkpt>
      <trkpt lat="48.049525" lon="8.203481">
        <ele>864.7</ele>
      </trkpt>
      <trkpt lat="48.049732" lon="8.20394">
        <ele>866.3</ele>
      </trkpt>
      <trkpt lat="48.049991" lon="8.204526">
        <ele>866</ele>
      </trkpt>
      <trkpt lat="48.050187" lon="8.204946">
        <ele>864.9</ele>
      </trkpt>
      <trkpt lat="48.050488" lon="8.205458">
        <ele>866.3</ele>
      </trkpt>
      <trkpt lat="48.050618" lon="8.205656">
        <ele>866.6</ele>
      </trkpt>
      <trkpt lat="48.050756" lon="8.205756">
        <ele>867.2</ele>
      </trkpt>
      <trkpt lat="48.05084" lon="8.20577">
        <ele>867.8</ele>
      </trkpt>
      <trkpt lat="48.05084" lon="8.20577">
        <ele>867.8</ele>
      </trkpt>
    </trkseg>
  </trk>
</gpx>