<?xml version="1.0" encoding="UTF-8"?>
<gpx version="1.1" xmlns="http://www.topografix.com/GPX/1/1" creator="https://github.com/georust/gpx">
  <trk>
    <name>[flat] 02: to CP-2</name>
    <trkseg>
      <trkpt lat="48.05084" lon="8.20577" />
      <trkpt lat="48.05107" lon="8.205709" />
      <trkpt lat="48.051525" lon="8.205543" />
      <trkpt lat="48.051874" lon="8.205194" />
      <trkpt lat="48.052832" lon="8.204118" />
      <trkpt lat="48.052889" lon="8.204307" />
      <trkpt lat="48.052906" lon="8.2045" />
      <trkpt lat="48.052993" lon="8.20489" />
      <trkpt lat="48.053006" lon="8.204951" />
      <trkpt lat="48.053101" lon="8.205372" />
      <trkpt lat="48.053269" lon="8.205299" />
      <trkpt lat="48.053497" lon="8.205186" />
      <trkpt lat="48.053607" lon="8.205131" />
      <trkpt lat="48.053624" lon="8.205122" />
      <trkpt lat="48.053757" lon="8.205055" />
      <trkpt lat="48.053923" lon="8.204972" />
      <trkpt lat="48.053991" lon="8.204937" />
      <trkpt lat="48.054055" lon="8.204908" />
      <trkpt lat="48.0546" lon="8.204636" />
      <trkpt lat="48.054862" lon="8.2045" />
      <trkpt lat="48.054727" lon="8.203922" />
      <trkpt lat="48.054609" lon="8.203418" />
      <trkpt lat="48.054565" lon="8.20303" />
      <trkpt lat="48.054332" lon="8.203067" />
      <trkpt lat="48.054003" lon="8.203199" />
      <trkpt lat="48.054003" lon="8.203199" />
      <trkpt lat="48.05335" lon="8.203657" />
      <trkpt lat="48.053581" lon="8.204303" />
      <trkpt lat="48.053757" lon="8.205055" />
      <trkpt lat="48.053923" lon="8.204972" />
      <trkpt lat="48.053991" lon="8.204937" />
      <trkpt lat="48.054055" lon="8.204908" />
      <trkpt lat="48.0546" lon="8.204636" />
      <trkpt lat="48.054862" lon="8.2045" />
      <trkpt lat="48.055808" lon="8.204016" />
      <trkpt lat="48.055705" lon="8.203461" />
      <trkpt lat="48.05565" lon="8.202902" />
      <trkpt lat="48.055112" lon="8.202963" />
      <trkpt lat="48.054565" lon="8.20303" />
      <trkpt lat="48.054332" lon="8.203067" />
      <trkpt lat="48.054003" lon="8.203199" />
      <trkpt lat="48.054003" lon="8.203199" />
      <trkpt lat="48.05335" lon="8.203657" />
      <trkpt lat="48.053581" lon="8.204303" />
      <trkpt lat="48.053757" lon="8.205055" />
      <trkpt lat="48.053923" lon="8.204972" />
      <trkpt lat="48.053991" lon="8.204937" />
      <trkpt lat="48.054055" lon="8.204908" />
      <trkpt lat="48.0546" lon="8.204636" />
      <trkpt lat="48.054862" lon="8.2045" />
      <trkpt lat="48.055808" lon="8.204016" />
      <trkpt lat="48.055705" lon="8.203461" />
      <trkpt lat="48.05565" lon="8.202902" />
      <trkpt lat="48.056061" lon="8.202898" />
      <trkpt lat="48.056122" lon="8.202557" />
      <trkpt lat="48.056184" lon="8.202441" />
      <trkpt lat="48.056256" lon="8.202363" />
      <trkpt lat="48.056635" lon="8.202132" />
      <trkpt lat="48.056844" lon="8.201845" />
      <trkpt lat="48.056914" lon="8.201672" />
      <trkpt lat="48.057147" lon="8.201069" />
      <trkpt lat="48.057263" lon="8.200849" />
      <trkpt lat="48.057395" lon="8.200686" />
      <trkpt lat="48.058212" lon="8.200095" />
      <trkpt lat="48.058471" lon="8.199793" />
      <trkpt lat="48.058948" lon="8.199099" />
      <trkpt lat="48.059381" lon="8.198606" />
      <trkpt lat="48.059571" lon="8.198396" />
      <trkpt lat="48.060828" lon="8.197058" />
      <trkpt lat="48.060865" lon="8.197023" />
      <trkpt lat="48.061401" lon="8.196555" />
      <trkpt lat="48.061853" lon="8.196203" />
      <trkpt lat="48.062291" lon="8.195964" />
      <trkpt lat="48.062966" lon="8.195697" />
      <trkpt lat="48.063649" lon="8.195591" />
      <trkpt lat="48.064425" lon="8.195368" />
      <trkpt lat="48.064916" lon="8.195146" />
      <trkpt lat="48.064947" lon="8.195129" />
      <trkpt lat="48.06524" lon="8.194946" />
      <trkpt lat="48.06544" lon="8.194777" />
      <trkpt lat="48.065995" lon="8.194098" />
      <trkpt lat="48.067341" lon="8.192718" />
      <trkpt lat="48.067917" lon="8.192254" />
      <trkpt lat="48.068334" lon="8.192053" />
      <trkpt lat="48.068863" lon="8.191871" />
      <trkpt lat="48.069249" lon="8.191631" />
      <trkpt lat="48.069565" lon="8.191281" />
      <trkpt lat="48.069918" lon="8.19066" />
      <trkpt lat="48.070062" lon="8.190415" />
      <trkpt lat="48.070102" lon="8.190348" />
      <trkpt lat="48.070303" lon="8.190042" />
      <trkpt lat="48.070462" lon="8.189851" />
      <trkpt lat="48.072536" lon="8.187729" />
      <trkpt lat="48.073033" lon="8.187342" />
      <trkpt lat="48.073634" lon="8.187016" />
      <trkpt lat="48.07409" lon="8.186775" />
      <trkpt lat="48.074372" lon="8.18658" />
      <trkpt lat="48.076917" lon="8.184693" />
      <trkpt lat="48.077086" lon="8.184569" />
      <trkpt lat="48.078428" lon="8.183628" />
      <trkpt lat="48.079128" lon="8.183271" />
      <trkpt lat="48.08163" lon="8.182295" />
      <trkpt lat="48.082027" lon="8.182128" />
      <trkpt lat="48.082095" lon="8.182096" />
      <trkpt lat="48.082234" lon="8.182029" />
      <trkpt lat="48.082791" lon="8.18171" />
      <trkpt lat="48.083526" lon="8.181125" />
      <trkpt lat="48.084093" lon="8.180553" />
      <trkpt lat="48.084609" lon="8.18008" />
      <trkpt lat="48.085312" lon="8.179657" />
      <trkpt lat="48.085491" lon="8.179545" />
      <trkpt lat="48.085814" lon="8.179254" />
      <trkpt lat="48.086168" lon="8.178939" />
      <trkpt lat="48.086409" lon="8.178735" />
      <trkpt lat="48.08653" lon="8.178703" />
      <trkpt lat="48.086838" lon="8.178692" />
      <trkpt lat="48.087395" lon="8.178854" />
      <trkpt lat="48.087895" lon="8.179129" />
      <trkpt lat="48.088304" lon="8.179438" />
      <trkpt lat="48.088609" lon="8.179768" />
      <trkpt lat="48.088673" lon="8.179784" />
      <trkpt lat="48.089101" lon="8.17959" />
      <trkpt lat="48.089712" lon="8.179411" />
      <trkpt lat="48.090068" lon="8.179229" />
      <trkpt lat="48.090297" lon="8.179063" />
      <trkpt lat="48.090967" lon="8.178238" />
      <trkpt lat="48.091192" lon="8.178064" />
      <trkpt lat="48.091358" lon="8.178" />
      <trkpt lat="48.091677" lon="8.177954" />
      <trkpt lat="48.091963" lon="8.177952" />
      <trkpt lat="48.09254" lon="8.178049" />
      <trkpt lat="48.092712" lon="8.17799" />
      <trkpt lat="48.093011" lon="8.177673" />
      <trkpt lat="48.093121" lon="8.177474" />
      <trkpt lat="48.093345" lon="8.176867" />
      <trkpt lat="48.093469" lon="8.176708" />
      <trkpt lat="48.093596" lon="8.176617" />
      <trkpt lat="48.093947" lon="8.176481" />
      <trkpt lat="48.094456" lon="8.176137" />
      <trkpt lat="48.095089" lon="8.175553" />
      <trkpt lat="48.095277" lon="8.175476" />
      <trkpt lat="48.09551" lon="8.17545" />
      <trkpt lat="48.095706" lon="8.175533" />
      <trkpt lat="48.096016" lon="8.175863" />
      <trkpt lat="48.09611" lon="8.175905" />
      <trkpt lat="48.09619" lon="8.175888" />
      <trkpt lat="48.096258" lon="8.175813" />
      <trkpt lat="48.09642" lon="8.175399" />
      <trkpt lat="48.096496" lon="8.175327" />
      <trkpt lat="48.096591" lon="8.175318" />
      <trkpt lat="48.096773" lon="8.175352" />
      <trkpt lat="48.097252" lon="8.175521" />
      <trkpt lat="48.097493" lon="8.175514" />
      <trkpt lat="48.097687" lon="8.175458" />
      <trkpt lat="48.09797" lon="8.175315" />
      <trkpt lat="48.098561" lon="8.174777" />
      <trkpt lat="48.099134" lon="8.174518" />
      <trkpt lat="48.099577" lon="8.174236" />
      <trkpt lat="48.099851" lon="8.17409" />
      <trkpt lat="48.100277" lon="8.173768" />
      <trkpt lat="48.100445" lon="8.173589" />
      <trkpt lat="48.100558" lon="8.173318" />
      <trkpt lat="48.100663" lon="8.172902" />
      <trkpt lat="48.100758" lon="8.172716" />
      <trkpt lat="48.10117" lon="8.172195" />
      <trkpt lat="48.101365" lon="8.172013" />
      <trkpt lat="48.101481" lon="8.171968" />
      <trkpt lat="48.101641" lon="8.171984" />
      <trkpt lat="48.101784" lon="8.172042" />
      <trkpt lat="48.102299" lon="8.17259" />
      <trkpt lat="48.102453" lon="8.172697" />
      <trkpt lat="48.102619" lon="8.172786" />
      <trkpt lat="48.102945" lon="8.172878" />
      <trkpt lat="48.103167" lon="8.172855" />
      <trkpt lat="48.104568" lon="8.172451" />
      <trkpt lat="48.105614" lon="8.172181" />
      <trkpt lat="48.105863" lon="8.172125" />
      <trkpt lat="48.106432" lon="8.172028" />
      <trkpt lat="48.107059" lon="8.171923" />
      <trkpt lat="48.108379" lon="8.171681" />
      <trkpt lat="48.108638" lon="8.171762" />
      <trkpt lat="48.10877" lon="8.171605" />
      <trkpt lat="48.108895" lon="8.171534" />
      <trkpt lat="48.109128" lon="8.171446" />
      <trkpt lat="48.109436" lon="8.171707" />
      <trkpt lat="48.109965" lon="8.172242" />
      <trkpt lat="48.110714" lon="8.172752" />
      <trkpt lat="48.111442" lon="8.173247" />
      <trkpt lat="48.111755" lon="8.173372" />
      <trkpt lat="48.112894" lon="8.173056" />
      <trkpt lat="48.113707" lon="8.173258" />
      <trkpt lat="48.113979" lon="8.173551" />
      <trkpt lat="48.114142" lon="8.173646" />
      <trkpt lat="48.114362" lon="8.173734" />
      <trkpt lat="48.114747" lon="8.173364" />
      <trkpt lat="48.114981" lon="8.173023" />
      <trkpt lat="48.115229" lon="8.172542" />
      <trkpt lat="48.115446" lon="8.172034" />
      <trkpt lat="48.115736" lon="8.171334" />
      <trkpt lat="48.116084" lon="8.170779" />
      <trkpt lat="48.116293" lon="8.170529" />
      <trkpt lat="48.116671" lon="8.170126" />
      <trkpt lat="48.116772" lon="8.170096" />
      <trkpt lat="48.116868" lon="8.170144" />
      <trkpt lat="48.117128" lon="8.170412" />
      <trkpt lat="48.11727" lon="8.170462" />
      <trkpt lat="48.117368" lon="8.17043" />
      <trkpt lat="48.117657" lon="8.170245" />
      <trkpt lat="48.117804" lon="8.170216" />
      <trkpt lat="48.117933" lon="8.170217" />
      <trkpt lat="48.118238" lon="8.170147" />
      <trkpt lat="48.118516" lon="8.169891" />
      <trkpt lat="48.118591" lon="8.169843" />
      <trkpt lat="48.118707" lon="8.169824" />
      <trkpt lat="48.119063" lon="8.169864" />
      <trkpt lat="48.119166" lon="8.169836" />
      <trkpt lat="48.119395" lon="8.169651" />
      <trkpt lat="48.119763" lon="8.169241" />
      <trkpt lat="48.120276" lon="8.169475" />
      <trkpt lat="48.120554" lon="8.16953" />
      <trkpt lat="48.12066" lon="8.169507" />
      <trkpt lat="48.121124" lon="8.169131" />
      <trkpt lat="48.121338" lon="8.168917" />
      <trkpt lat="48.121645" lon="8.168481" />
      <trkpt lat="48.121818" lon="8.168375" />
      <trkpt lat="48.122047" lon="8.168352" />
      <trkpt lat="48.122318" lon="8.168379" />
      <trkpt lat="48.122649" lon="8.168473" />
      <trkpt lat="48.123263" lon="8.168781" />
      <trkpt lat="48.123353" lon="8.168866" />
      <trkpt lat="48.123795" lon="8.169552" />
      <trkpt lat="48.124335" lon="8.17048" />
      <trkpt lat="48.124919" lon="8.171181" />
      <trkpt lat="48.125371" lon="8.171776" />
      <trkpt lat="48.125649" lon="8.172193" />
      <trkpt lat="48.125839" lon="8.172412" />
      <trkpt lat="48.126146" lon="8.172716" />
      <trkpt lat="48.126482" lon="8.172968" />
      <trkpt lat="48.126645" lon="8.173064" />
      <trkpt lat="48.127014" lon="8.173836" />
      <trkpt lat="48.128153" lon="8.175982" />
      <trkpt lat="48.129033" lon="8.177958" />
      <trkpt lat="48.129132" lon="8.178127" />
      <trkpt lat="48.129257" lon="8.178287" />
      <trkpt lat="48.129353" lon="8.178344" />
      <trkpt lat="48.129606" lon="8.178385" />
      <trkpt lat="48.130442" lon="8.178207" />
      <trkpt lat="48.130821" lon="8.178057" />
      <trkpt lat="48.130985" lon="8.178025" />
      <trkpt lat="48.131192" lon="8.178035" />
      <trkpt lat="48.131937" lon="8.178186" />
      <trkpt lat="48.132453" lon="8.178176" />
      <trkpt lat="48.132791" lon="8.178084" />
      <trkpt lat="48.132947" lon="8.178039" />
      <trkpt lat="48.133082" lon="8.178068" />
      <trkpt lat="48.13329" lon="8.178391" />
      <trkpt lat="48.13342" lon="8.178471" />
      <trkpt lat="48.133493" lon="8.178456" />
      <trkpt lat="48.133558" lon="8.17842" />
      <trkpt lat="48.133792" lon="8.178116" />
      <trkpt lat="48.134099" lon="8.177655" />
      <trkpt lat="48.134228" lon="8.177581" />
      <trkpt lat="48.134341" lon="8.177589" />
      <trkpt lat="48.134485" lon="8.177716" />
      <trkpt lat="48.134576" lon="8.177843" />
      <trkpt lat="48.134749" lon="8.178102" />
      <trkpt lat="48.135133" lon="8.178824" />
      <trkpt lat="48.135346" lon="8.179312" />
      <trkpt lat="48.135554" lon="8.179966" />
      <trkpt lat="48.136083" lon="8.1811" />
      <trkpt lat="48.136085" lon="8.181481" />
      <trkpt lat="48.136119" lon="8.181741" />
      <trkpt lat="48.136461" lon="8.182621" />
      <trkpt lat="48.136625" lon="8.182823" />
      <trkpt lat="48.13691" lon="8.182939" />
      <trkpt lat="48.137099" lon="8.183053" />
      <trkpt lat="48.137541" lon="8.183104" />
      <trkpt lat="48.137783" lon="8.183392" />
      <trkpt lat="48.137977" lon="8.183822" />
      <trkpt lat="48.138201" lon="8.184061" />
      <trkpt lat="48.138462" lon="8.184267" />
      <trkpt lat="48.138653" lon="8.184396" />
      <trkpt lat="48.138838" lon="8.184666" />
      <trkpt lat="48.138922" lon="8.184887" />
      <trkpt lat="48.139039" lon="8.18569" />
      <trkpt lat="48.139101" lon="8.18589" />
      <trkpt lat="48.139184" lon="8.186051" />
      <trkpt lat="48.140845" lon="8.188559" />
      <trkpt lat="48.141019" lon="8.188981" />
      <trkpt lat="48.141249" lon="8.189937" />
      <trkpt lat="48.141485" lon="8.191455" />
      <trkpt lat="48.141523" lon="8.191989" />
      <trkpt lat="48.141569" lon="8.192257" />
      <trkpt lat="48.141625" lon="8.192433" />
      <trkpt lat="48.141646" lon="8.192496" />
      <trkpt lat="48.142037" lon="8.1933" />
      <trkpt lat="48.142134" lon="8.193615" />
      <trkpt lat="48.142257" lon="8.194421" />
      <trkpt lat="48.142255" lon="8.194544" />
      <trkpt lat="48.142247" lon="8.195089" />
      <trkpt lat="48.142241" lon="8.195516" />
      <trkpt lat="48.142262" lon="8.195639" />
      <trkpt lat="48.142356" lon="8.196214" />
      <trkpt lat="48.142558" lon="8.196233" />
      <trkpt lat="48.142641" lon="8.196211" />
      <trkpt lat="48.14361" lon="8.195651" />
      <trkpt lat="48.143997" lon="8.195444" />
      <trkpt lat="48.144313" lon="8.195253" />
      <trkpt lat="48.144466" lon="8.195137" />
      <trkpt lat="48.144559" lon="8.195005" />
      <trkpt lat="48.144625" lon="8.194798" />
      <trkpt lat="48.144671" lon="8.194189" />
      <trkpt lat="48.14473" lon="8.19395" />
      <trkpt lat="48.144899" lon="8.193804" />
      <trkpt lat="48.145289" lon="8.193645" />
      <trkpt lat="48.145385" lon="8.193548" />
      <trkpt lat="48.145557" lon="8.193042" />
      <trkpt lat="48.145634" lon="8.192982" />
      <trkpt lat="48.145804" lon="8.192338" />
      <trkpt lat="48.145931" lon="8.191829" />
      <trkpt lat="48.146086" lon="8.191215" />
      <trkpt lat="48.146271" lon="8.190508" />
      <trkpt lat="48.1464" lon="8.189987" />
      <trkpt lat="48.146592" lon="8.189401" />
      <trkpt lat="48.146671" lon="8.189224" />
      <trkpt lat="48.146796" lon="8.188971" />
      <trkpt lat="48.146994" lon="8.188587" />
      <trkpt lat="48.147109" lon="8.188343" />
      <trkpt lat="48.147379" lon="8.187755" />
      <trkpt lat="48.147469" lon="8.187454" />
      <trkpt lat="48.147597" lon="8.18701" />
      <trkpt lat="48.147823" lon="8.186127" />
      <trkpt lat="48.147892" lon="8.185856" />
      <trkpt lat="48.147966" lon="8.185566" />
      <trkpt lat="48.148278" lon="8.18461" />
      <trkpt lat="48.148457" lon="8.184258" />
      <trkpt lat="48.148699" lon="8.183973" />
      <trkpt lat="48.14954" lon="8.183145" />
      <trkpt lat="48.14987" lon="8.18282" />
      <trkpt lat="48.150058" lon="8.182531" />
      <trkpt lat="48.150233" lon="8.182104" />
      <trkpt lat="48.150315" lon="8.181585" />
      <trkpt lat="48.150315" lon="8.181329" />
      <trkpt lat="48.150233" lon="8.180839" />
      <trkpt lat="48.150159" lon="8.180635" />
      <trkpt lat="48.149979" lon="8.180344" />
      <trkpt lat="48.149856" lon="8.180229" />
      <trkpt lat="48.149752" lon="8.180176" />
      <trkpt lat="48.149505" lon="8.180189" />
      <trkpt lat="48.149393" lon="8.180244" />
      <trkpt lat="48.149054" lon="8.180503" />
      <trkpt lat="48.148772" lon="8.180629" />
      <trkpt lat="48.14864" lon="8.180604" />
      <trkpt lat="48.148485" lon="8.180509" />
      <trkpt lat="48.14838" lon="8.180379" />
      <trkpt lat="48.148274" lon="8.180173" />
      <trkpt lat="48.147525" lon="8.17802" />
      <trkpt lat="48.147437" lon="8.177816" />
      <trkpt lat="48.147274" lon="8.177574" />
      <trkpt lat="48.147054" lon="8.177399" />
      <trkpt lat="48.146466" lon="8.177057" />
      <trkpt lat="48.146334" lon="8.17694" />
      <trkpt lat="48.145829" lon="8.176195" />
      <trkpt lat="48.145422" lon="8.175524" />
      <trkpt lat="48.145311" lon="8.175258" />
      <trkpt lat="48.145122" lon="8.174531" />
      <trkpt lat="48.144974" lon="8.173435" />
      <trkpt lat="48.144957" lon="8.173285" />
      <trkpt lat="48.144816" lon="8.172377" />
      <trkpt lat="48.14469" lon="8.171811" />
      <trkpt lat="48.144392" lon="8.171005" />
      <trkpt lat="48.144035" lon="8.170322" />
      <trkpt lat="48.143636" lon="8.16978" />
      <trkpt lat="48.143342" lon="8.169484" />
      <trkpt lat="48.142885" lon="8.16916" />
      <trkpt lat="48.14186" lon="8.168625" />
      <trkpt lat="48.14159" lon="8.168434" />
      <trkpt lat="48.14107" lon="8.167895" />
      <trkpt lat="48.140683" lon="8.167253" />
      <trkpt lat="48.139969" lon="8.165914" />
      <trkpt lat="48.13987" lon="8.165725" />
      <trkpt lat="48.13972" lon="8.165532" />
      <trkpt lat="48.139624" lon="8.165444" />
      <trkpt lat="48.139424" lon="8.165349" />
      <trkpt lat="48.139424" lon="8.165349" />
      <trkpt lat="48.139178" lon="8.165355" />
      <trkpt lat="48.139051" lon="8.165411" />
      <trkpt lat="48.138837" lon="8.165598" />
      <trkpt lat="48.138704" lon="8.165794" />
      <trkpt lat="48.138566" lon="8.166068" />
      <trkpt lat="48.138462" lon="8.166249" />
      <trkpt lat="48.138281" lon="8.166486" />
      <trkpt lat="48.13812" lon="8.166628" />
      <trkpt lat="48.137856" lon="8.166748" />
      <trkpt lat="48.137553" lon="8.166762" />
      <trkpt lat="48.137321" lon="8.166688" />
      <trkpt lat="48.137228" lon="8.166626" />
      <trkpt lat="48.137159" lon="8.166572" />
      <trkpt lat="48.136919" lon="8.16632" />
      <trkpt lat="48.136759" lon="8.166035" />
      <trkpt lat="48.136629" lon="8.165593" />
      <trkpt lat="48.136599" lon="8.165264" />
      <trkpt lat="48.136602" lon="8.16435" />
      <trkpt lat="48.136573" lon="8.164064" />
      <trkpt lat="48.13646" lon="8.163529" />
      <trkpt lat="48.136326" lon="8.163188" />
      <trkpt lat="48.136118" lon="8.162828" />
      <trkpt lat="48.135925" lon="8.162594" />
      <trkpt lat="48.135621" lon="8.162343" />
      <trkpt lat="48.135249" lon="8.162107" />
      <trkpt lat="48.134988" lon="8.161883" />
      <trkpt lat="48.134324" lon="8.161207" />
      <trkpt lat="48.133963" lon="8.161013" />
      <trkpt lat="48.133601" lon="8.160986" />
      <trkpt lat="48.132709" lon="8.161062" />
      <trkpt lat="48.132212" lon="8.161197" />
      <trkpt lat="48.131957" lon="8.1613" />
      <trkpt lat="48.131078" lon="8.161818" />
      <trkpt lat="48.130938" lon="8.161865" />
      <trkpt lat="48.13084" lon="8.161862" />
      <trkpt lat="48.130669" lon="8.161785" />
      <trkpt lat="48.13056" lon="8.16166" />
      <trkpt lat="48.130512" lon="8.161559" />
      <trkpt lat="48.130467" lon="8.161388" />
      <trkpt lat="48.130454" lon="8.161199" />
      <trkpt lat="48.130552" lon="8.1604" />
      <trkpt lat="48.130857" lon="8.159754" />
      <trkpt lat="48.130904" lon="8.159586" />
      <trkpt lat="48.13092" lon="8.159426" />
      <trkpt lat="48.130904" lon="8.159277" />
      <trkpt lat="48.130857" lon="8.159146" />
      <trkpt lat="48.130751" lon="8.159023" />
      <trkpt lat="48.129945" lon="8.158405" />
      <trkpt lat="48.129618" lon="8.15806" />
      <trkpt lat="48.12923" lon="8.157509" />
      <trkpt lat="48.128673" lon="8.157114" />
      <trkpt lat="48.128542" lon="8.156909" />
      <trkpt lat="48.128523" lon="8.156719" />
      <trkpt lat="48.128571" lon="8.156515" />
      <trkpt lat="48.128662" lon="8.156407" />
      <trkpt lat="48.128781" lon="8.156349" />
      <trkpt lat="48.128917" lon="8.156403" />
      <trkpt lat="48.129055" lon="8.156608" />
      <trkpt lat="48.129268" lon="8.157112" />
      <trkpt lat="48.129391" lon="8.157411" />
      <trkpt lat="48.129577" lon="8.15769" />
      <trkpt lat="48.129797" lon="8.157952" />
      <trkpt lat="48.130064" lon="8.158103" />
      <trkpt lat="48.130407" lon="8.158211" />
      <trkpt lat="48.131167" lon="8.158362" />
      <trkpt lat="48.131347" lon="8.158427" />
      <trkpt lat="48.131605" lon="8.158609" />
      <trkpt lat="48.131739" lon="8.158751" />
      <trkpt lat="48.132078" lon="8.159206" />
      <trkpt lat="48.132283" lon="8.159355" />
      <trkpt lat="48.132568" lon="8.159284" />
      <trkpt lat="48.132956" lon="8.159089" />
      <trkpt lat="48.134218" lon="8.158375" />
      <trkpt lat="48.134534" lon="8.158319" />
      <trkpt lat="48.134659" lon="8.158321" />
      <trkpt lat="48.135088" lon="8.158474" />
      <trkpt lat="48.13577" lon="8.158874" />
      <trkpt lat="48.136246" lon="8.158999" />
      <trkpt lat="48.137228" lon="8.159145" />
      <trkpt lat="48.138272" lon="8.159185" />
      <trkpt lat="48.138979" lon="8.159142" />
      <trkpt lat="48.139506" lon="8.159063" />
      <trkpt lat="48.140578" lon="8.15862" />
      <trkpt lat="48.140865" lon="8.158583" />
      <trkpt lat="48.141129" lon="8.158602" />
      <trkpt lat="48.141417" lon="8.158699" />
      <trkpt lat="48.142557" lon="8.159449" />
      <trkpt lat="48.143487" lon="8.159658" />
      <trkpt lat="48.144046" lon="8.160124" />
      <trkpt lat="48.144411" lon="8.160252" />
      <trkpt lat="48.144606" lon="8.160253" />
      <trkpt lat="48.145839" lon="8.159917" />
      <trkpt lat="48.146447" lon="8.159744" />
      <trkpt lat="48.147213" lon="8.159431" />
      <trkpt lat="48.147437" lon="8.159279" />
      <trkpt lat="48.147645" lon="8.159009" />
      <trkpt lat="48.147932" lon="8.158423" />
      <trkpt lat="48.148074" lon="8.15821" />
      <trkpt lat="48.148153" lon="8.158133" />
      <trkpt lat="48.148483" lon="8.157963" />
      <trkpt lat="48.148806" lon="8.15806" />
      <trkpt lat="48.14932" lon="8.158397" />
      <trkpt lat="48.14952" lon="8.158454" />
      <trkpt lat="48.149723" lon="8.158427" />
      <trkpt lat="48.14988" lon="8.158347" />
      <trkpt lat="48.150397" lon="8.157813" />
      <trkpt lat="48.15049" lon="8.157746" />
      <trkpt lat="48.150608" lon="8.157688" />
      <trkpt lat="48.15086" lon="8.157663" />
      <trkpt lat="48.151122" lon="8.157783" />
      <trkpt lat="48.151259" lon="8.157905" />
      <trkpt lat="48.151444" lon="8.158148" />
      <trkpt lat="48.15174" lon="8.158459" />
      <trkpt lat="48.15207" lon="8.15863" />
      <trkpt lat="48.152564" lon="8.15905" />
      <trkpt lat="48.152746" lon="8.159124" />
      <trkpt lat="48.152896" lon="8.159152" />
      <trkpt lat="48.153149" lon="8.15912" />
      <trkpt lat="48.153379" lon="8.158967" />
      <trkpt lat="48.153662" lon="8.158691" />
      <trkpt lat="48.153928" lon="8.158484" />
      <trkpt lat="48.154211" lon="8.158399" />
      <trkpt lat="48.154349" lon="8.15843" />
      <trkpt lat="48.154568" lon="8.158591" />
      <trkpt lat="48.154975" lon="8.159088" />
      <trkpt lat="48.155125" lon="8.159216" />
      <trkpt lat="48.15534" lon="8.159285" />
      <trkpt lat="48.156006" lon="8.159344" />
      <trkpt lat="48.157299" lon="8.159296" />
      <trkpt lat="48.157482" lon="8.159328" />
      <trkpt lat="48.158151" lon="8.159584" />
      <trkpt lat="48.158392" lon="8.159584" />
      <trkpt lat="48.158596" lon="8.159506" />
      <trkpt lat="48.158757" lon="8.159381" />
      <trkpt lat="48.158904" lon="8.159204" />
      <trkpt lat="48.159347" lon="8.158421" />
      <trkpt lat="48.159746" lon="8.157803" />
      <trkpt lat="48.160049" lon="8.15757" />
      <trkpt lat="48.160239" lon="8.157532" />
      <trkpt lat="48.160683" lon="8.157642" />
      <trkpt lat="48.160955" lon="8.157853" />
      <trkpt lat="48.161085" lon="8.157991" />
      <trkpt lat="48.1612" lon="8.158167" />
      <trkpt lat="48.161587" lon="8.158931" />
      <trkpt lat="48.161765" lon="8.159171" />
      <trkpt lat="48.162102" lon="8.159377" />
      <trkpt lat="48.162428" lon="8.159429" />
      <trkpt lat="48.162728" lon="8.15935" />
      <trkpt lat="48.1629" lon="8.159261" />
      <trkpt lat="48.16309" lon="8.159097" />
      <trkpt lat="48.163468" lon="8.158707" />
      <trkpt lat="48.163881" lon="8.158455" />
      <trkpt lat="48.164523" lon="8.158321" />
      <trkpt lat="48.165552" lon="8.158207" />
      <trkpt lat="48.166222" lon="8.158099" />
      <trkpt lat="48.166525" lon="8.158067" />
      <trkpt lat="48.166723" lon="8.15809" />
      <trkpt lat="48.16737" lon="8.158404" />
      <trkpt lat="48.167667" lon="8.158454" />
      <trkpt lat="48.168083" lon="8.158461" />
      <trkpt lat="48.168397" lon="8.158532" />
      <trkpt lat="48.169139" lon="8.158971" />
      <trkpt lat="48.169493" lon="8.159056" />
      <trkpt lat="48.169775" lon="8.159166" />
      <trkpt lat="48.170069" lon="8.159335" />
      <trkpt lat="48.17066" lon="8.159429" />
      <trkpt lat="48.17104" lon="8.159435" />
      <trkpt lat="48.171456" lon="8.159383" />
      <trkpt lat="48.172355" lon="8.159003" />
      <trkpt lat="48.172757" lon="8.158933" />
      <trkpt lat="48.173006" lon="8.158786" />
      <trkpt lat="48.173046" lon="8.158735" />
      <trkpt lat="48.173205" lon="8.158498" />
      <trkpt lat="48.173373" lon="8.158262" />
      <trkpt lat="48.173534" lon="8.158092" />
      <trkpt lat="48.173582" lon="8.158059" />
      <trkpt lat="48.173721" lon="8.157962" />
      <trkpt lat="48.174262" lon="8.157812" />
      <trkpt lat="48.17475" lon="8.157803" />
      <trkpt lat="48.175014" lon="8.15785" />
      <trkpt lat="48.175204" lon="8.157948" />
      <trkpt lat="48.175352" lon="8.15808" />
      <trkpt lat="48.17576" lon="8.15861" />
      <trkpt lat="48.175886" lon="8.158747" />
      <trkpt lat="48.176028" lon="8.158833" />
      <trkpt lat="48.17678" lon="8.158903" />
      <trkpt lat="48.176954" lon="8.158948" />
      <trkpt lat="48.177091" lon="8.159042" />
      <trkpt lat="48.177177" lon="8.159192" />
      <trkpt lat="48.177255" lon="8.159347" />
      <trkpt lat="48.177404" lon="8.159626" />
      <trkpt lat="48.177791" lon="8.15994" />
      <trkpt lat="48.178053" lon="8.160097" />
      <trkpt lat="48.178299" lon="8.160147" />
      <trkpt lat="48.178738" lon="8.160158" />
      <trkpt lat="48.179315" lon="8.160199" />
      <trkpt lat="48.179611" lon="8.160298" />
      <trkpt lat="48.179711" lon="8.160303" />
      <trkpt lat="48.179911" lon="8.160205" />
      <trkpt lat="48.179983" lon="8.160091" />
      <trkpt lat="48.180049" lon="8.159915" />
      <trkpt lat="48.180132" lon="8.159408" />
      <trkpt lat="48.180149" lon="8.159305" />
      <trkpt lat="48.180174" lon="8.159242" />
      <trkpt lat="48.180192" lon="8.159201" />
      <trkpt lat="48.180221" lon="8.159153" />
      <trkpt lat="48.180247" lon="8.159121" />
      <trkpt lat="48.180278" lon="8.159091" />
      <trkpt lat="48.180308" lon="8.159071" />
      <trkpt lat="48.180338" lon="8.159055" />
      <trkpt lat="48.180543" lon="8.159086" />
      <trkpt lat="48.180703" lon="8.159196" />
      <trkpt lat="48.180811" lon="8.159323" />
      <trkpt lat="48.181563" lon="8.160607" />
      <trkpt lat="48.181786" lon="8.160846" />
      <trkpt lat="48.181938" lon="8.160922" />
      <trkpt lat="48.182244" lon="8.160898" />
      <trkpt lat="48.183331" lon="8.160545" />
      <trkpt lat="48.183801" lon="8.160499" />
      <trkpt lat="48.18395" lon="8.160534" />
      <trkpt lat="48.184185" lon="8.160655" />
      <trkpt lat="48.184575" lon="8.161029" />
      <trkpt lat="48.184854" lon="8.1612" />
      <trkpt lat="48.185443" lon="8.161351" />
      <trkpt lat="48.18607" lon="8.161412" />
      <trkpt lat="48.186856" lon="8.16124" />
      <trkpt lat="48.187079" lon="8.161138" />
      <trkpt lat="48.187353" lon="8.160953" />
      <trkpt lat="48.187602" lon="8.160764" />
      <trkpt lat="48.187993" lon="8.160375" />
      <trkpt lat="48.188038" lon="8.160317" />
      <trkpt lat="48.188262" lon="8.160074" />
      <trkpt lat="48.188412" lon="8.159952" />
      <trkpt lat="48.188634" lon="8.15983" />
      <trkpt lat="48.188971" lon="8.159717" />
      <trkpt lat="48.188995" lon="8.159712" />
      <trkpt lat="48.189539" lon="8.159669" />
      <trkpt lat="48.189909" lon="8.159769" />
      <trkpt lat="48.19009" lon="8.159935" />
      <trkpt lat="48.190632" lon="8.160637" />
      <trkpt lat="48.19092" lon="8.160859" />
      <trkpt lat="48.191282" lon="8.161049" />
      <trkpt lat="48.192655" lon="8.161589" />
      <trkpt lat="48.19305" lon="8.161669" />
      <trkpt lat="48.193236" lon="8.161674" />
      <trkpt lat="48.193408" lon="8.161631" />
      <trkpt lat="48.193577" lon="8.161542" />
      <trkpt lat="48.193863" lon="8.161295" />
      <trkpt lat="48.194039" lon="8.161031" />
      <trkpt lat="48.194171" lon="8.16073" />
      <trkpt lat="48.194277" lon="8.160574" />
      <trkpt lat="48.194376" lon="8.160482" />
      <trkpt lat="48.194512" lon="8.160414" />
      <trkpt lat="48.194792" lon="8.160422" />
      <trkpt lat="48.195014" lon="8.16049" />
      <trkpt lat="48.195977" lon="8.160948" />
      <trkpt lat="48.19651" lon="8.161105" />
      <trkpt lat="48.196761" lon="8.161142" />
      <trkpt lat="48.197044" lon="8.161159" />
      <trkpt lat="48.197588" lon="8.161127" />
      <trkpt lat="48.197972" lon="8.161005" />
      <trkpt lat="48.198636" lon="8.160505" />
      <trkpt lat="48.198792" lon="8.160402" />
      <trkpt lat="48.198979" lon="8.160338" />
      <trkpt lat="48.199192" lon="8.160343" />
      <trkpt lat="48.199545" lon="8.160427" />
      <trkpt lat="48.199796" lon="8.160526" />
      <trkpt lat="48.200012" lon="8.16065" />
      <trkpt lat="48.200865" lon="8.16129" />
      <trkpt lat="48.201197" lon="8.161435" />
      <trkpt lat="48.201486" lon="8.161468" />
      <trkpt lat="48.201833" lon="8.161402" />
      <trkpt lat="48.202205" lon="8.161467" />
      <trkpt lat="48.202554" lon="8.161473" />
      <trkpt lat="48.202831" lon="8.16145" />
      <trkpt lat="48.203275" lon="8.161348" />
      <trkpt lat="48.203529" lon="8.16125" />
      <trkpt lat="48.203812" lon="8.161147" />
      <trkpt lat="48.203985" lon="8.161103" />
      <trkpt lat="48.204146" lon="8.161064" />
      <trkpt lat="48.204255" lon="8.161036" />
      <trkpt lat="48.204305" lon="8.161015" />
      <trkpt lat="48.204465" lon="8.160946" />
      <trkpt lat="48.204679" lon="8.160765" />
      <trkpt lat="48.204969" lon="8.160409" />
      <trkpt lat="48.205262" lon="8.159844" />
      <trkpt lat="48.205292" lon="8.159789" />
      <trkpt lat="48.205321" lon="8.159711" />
      <trkpt lat="48.20533" lon="8.159692" />
      <trkpt lat="48.20537" lon="8.159581" />
      <trkpt lat="48.205398" lon="8.159504" />
      <trkpt lat="48.20547" lon="8.159304" />
      <trkpt lat="48.205539" lon="8.159118" />
      <trkpt lat="48.205611" lon="8.158742" />
      <trkpt lat="48.205687" lon="8.15811" />
      <trkpt lat="48.205751" lon="8.157838" />
      <trkpt lat="48.205852" lon="8.157575" />
      <trkpt lat="48.205945" lon="8.157403" />
      <trkpt lat="48.206294" lon="8.15695" />
      <trkpt lat="48.207222" lon="8.155911" />
      <trkpt lat="48.207508" lon="8.155471" />
      <trkpt lat="48.207739" lon="8.155178" />
      <trkpt lat="48.208358" lon="8.15468" />
      <trkpt lat="48.208685" lon="8.154303" />
      <trkpt lat="48.208766" lon="8.154207" />
      <trkpt lat="48.208996" lon="8.153926" />
      <trkpt lat="48.209451" lon="8.153269" />
      <trkpt lat="48.209584" lon="8.15305" />
      <trkpt lat="48.209646" lon="8.152944" />
      <trkpt lat="48.209843" lon="8.152604" />
      <trkpt lat="48.210522" lon="8.151622" />
      <trkpt lat="48.210752" lon="8.151358" />
      <trkpt lat="48.211122" lon="8.151036" />
      <trkpt lat="48.211229" lon="8.15087" />
      <trkpt lat="48.211387" lon="8.150479" />
      <trkpt lat="48.211509" lon="8.149935" />
      <trkpt lat="48.211623" lon="8.149375" />
      <trkpt lat="48.211819" lon="8.148641" />
      <trkpt lat="48.211891" lon="8.148424" />
      <trkpt lat="48.21221" lon="8.14783" />
      <trkpt lat="48.212335" lon="8.147531" />
      <trkpt lat="48.212485" lon="8.147026" />
      <trkpt lat="48.212547" lon="8.146549" />
      <trkpt lat="48.212555" lon="8.146294" />
      <trkpt lat="48.212559" lon="8.146165" />
      <trkpt lat="48.212568" lon="8.145623" />
      <trkpt lat="48.212661" lon="8.14515" />
      <trkpt lat="48.212748" lon="8.144911" />
      <trkpt lat="48.213044" lon="8.144326" />
      <trkpt lat="48.213205" lon="8.143895" />
      <trkpt lat="48.213254" lon="8.143676" />
      <trkpt lat="48.21333" lon="8.143179" />
      <trkpt lat="48.213415" lon="8.142972" />
      <trkpt lat="48.213575" lon="8.142843" />
      <trkpt lat="48.213719" lon="8.142674" />
      <trkpt lat="48.213774" lon="8.142499" />
      <trkpt lat="48.213782" lon="8.14238" />
      <trkpt lat="48.214016" lon="8.142443" />
      <trkpt lat="48.214277" lon="8.142523" />
      <trkpt lat="48.214401" lon="8.142515" />
      <trkpt lat="48.214495" lon="8.142482" />
      <trkpt lat="48.214779" lon="8.142331" />
      <trkpt lat="48.21508" lon="8.142185" />
      <trkpt lat="48.215205" lon="8.142215" />
      <trkpt lat="48.215916" lon="8.142794" />
      <trkpt lat="48.215978" lon="8.142838" />
      <trkpt lat="48.21648" lon="8.143172" />
      <trkpt lat="48.217104" lon="8.143719" />
      <trkpt lat="48.217653" lon="8.144322" />
      <trkpt lat="48.218417" lon="8.145297" />
      <trkpt lat="48.218622" lon="8.1455" />
      <trkpt lat="48.219767" lon="8.146371" />
      <trkpt lat="48.220318" lon="8.146658" />
      <trkpt lat="48.220454" lon="8.146809" />
      <trkpt lat="48.220995" lon="8.147659" />
      <trkpt lat="48.221253" lon="8.147958" />
      <trkpt lat="48.222104" lon="8.148516" />
      <trkpt lat="48.222613" lon="8.148989" />
      <trkpt lat="48.222946" lon="8.149479" />
      <trkpt lat="48.223563" lon="8.15037" />
      <trkpt lat="48.224277" lon="8.15153" />
      <trkpt lat="48.224543" lon="8.15186" />
      <trkpt lat="48.225836" lon="8.152929" />
      <trkpt lat="48.225955" lon="8.153102" />
      <trkpt lat="48.226039" lon="8.15328" />
      <trkpt lat="48.226247" lon="8.15382" />
      <trkpt lat="48.226542" lon="8.15468" />
      <trkpt lat="48.226674" lon="8.155133" />
      <trkpt lat="48.22688" lon="8.156524" />
      <trkpt lat="48.227015" lon="8.157018" />
      <trkpt lat="48.227245" lon="8.157615" />
      <trkpt lat="48.22761" lon="8.158687" />
      <trkpt lat="48.227957" lon="8.160044" />
      <trkpt lat="48.228143" lon="8.159777" />
      <trkpt lat="48.228321" lon="8.159957" />
      <trkpt lat="48.228409" lon="8.160099" />
      <trkpt lat="48.228466" lon="8.160287" />
      <trkpt lat="48.228541" lon="8.160703" />
      <trkpt lat="48.228617" lon="8.16093" />
      <trkpt lat="48.228787" lon="8.161289" />
      <trkpt lat="48.228927" lon="8.161808" />
      <trkpt lat="48.229036" lon="8.162029" />
      <trkpt lat="48.229154" lon="8.162195" />
      <trkpt lat="48.229365" lon="8.162702" />
      <trkpt lat="48.229869" lon="8.163508" />
      <trkpt lat="48.230235" lon="8.163849" />
      <trkpt lat="48.230608" lon="8.164362" />
      <trkpt lat="48.231068" lon="8.165157" />
      <trkpt lat="48.231262" lon="8.165546" />
      <trkpt lat="48.231344" lon="8.165642" />
      <trkpt lat="48.231476" lon="8.165702" />
      <trkpt lat="48.231587" lon="8.165695" />
      <trkpt lat="48.23163" lon="8.165939" />
      <trkpt lat="48.231641" lon="8.166253" />
      <trkpt lat="48.231701" lon="8.166557" />
      <trkpt lat="48.23178" lon="8.166764" />
      <trkpt lat="48.23184" lon="8.166852" />
      <trkpt lat="48.231952" lon="8.166875" />
      <trkpt lat="48.232215" lon="8.16676" />
      <trkpt lat="48.232458" lon="8.166734" />
      <trkpt lat="48.233103" lon="8.16676" />
      <trkpt lat="48.233259" lon="8.166735" />
      <trkpt lat="48.233463" lon="8.166603" />
      <trkpt lat="48.233826" lon="8.166111" />
      <trkpt lat="48.233911" lon="8.166089" />
      <trkpt lat="48.234002" lon="8.16612" />
      <trkpt lat="48.234315" lon="8.166451" />
      <trkpt lat="48.234512" lon="8.166573" />
      <trkpt lat="48.235258" lon="8.166514" />
      <trkpt lat="48.235679" lon="8.166541" />
      <trkpt lat="48.236123" lon="8.166589" />
      <trkpt lat="48.236221" lon="8.166625" />
      <trkpt lat="48.236281" lon="8.166737" />
      <trkpt lat="48.236312" lon="8.166879" />
      <trkpt lat="48.236299" lon="8.167003" />
      <trkpt lat="48.236251" lon="8.167144" />
      <trkpt lat="48.236044" lon="8.167548" />
      <trkpt lat="48.236025" lon="8.167677" />
      <trkpt lat="48.236039" lon="8.167768" />
      <trkpt lat="48.23609" lon="8.16787" />
      <trkpt lat="48.237014" lon="8.168608" />
      <trkpt lat="48.237794" lon="8.169435" />
      <trkpt lat="48.237918" lon="8.169452" />
      <trkpt lat="48.23802" lon="8.169424" />
      <trkpt lat="48.238287" lon="8.168789" />
      <trkpt lat="48.238586" lon="8.16834" />
      <trkpt lat="48.238871" lon="8.168162" />
      <trkpt lat="48.239016" lon="8.168076" />
      <trkpt lat="48.23919" lon="8.167978" />
      <trkpt lat="48.239502" lon="8.167677" />
      <trkpt lat="48.239692" lon="8.167494" />
      <trkpt lat="48.239766" lon="8.167419" />
      <trkpt lat="48.240195" lon="8.166901" />
      <trkpt lat="48.240849" lon="8.166018" />
      <trkpt lat="48.241156" lon="8.165738" />
      <trkpt lat="48.241622" lon="8.164918" />
      <trkpt lat="48.241952" lon="8.164596" />
      <trkpt lat="48.242292" lon="8.163941" />
      <trkpt lat="48.24236" lon="8.163691" />
      <trkpt lat="48.242597" lon="8.163068" />
      <trkpt lat="48.242755" lon="8.162765" />
      <trkpt lat="48.243066" lon="8.162317" />
      <trkpt lat="48.243133" lon="8.162102" />
      <trkpt lat="48.243123" lon="8.161373" />
      <trkpt lat="48.243167" lon="8.160873" />
      <trkpt lat="48.243248" lon="8.160338" />
      <trkpt lat="48.24333" lon="8.159559" />
      <trkpt lat="48.243318" lon="8.158938" />
      <trkpt lat="48.243363" lon="8.158586" />
      <trkpt lat="48.243457" lon="8.158181" />
      <trkpt lat="48.243664" lon="8.157821" />
      <trkpt lat="48.244079" lon="8.157329" />
      <trkpt lat="48.244133" lon="8.157229" />
      <trkpt lat="48.244152" lon="8.157109" />
      <trkpt lat="48.244192" lon="8.155938" />
      <trkpt lat="48.244155" lon="8.155042" />
      <trkpt lat="48.244209" lon="8.15461" />
      <trkpt lat="48.244301" lon="8.152949" />
      <trkpt lat="48.244281" lon="8.152739" />
      <trkpt lat="48.244088" lon="8.152226" />
      <trkpt lat="48.244032" lon="8.151942" />
      <trkpt lat="48.244042" lon="8.151507" />
      <trkpt lat="48.244084" lon="8.151096" />
      <trkpt lat="48.244081" lon="8.150787" />
      <trkpt lat="48.243993" lon="8.150414" />
      <trkpt lat="48.243833" lon="8.149323" />
      <trkpt lat="48.243826" lon="8.148836" />
      <trkpt lat="48.243722" lon="8.148051" />
      <trkpt lat="48.243783" lon="8.147786" />
      <trkpt lat="48.243979" lon="8.147154" />
      <trkpt lat="48.244029" lon="8.146992" />
      <trkpt lat="48.244291" lon="8.146489" />
      <trkpt lat="48.244366" lon="8.146239" />
      <trkpt lat="48.244401" lon="8.146014" />
      <trkpt lat="48.244408" lon="8.14573" />
      <trkpt lat="48.244308" lon="8.143502" />
      <trkpt lat="48.244373" lon="8.141997" />
      <trkpt lat="48.244362" lon="8.141495" />
      <trkpt lat="48.244218" lon="8.141019" />
      <trkpt lat="48.2442" lon="8.140887" />
      <trkpt lat="48.244233" lon="8.140631" />
      <trkpt lat="48.244657" lon="8.138979" />
      <trkpt lat="48.244826" lon="8.138153" />
      <trkpt lat="48.245" lon="8.137497" />
      <trkpt lat="48.245109" lon="8.137212" />
      <trkpt lat="48.245388" lon="8.136694" />
      <trkpt lat="48.246271" lon="8.135463" />
      <trkpt lat="48.246402" lon="8.135246" />
      <trkpt lat="48.24655" lon="8.135039" />
      <trkpt lat="48.246668" lon="8.134828" />
      <trkpt lat="48.246946" lon="8.134475" />
      <trkpt lat="48.247018" lon="8.134336" />
      <trkpt lat="48.247264" lon="8.133533" />
      <trkpt lat="48.247315" lon="8.13329" />
      <trkpt lat="48.24738" lon="8.132664" />
      <trkpt lat="48.247445" lon="8.132317" />
      <trkpt lat="48.24778" lon="8.131575" />
      <trkpt lat="48.247832" lon="8.131391" />
      <trkpt lat="48.24796" lon="8.130656" />
      <trkpt lat="48.2481" lon="8.129822" />
      <trkpt lat="48.248294" lon="8.12889" />
      <trkpt lat="48.248355" lon="8.128686" />
      <trkpt lat="48.248739" lon="8.128086" />
      <trkpt lat="48.248783" lon="8.127601" />
      <trkpt lat="48.248828" lon="8.127379" />
      <trkpt lat="48.24919" lon="8.126754" />
      <trkpt lat="48.249325" lon="8.126247" />
      <trkpt lat="48.249746" lon="8.125163" />
      <trkpt lat="48.249874" lon="8.12455" />
      <trkpt lat="48.249996" lon="8.124191" />
      <trkpt lat="48.250276" lon="8.123585" />
      <trkpt lat="48.250382" lon="8.123275" />
      <trkpt lat="48.250552" lon="8.122624" />
      <trkpt lat="48.250615" lon="8.122427" />
      <trkpt lat="48.251152" lon="8.120752" />
      <trkpt lat="48.25134" lon="8.120236" />
      <trkpt lat="48.25151" lon="8.119941" />
      <trkpt lat="48.251662" lon="8.119762" />
      <trkpt lat="48.25176" lon="8.119589" />
      <trkpt lat="48.251895" lon="8.119191" />
      <trkpt lat="48.25227" lon="8.118474" />
      <trkpt lat="48.252646" lon="8.117482" />
      <trkpt lat="48.252734" lon="8.117012" />
      <trkpt lat="48.252886" lon="8.116236" />
      <trkpt lat="48.252944" lon="8.11505" />
      <trkpt lat="48.25301" lon="8.11476" />
      <trkpt lat="48.25319" lon="8.114237" />
      <trkpt lat="48.253275" lon="8.113898" />
      <trkpt lat="48.253304" lon="8.113688" />
      <trkpt lat="48.253307" lon="8.113288" />
      <trkpt lat="48.253289" lon="8.113128" />
      <trkpt lat="48.253239" lon="8.112988" />
      <trkpt lat="48.252973" lon="8.112763" />
      <trkpt lat="48.252916" lon="8.11221" />
      <trkpt lat="48.252897" lon="8.11186" />
      <trkpt lat="48.252917" lon="8.111243" />
      <trkpt lat="48.252929" lon="8.111112" />
      <trkpt lat="48.253057" lon="8.110679" />
      <trkpt lat="48.253283" lon="8.110711" />
      <trkpt lat="48.253754" lon="8.110601" />
      <trkpt lat="48.254036" lon="8.110442" />
      <trkpt lat="48.254252" lon="8.110204" />
      <trkpt lat="48.25451" lon="8.109776" />
      <trkpt lat="48.254667" lon="8.109553" />
      <trkpt lat="48.254803" lon="8.109435" />
      <trkpt lat="48.25492" lon="8.109363" />
      <trkpt lat="48.255163" lon="8.109285" />
      <trkpt lat="48.25541" lon="8.109149" />
      <trkpt lat="48.255501" lon="8.109078" />
      <trkpt lat="48.255782" lon="8.108698" />
      <trkpt lat="48.255984" lon="8.108385" />
      <trkpt lat="48.256184" lon="8.10809" />
      <trkpt lat="48.256312" lon="8.107916" />
      <trkpt lat="48.256496" lon="8.107696" />
      <trkpt lat="48.256624" lon="8.107568" />
      <trkpt lat="48.256777" lon="8.107435" />
      <trkpt lat="48.256877" lon="8.107358" />
      <trkpt lat="48.257076" lon="8.107209" />
      <trkpt lat="48.257154" lon="8.107152" />
      <trkpt lat="48.257104" lon="8.106854" />
      <trkpt lat="48.257343" lon="8.106829" />
      <trkpt lat="48.257565" lon="8.106732" />
      <trkpt lat="48.258189" lon="8.106264" />
      <trkpt lat="48.258443" lon="8.105998" />
      <trkpt lat="48.258794" lon="8.105536" />
      <trkpt lat="48.259715" lon="8.104027" />
      <trkpt lat="48.259933" lon="8.103829" />
      <trkpt lat="48.26062" lon="8.103363" />
      <trkpt lat="48.260717" lon="8.103279" />
      <trkpt lat="48.260818" lon="8.103108" />
      <trkpt lat="48.261108" lon="8.102434" />
      <trkpt lat="48.261211" lon="8.10225" />
      <trkpt lat="48.261395" lon="8.102162" />
      <trkpt lat="48.261539" lon="8.102163" />
      <trkpt lat="48.26204" lon="8.102272" />
      <trkpt lat="48.26234" lon="8.10211" />
      <trkpt lat="48.262984" lon="8.101676" />
      <trkpt lat="48.263464" lon="8.101242" />
      <trkpt lat="48.263756" lon="8.100929" />
      <trkpt lat="48.2642" lon="8.100411" />
      <trkpt lat="48.265066" lon="8.099173" />
      <trkpt lat="48.265412" lon="8.098732" />
      <trkpt lat="48.265726" lon="8.098377" />
      <trkpt lat="48.266064" lon="8.098063" />
      <trkpt lat="48.266713" lon="8.097547" />
      <trkpt lat="48.267488" lon="8.09672" />
      <trkpt lat="48.268265" lon="8.09568" />
      <trkpt lat="48.269211" lon="8.094389" />
      <trkpt lat="48.269333" lon="8.094256" />
      <trkpt lat="48.271813" lon="8.091551" />
      <trkpt lat="48.271829" lon="8.091533" />
      <trkpt lat="48.271866" lon="8.091497" />
      <trkpt lat="48.272074" lon="8.091344" />
      <trkpt lat="48.27239" lon="8.091133" />
      <trkpt lat="48.273552" lon="8.090466" />
      <trkpt lat="48.273733" lon="8.090406" />
      <trkpt lat="48.274411" lon="8.090299" />
      <trkpt lat="48.274479" lon="8.090282" />
      <trkpt lat="48.274561" lon="8.090205" />
      <trkpt lat="48.274577" lon="8.090303" />
      <trkpt lat="48.274671" lon="8.090293" />
      <trkpt lat="48.275315" lon="8.09025" />
      <trkpt lat="48.276404" lon="8.090159" />
      <trkpt lat="48.276726" lon="8.090101" />
      <trkpt lat="48.277067" lon="8.090034" />
      <trkpt lat="48.277242" lon="8.089999" />
      <trkpt lat="48.277359" lon="8.089973" />
      <trkpt lat="48.27751" lon="8.089951" />
      <trkpt lat="48.277651" lon="8.089944" />
      <trkpt lat="48.278041" lon="8.089995" />
      <trkpt lat="48.278322" lon="8.090081" />
      <trkpt lat="48.27876" lon="8.090278" />
      <trkpt lat="48.279047" lon="8.090396" />
      <trkpt lat="48.279282" lon="8.090558" />
      <trkpt lat="48.279406" lon="8.090605" />
      <trkpt lat="48.279406" lon="8.090605" />
    </trkseg>
  </trk>
</gpx>