<?xml version="1.0" encoding="UTF-8"?>
<gpx version="1.1" xmlns="http://www.topografix.com/GPX/1/1" creator="https://github.com/georust/gpx">
  <trk>
    <name>01: MittelgebirgeClassique2023 - Final</name>
    <trkseg>
      <trkpt lat="47.929981" lon="8.448436" />
      <trkpt lat="47.930142" lon="8.448447" />
      <trkpt lat="47.930132" lon="8.448313" />
      <trkpt lat="47.930105" lon="8.447888" />
      <trkpt lat="47.930103" lon="8.447848" />
      <trkpt lat="47.93007" lon="8.447227" />
      <trkpt lat="47.930134" lon="8.447215" />
      <trkpt lat="47.930174" lon="8.447146" />
      <trkpt lat="47.930287" lon="8.446673" />
      <trkpt lat="47.93048" lon="8.446207" />
      <trkpt lat="47.930831" lon="8.445602" />
      <trkpt lat="47.931001" lon="8.445171" />
      <trkpt lat="47.931295" lon="8.443858" />
      <trkpt lat="47.93135" lon="8.443733" />
      <trkpt lat="47.931448" lon="8.443612" />
      <trkpt lat="47.931622" lon="8.443477" />
      <trkpt lat="47.932153" lon="8.443388" />
      <trkpt lat="47.932469" lon="8.443353" />
      <trkpt lat="47.93268" lon="8.443199" />
      <trkpt lat="47.932819" lon="8.4429" />
      <trkpt lat="47.932927" lon="8.442474" />
      <trkpt lat="47.933082" lon="8.441965" />
      <trkpt lat="47.933283" lon="8.441651" />
      <trkpt lat="47.933516" lon="8.441443" />
      <trkpt lat="47.934043" lon="8.441224" />
      <trkpt lat="47.934268" lon="8.441109" />
      <trkpt lat="47.934443" lon="8.440993" />
      <trkpt lat="47.934686" lon="8.440746" />
      <trkpt lat="47.935142" lon="8.440135" />
      <trkpt lat="47.935329" lon="8.43989" />
      <trkpt lat="47.935882" lon="8.439165" />
      <trkpt lat="47.936436" lon="8.43842" />
      <trkpt lat="47.936639" lon="8.438223" />
      <trkpt lat="47.936984" lon="8.438024" />
      <trkpt lat="47.937305" lon="8.437894" />
      <trkpt lat="47.93765" lon="8.437798" />
      <trkpt lat="47.938006" lon="8.437831" />
      <trkpt lat="47.938332" lon="8.437998" />
      <trkpt lat="47.938999" lon="8.438511" />
      <trkpt lat="47.939738" lon="8.438888" />
      <trkpt lat="47.940345" lon="8.4391" />
      <trkpt lat="47.940659" lon="8.439216" />
      <trkpt lat="47.941546" lon="8.439507" />
      <trkpt lat="47.941798" lon="8.439612" />
      <trkpt lat="47.942175" lon="8.43921" />
      <trkpt lat="47.942393" lon="8.439021" />
      <trkpt lat="47.942991" lon="8.438597" />
      <trkpt lat="47.943492" lon="8.438361" />
      <trkpt lat="47.94391" lon="8.438228" />
      <trkpt lat="47.948014" lon="8.437446" />
      <trkpt lat="47.950547" lon="8.436996" />
      <trkpt lat="47.951652" lon="8.436761" />
      <trkpt lat="47.952208" lon="8.436638" />
      <trkpt lat="47.953333" lon="8.436414" />
      <trkpt lat="47.953466" lon="8.43646" />
      <trkpt lat="47.953564" lon="8.436493" />
      <trkpt lat="47.953937" lon="8.436348" />
      <trkpt lat="47.954851" lon="8.435753" />
      <trkpt lat="47.958186" lon="8.432551" />
      <trkpt lat="47.958181" lon="8.432355" />
      <trkpt lat="47.958207" lon="8.432225" />
      <trkpt lat="47.958629" lon="8.431378" />
      <trkpt lat="47.958771" lon="8.431155" />
      <trkpt lat="47.959565" lon="8.430225" />
      <trkpt lat="47.960825" lon="8.428829" />
      <trkpt lat="47.961123" lon="8.428209" />
      <trkpt lat="47.961332" lon="8.427866" />
      <trkpt lat="47.961595" lon="8.427676" />
      <trkpt lat="47.962108" lon="8.427453" />
      <trkpt lat="47.962313" lon="8.427292" />
      <trkpt lat="47.963177" lon="8.426382" />
      <trkpt lat="47.963709" lon="8.42594" />
      <trkpt lat="47.96375" lon="8.425915" />
      <trkpt lat="47.963906" lon="8.425749" />
      <trkpt lat="47.963954" lon="8.425622" />
      <trkpt lat="47.964131" lon="8.42576" />
      <trkpt lat="47.964644" lon="8.425971" />
      <trkpt lat="47.964802" lon="8.426006" />
      <trkpt lat="47.964942" lon="8.426027" />
      <trkpt lat="47.965059" lon="8.426032" />
      <trkpt lat="47.965681" lon="8.426036" />
      <trkpt lat="47.965828" lon="8.426062" />
      <trkpt lat="47.965844" lon="8.425859" />
      <trkpt lat="47.965808" lon="8.425637" />
      <trkpt lat="47.96595" lon="8.425341" />
      <trkpt lat="47.966116" lon="8.425155" />
      <trkpt lat="47.966685" lon="8.424487" />
      <trkpt lat="47.967283" lon="8.423811" />
      <trkpt lat="47.967972" lon="8.423019" />
      <trkpt lat="47.968039" lon="8.422767" />
      <trkpt lat="47.968029" lon="8.422547" />
      <trkpt lat="47.967972" lon="8.422112" />
      <trkpt lat="47.967969" lon="8.421931" />
      <trkpt lat="47.968013" lon="8.421584" />
      <trkpt lat="47.968099" lon="8.421304" />
      <trkpt lat="47.968865" lon="8.420266" />
      <trkpt lat="47.969319" lon="8.419635" />
      <trkpt lat="47.969397" lon="8.419509" />
      <trkpt lat="47.969622" lon="8.419054" />
      <trkpt lat="47.969804" lon="8.418533" />
      <trkpt lat="47.969958" lon="8.41777" />
      <trkpt lat="47.970149" lon="8.416809" />
      <trkpt lat="47.97033" lon="8.416303" />
      <trkpt lat="47.970475" lon="8.416012" />
      <trkpt lat="47.970622" lon="8.415774" />
      <trkpt lat="47.970921" lon="8.415346" />
      <trkpt lat="47.971202" lon="8.415007" />
      <trkpt lat="47.971319" lon="8.414868" />
      <trkpt lat="47.971623" lon="8.414468" />
      <trkpt lat="47.971927" lon="8.414189" />
      <trkpt lat="47.972111" lon="8.414087" />
      <trkpt lat="47.972343" lon="8.414007" />
      <trkpt lat="47.97285" lon="8.41395" />
      <trkpt lat="47.972987" lon="8.413951" />
      <trkpt lat="47.973372" lon="8.414" />
      <trkpt lat="47.97347" lon="8.414062" />
      <trkpt lat="47.973547" lon="8.414166" />
      <trkpt lat="47.973616" lon="8.414324" />
      <trkpt lat="47.973646" lon="8.414473" />
      <trkpt lat="47.973681" lon="8.41462" />
      <trkpt lat="47.973749" lon="8.414758" />
      <trkpt lat="47.974009" lon="8.415044" />
      <trkpt lat="47.974085" lon="8.415126" />
      <trkpt lat="47.974253" lon="8.41471" />
      <trkpt lat="47.974393" lon="8.414108" />
      <trkpt lat="47.974448" lon="8.413501" />
      <trkpt lat="47.974452" lon="8.413031" />
      <trkpt lat="47.974431" lon="8.41266" />
      <trkpt lat="47.974376" lon="8.412258" />
      <trkpt lat="47.974271" lon="8.411783" />
      <trkpt lat="47.974111" lon="8.411316" />
      <trkpt lat="47.973331" lon="8.409616" />
      <trkpt lat="47.97314" lon="8.409065" />
      <trkpt lat="47.97301" lon="8.408556" />
      <trkpt lat="47.972931" lon="8.408008" />
      <trkpt lat="47.972855" lon="8.406531" />
      <trkpt lat="47.972847" lon="8.406144" />
      <trkpt lat="47.972832" lon="8.405477" />
      <trkpt lat="47.972871" lon="8.404931" />
      <trkpt lat="47.972946" lon="8.404416" />
      <trkpt lat="47.973062" lon="8.403919" />
      <trkpt lat="47.974731" lon="8.399664" />
      <trkpt lat="47.975326" lon="8.397938" />
      <trkpt lat="47.975851" lon="8.396315" />
      <trkpt lat="47.976231" lon="8.394858" />
      <trkpt lat="47.976533" lon="8.39393" />
      <trkpt lat="47.976933" lon="8.393097" />
      <trkpt lat="47.977368" lon="8.392507" />
      <trkpt lat="47.978064" lon="8.391858" />
      <trkpt lat="47.978643" lon="8.391537" />
      <trkpt lat="47.9792" lon="8.391356" />
      <trkpt lat="47.979567" lon="8.391191" />
      <trkpt lat="47.979919" lon="8.390935" />
      <trkpt lat="47.980219" lon="8.390561" />
      <trkpt lat="47.980427" lon="8.390207" />
      <trkpt lat="47.980618" lon="8.389722" />
      <trkpt lat="47.981102" lon="8.38808" />
      <trkpt lat="47.981439" lon="8.387111" />
      <trkpt lat="47.982054" lon="8.385825" />
      <trkpt lat="47.98302" lon="8.384346" />
      <trkpt lat="47.983562" lon="8.383464" />
      <trkpt lat="47.984511" lon="8.382682" />
      <trkpt lat="47.986479" lon="8.382379" />
      <trkpt lat="47.987138" lon="8.382136" />
      <trkpt lat="47.987829" lon="8.381591" />
      <trkpt lat="47.988265" lon="8.380802" />
      <trkpt lat="47.988718" lon="8.379415" />
      <trkpt lat="47.988999" lon="8.378356" />
      <trkpt lat="47.989226" lon="8.377323" />
      <trkpt lat="47.989506" lon="8.376301" />
      <trkpt lat="47.989555" lon="8.376083" />
      <trkpt lat="47.98996" lon="8.37508" />
      <trkpt lat="47.990135" lon="8.374338" />
      <trkpt lat="47.990257" lon="8.372217" />
      <trkpt lat="47.99026" lon="8.369946" />
      <trkpt lat="47.990186" lon="8.36873" />
      <trkpt lat="47.990093" lon="8.367727" />
      <trkpt lat="47.990102" lon="8.367066" />
      <trkpt lat="47.990155" lon="8.366724" />
      <trkpt lat="47.990356" lon="8.366181" />
      <trkpt lat="47.990615" lon="8.365662" />
      <trkpt lat="47.991055" lon="8.365137" />
      <trkpt lat="47.99146" lon="8.36439" />
      <trkpt lat="47.991556" lon="8.363846" />
      <trkpt lat="47.991579" lon="8.363714" />
      <trkpt lat="47.991524" lon="8.363094" />
      <trkpt lat="47.991326" lon="8.36249" />
      <trkpt lat="47.990667" lon="8.361264" />
      <trkpt lat="47.990457" lon="8.360918" />
      <trkpt lat="47.990139" lon="8.360486" />
      <trkpt lat="47.989372" lon="8.35953" />
      <trkpt lat="47.989175" lon="8.359193" />
      <trkpt lat="47.989039" lon="8.358847" />
      <trkpt lat="47.988948" lon="8.358466" />
      <trkpt lat="47.988922" lon="8.358087" />
      <trkpt lat="47.988946" lon="8.35773" />
      <trkpt lat="47.989047" lon="8.35729" />
      <trkpt lat="47.990349" lon="8.353595" />
      <trkpt lat="47.990589" lon="8.353017" />
      <trkpt lat="47.990746" lon="8.352797" />
      <trkpt lat="47.990947" lon="8.352615" />
      <trkpt lat="47.991199" lon="8.352457" />
      <trkpt lat="47.991823" lon="8.35217" />
      <trkpt lat="47.992169" lon="8.351954" />
      <trkpt lat="47.992418" lon="8.351746" />
      <trkpt lat="47.992626" lon="8.351511" />
      <trkpt lat="47.992906" lon="8.351117" />
      <trkpt lat="47.993059" lon="8.350815" />
      <trkpt lat="47.993676" lon="8.349308" />
      <trkpt lat="47.994329" lon="8.347949" />
      <trkpt lat="47.994471" lon="8.347585" />
      <trkpt lat="47.994602" lon="8.347153" />
      <trkpt lat="47.994745" lon="8.346454" />
      <trkpt lat="47.994948" lon="8.344745" />
      <trkpt lat="47.995031" lon="8.344083" />
      <trkpt lat="47.995193" lon="8.342763" />
      <trkpt lat="47.995576" lon="8.33965" />
      <trkpt lat="47.99573" lon="8.338754" />
      <trkpt lat="47.995977" lon="8.338118" />
      <trkpt lat="47.996357" lon="8.337464" />
      <trkpt lat="47.996666" lon="8.336904" />
      <trkpt lat="47.996915" lon="8.336318" />
      <trkpt lat="47.997023" lon="8.335997" />
      <trkpt lat="47.997849" lon="8.333034" />
      <trkpt lat="47.998269" lon="8.331845" />
      <trkpt lat="47.99847" lon="8.3313" />
      <trkpt lat="47.998596" lon="8.330945" />
      <trkpt lat="47.998815" lon="8.330421" />
      <trkpt lat="47.998902" lon="8.330254" />
      <trkpt lat="47.998965" lon="8.330157" />
      <trkpt lat="47.998974" lon="8.330142" />
      <trkpt lat="47.999137" lon="8.32992" />
      <trkpt lat="47.999206" lon="8.329846" />
      <trkpt lat="47.999449" lon="8.329615" />
      <trkpt lat="47.999966" lon="8.329109" />
      <trkpt lat="48.000536" lon="8.328608" />
      <trkpt lat="48.000917" lon="8.328464" />
      <trkpt lat="48.001187" lon="8.328486" />
      <trkpt lat="48.001938" lon="8.328934" />
      <trkpt lat="48.002218" lon="8.329044" />
      <trkpt lat="48.002464" lon="8.329077" />
      <trkpt lat="48.002719" lon="8.32906" />
      <trkpt lat="48.003111" lon="8.328977" />
      <trkpt lat="48.00379" lon="8.328833" />
      <trkpt lat="48.00409" lon="8.328733" />
      <trkpt lat="48.00443" lon="8.328517" />
      <trkpt lat="48.004691" lon="8.328236" />
      <trkpt lat="48.005237" lon="8.327349" />
      <trkpt lat="48.005427" lon="8.327116" />
      <trkpt lat="48.005628" lon="8.326981" />
      <trkpt lat="48.006482" lon="8.326981" />
      <trkpt lat="48.006726" lon="8.326887" />
      <trkpt lat="48.007107" lon="8.326603" />
      <trkpt lat="48.007451" lon="8.326268" />
      <trkpt lat="48.007475" lon="8.326242" />
      <trkpt lat="48.007637" lon="8.326032" />
      <trkpt lat="48.007799" lon="8.32576" />
      <trkpt lat="48.008676" lon="8.323866" />
      <trkpt lat="48.009034" lon="8.323094" />
      <trkpt lat="48.009234" lon="8.322766" />
      <trkpt lat="48.009608" lon="8.322299" />
      <trkpt lat="48.009857" lon="8.322077" />
      <trkpt lat="48.010248" lon="8.321836" />
      <trkpt lat="48.010656" lon="8.321665" />
      <trkpt lat="48.012231" lon="8.320922" />
      <trkpt lat="48.013947" lon="8.320182" />
      <trkpt lat="48.014577" lon="8.32002" />
      <trkpt lat="48.014558" lon="8.319614" />
      <trkpt lat="48.014546" lon="8.319319" />
      <trkpt lat="48.014525" lon="8.318976" />
      <trkpt lat="48.014519" lon="8.318858" />
      <trkpt lat="48.014489" lon="8.318318" />
      <trkpt lat="48.014327" lon="8.314826" />
      <trkpt lat="48.014336" lon="8.314638" />
      <trkpt lat="48.014511" lon="8.313971" />
      <trkpt lat="48.014656" lon="8.313212" />
      <trkpt lat="48.014737" lon="8.312494" />
      <trkpt lat="48.014718" lon="8.311825" />
      <trkpt lat="48.014741" lon="8.311595" />
      <trkpt lat="48.014964" lon="8.310296" />
      <trkpt lat="48.015065" lon="8.30986" />
      <trkpt lat="48.015142" lon="8.309647" />
      <trkpt lat="48.015334" lon="8.309278" />
      <trkpt lat="48.015678" lon="8.308136" />
      <trkpt lat="48.015731" lon="8.307917" />
      <trkpt lat="48.016024" lon="8.307018" />
      <trkpt lat="48.016135" lon="8.306431" />
      <trkpt lat="48.016158" lon="8.30612" />
      <trkpt lat="48.016166" lon="8.305294" />
      <trkpt lat="48.016183" lon="8.305082" />
      <trkpt lat="48.016221" lon="8.304777" />
      <trkpt lat="48.016381" lon="8.304092" />
      <trkpt lat="48.016467" lon="8.303822" />
      <trkpt lat="48.016717" lon="8.30329" />
      <trkpt lat="48.016934" lon="8.302585" />
      <trkpt lat="48.017119" lon="8.302096" />
      <trkpt lat="48.01719" lon="8.301926" />
      <trkpt lat="48.017801" lon="8.300478" />
      <trkpt lat="48.017899" lon="8.299674" />
      <trkpt lat="48.018061" lon="8.298915" />
      <trkpt lat="48.018498" lon="8.297608" />
      <trkpt lat="48.018527" lon="8.297293" />
      <trkpt lat="48.018605" lon="8.296747" />
      <trkpt lat="48.018662" lon="8.295483" />
      <trkpt lat="48.018693" lon="8.295165" />
      <trkpt lat="48.018727" lon="8.295027" />
      <trkpt lat="48.018778" lon="8.29489" />
      <trkpt lat="48.018943" lon="8.294706" />
      <trkpt lat="48.019064" lon="8.294669" />
      <trkpt lat="48.019338" lon="8.294676" />
      <trkpt lat="48.01945" lon="8.29461" />
      <trkpt lat="48.019533" lon="8.29442" />
      <trkpt lat="48.019544" lon="8.294264" />
      <trkpt lat="48.019492" lon="8.294025" />
      <trkpt lat="48.019391" lon="8.29384" />
      <trkpt lat="48.019322" lon="8.293771" />
      <trkpt lat="48.01882" lon="8.293475" />
      <trkpt lat="48.018685" lon="8.293299" />
      <trkpt lat="48.018627" lon="8.293054" />
      <trkpt lat="48.018616" lon="8.292739" />
      <trkpt lat="48.018613" lon="8.292401" />
      <trkpt lat="48.018624" lon="8.292054" />
      <trkpt lat="48.018688" lon="8.291582" />
      <trkpt lat="48.018742" lon="8.291299" />
      <trkpt lat="48.019009" lon="8.290237" />
      <trkpt lat="48.019312" lon="8.289392" />
      <trkpt lat="48.019444" lon="8.288994" />
      <trkpt lat="48.020034" lon="8.286834" />
      <trkpt lat="48.020443" lon="8.285495" />
      <trkpt lat="48.020596" lon="8.284787" />
      <trkpt lat="48.020672" lon="8.2843" />
      <trkpt lat="48.020762" lon="8.283723" />
      <trkpt lat="48.020907" lon="8.282137" />
      <trkpt lat="48.021028" lon="8.281211" />
      <trkpt lat="48.021111" lon="8.280822" />
      <trkpt lat="48.021345" lon="8.280269" />
      <trkpt lat="48.021948" lon="8.279195" />
      <trkpt lat="48.022139" lon="8.278746" />
      <trkpt lat="48.022177" lon="8.278584" />
      <trkpt lat="48.022206" lon="8.277443" />
      <trkpt lat="48.022391" lon="8.276207" />
      <trkpt lat="48.022432" lon="8.275608" />
      <trkpt lat="48.022424" lon="8.275324" />
      <trkpt lat="48.022316" lon="8.27475" />
      <trkpt lat="48.022303" lon="8.274534" />
      <trkpt lat="48.022361" lon="8.273932" />
      <trkpt lat="48.022464" lon="8.273153" />
      <trkpt lat="48.022615" lon="8.271513" />
      <trkpt lat="48.022684" lon="8.271009" />
      <trkpt lat="48.022718" lon="8.269585" />
      <trkpt lat="48.022744" lon="8.269367" />
      <trkpt lat="48.022762" lon="8.269305" />
      <trkpt lat="48.023153" lon="8.267987" />
      <trkpt lat="48.023298" lon="8.267621" />
      <trkpt lat="48.023644" lon="8.266895" />
      <trkpt lat="48.023706" lon="8.266807" />
      <trkpt lat="48.023793" lon="8.266718" />
      <trkpt lat="48.023963" lon="8.266499" />
      <trkpt lat="48.024031" lon="8.266355" />
      <trkpt lat="48.024096" lon="8.265705" />
      <trkpt lat="48.024212" lon="8.265051" />
      <trkpt lat="48.024275" lon="8.264178" />
      <trkpt lat="48.0245" lon="8.263447" />
      <trkpt lat="48.02446" lon="8.262854" />
      <trkpt lat="48.024553" lon="8.261643" />
      <trkpt lat="48.024535" lon="8.261101" />
      <trkpt lat="48.024558" lon="8.260623" />
      <trkpt lat="48.02463" lon="8.25982" />
      <trkpt lat="48.024674" lon="8.259544" />
      <trkpt lat="48.024863" lon="8.258922" />
      <trkpt lat="48.024906" lon="8.258662" />
      <trkpt lat="48.024909" lon="8.258283" />
      <trkpt lat="48.024855" lon="8.257698" />
      <trkpt lat="48.024744" lon="8.257018" />
      <trkpt lat="48.024599" lon="8.25656" />
      <trkpt lat="48.024426" lon="8.256171" />
      <trkpt lat="48.024377" lon="8.255987" />
      <trkpt lat="48.024338" lon="8.25525" />
      <trkpt lat="48.024125" lon="8.253795" />
      <trkpt lat="48.024119" lon="8.253386" />
      <trkpt lat="48.024285" lon="8.252182" />
      <trkpt lat="48.024292" lon="8.251906" />
      <trkpt lat="48.024152" lon="8.24961" />
      <trkpt lat="48.024148" lon="8.248506" />
      <trkpt lat="48.024247" lon="8.247069" />
      <trkpt lat="48.024265" lon="8.246707" />
      <trkpt lat="48.024298" lon="8.246491" />
      <trkpt lat="48.024391" lon="8.246152" />
      <trkpt lat="48.024749" lon="8.245236" />
      <trkpt lat="48.024819" lon="8.244878" />
      <trkpt lat="48.024871" lon="8.244442" />
      <trkpt lat="48.024925" lon="8.243068" />
      <trkpt lat="48.024849" lon="8.241571" />
      <trkpt lat="48.024888" lon="8.240683" />
      <trkpt lat="48.024799" lon="8.240178" />
      <trkpt lat="48.024479" lon="8.239401" />
      <trkpt lat="48.024346" lon="8.23895" />
      <trkpt lat="48.024285" lon="8.238609" />
      <trkpt lat="48.024236" lon="8.237568" />
      <trkpt lat="48.024092" lon="8.236706" />
      <trkpt lat="48.024047" lon="8.236126" />
      <trkpt lat="48.02409" lon="8.235426" />
      <trkpt lat="48.024235" lon="8.234615" />
      <trkpt lat="48.024522" lon="8.233258" />
      <trkpt lat="48.02455" lon="8.233019" />
      <trkpt lat="48.024554" lon="8.232716" />
      <trkpt lat="48.024583" lon="8.231982" />
      <trkpt lat="48.024686" lon="8.231322" />
      <trkpt lat="48.024764" lon="8.231136" />
      <trkpt lat="48.024957" lon="8.230803" />
      <trkpt lat="48.0253" lon="8.229723" />
      <trkpt lat="48.025928" lon="8.228449" />
      <trkpt lat="48.026131" lon="8.228168" />
      <trkpt lat="48.026507" lon="8.227783" />
      <trkpt lat="48.026596" lon="8.227656" />
      <trkpt lat="48.026668" lon="8.227503" />
      <trkpt lat="48.026706" lon="8.227331" />
      <trkpt lat="48.026756" lon="8.22686" />
      <trkpt lat="48.027183" lon="8.225635" />
      <trkpt lat="48.027201" lon="8.225302" />
      <trkpt lat="48.027103" lon="8.224993" />
      <trkpt lat="48.027038" lon="8.224888" />
      <trkpt lat="48.026923" lon="8.224781" />
      <trkpt lat="48.026832" lon="8.224749" />
      <trkpt lat="48.026632" lon="8.224772" />
      <trkpt lat="48.026527" lon="8.224828" />
      <trkpt lat="48.026445" lon="8.224942" />
      <trkpt lat="48.026211" lon="8.225667" />
      <trkpt lat="48.026155" lon="8.22576" />
      <trkpt lat="48.026038" lon="8.225833" />
      <trkpt lat="48.025636" lon="8.225926" />
      <trkpt lat="48.025449" lon="8.226073" />
      <trkpt lat="48.02529" lon="8.226276" />
      <trkpt lat="48.025177" lon="8.226349" />
      <trkpt lat="48.025064" lon="8.226375" />
      <trkpt lat="48.025002" lon="8.226356" />
      <trkpt lat="48.024744" lon="8.226167" />
      <trkpt lat="48.024346" lon="8.226048" />
      <trkpt lat="48.024208" lon="8.225971" />
      <trkpt lat="48.024102" lon="8.22587" />
      <trkpt lat="48.024012" lon="8.225727" />
      <trkpt lat="48.0233" lon="8.223878" />
      <trkpt lat="48.023107" lon="8.223222" />
      <trkpt lat="48.022881" lon="8.222248" />
      <trkpt lat="48.022754" lon="8.221291" />
      <trkpt lat="48.022733" lon="8.220807" />
      <trkpt lat="48.02277" lon="8.220308" />
      <trkpt lat="48.02285" lon="8.219899" />
      <trkpt lat="48.023" lon="8.219358" />
      <trkpt lat="48.023064" lon="8.218648" />
      <trkpt lat="48.023138" lon="8.21822" />
      <trkpt lat="48.023515" lon="8.216676" />
      <trkpt lat="48.02377" lon="8.216054" />
      <trkpt lat="48.023968" lon="8.215357" />
      <trkpt lat="48.024111" lon="8.214521" />
      <trkpt lat="48.024422" lon="8.212725" />
      <trkpt lat="48.024492" lon="8.21207" />
      <trkpt lat="48.024496" lon="8.211462" />
      <trkpt lat="48.02443" lon="8.210759" />
      <trkpt lat="48.024309" lon="8.210224" />
      <trkpt lat="48.0235" lon="8.207453" />
      <trkpt lat="48.023091" lon="8.205937" />
      <trkpt lat="48.02307" lon="8.205515" />
      <trkpt lat="48.023125" lon="8.205079" />
      <trkpt lat="48.023336" lon="8.204448" />
      <trkpt lat="48.023727" lon="8.20373" />
      <trkpt lat="48.023966" lon="8.203431" />
      <trkpt lat="48.024305" lon="8.203106" />
      <trkpt lat="48.024549" lon="8.202915" />
      <trkpt lat="48.024711" lon="8.20273" />
      <trkpt lat="48.025084" lon="8.202208" />
      <trkpt lat="48.026261" lon="8.200759" />
      <trkpt lat="48.026473" lon="8.200571" />
      <trkpt lat="48.027457" lon="8.199956" />
      <trkpt lat="48.02799" lon="8.199466" />
      <trkpt lat="48.028087" lon="8.199414" />
      <trkpt lat="48.029323" lon="8.199222" />
      <trkpt lat="48.030151" lon="8.198941" />
      <trkpt lat="48.030653" lon="8.198674" />
      <trkpt lat="48.03153" lon="8.197996" />
      <trkpt lat="48.032369" lon="8.197177" />
      <trkpt lat="48.032756" lon="8.196776" />
      <trkpt lat="48.033528" lon="8.196005" />
      <trkpt lat="48.03376" lon="8.195851" />
      <trkpt lat="48.033988" lon="8.195733" />
      <trkpt lat="48.034787" lon="8.195506" />
      <trkpt lat="48.035001" lon="8.195409" />
      <trkpt lat="48.035102" lon="8.195361" />
      <trkpt lat="48.035278" lon="8.195269" />
      <trkpt lat="48.035621" lon="8.194952" />
      <trkpt lat="48.036625" lon="8.193831" />
      <trkpt lat="48.038425" lon="8.192006" />
      <trkpt lat="48.038945" lon="8.191285" />
      <trkpt lat="48.039052" lon="8.191141" />
      <trkpt lat="48.039137" lon="8.191033" />
      <trkpt lat="48.0393" lon="8.190845" />
      <trkpt lat="48.039502" lon="8.190711" />
      <trkpt lat="48.039808" lon="8.190629" />
      <trkpt lat="48.040037" lon="8.190618" />
      <trkpt lat="48.041818" lon="8.190756" />
      <trkpt lat="48.042119" lon="8.190863" />
      <trkpt lat="48.042584" lon="8.191102" />
      <trkpt lat="48.043578" lon="8.19181" />
      <trkpt lat="48.043747" lon="8.191873" />
      <trkpt lat="48.043896" lon="8.191881" />
      <trkpt lat="48.044146" lon="8.191779" />
      <trkpt lat="48.044283" lon="8.191714" />
      <trkpt lat="48.044339" lon="8.191701" />
      <trkpt lat="48.044676" lon="8.191557" />
      <trkpt lat="48.044847" lon="8.191614" />
      <trkpt lat="48.044895" lon="8.191671" />
      <trkpt lat="48.044921" lon="8.191825" />
      <trkpt lat="48.044958" lon="8.19198" />
      <trkpt lat="48.04496" lon="8.192073" />
      <trkpt lat="48.044963" lon="8.192265" />
      <trkpt lat="48.044958" lon="8.192432" />
      <trkpt lat="48.044955" lon="8.19263" />
      <trkpt lat="48.044953" lon="8.19285" />
      <trkpt lat="48.044969" lon="8.193813" />
      <trkpt lat="48.045054" lon="8.19484" />
      <trkpt lat="48.045054" lon="8.19484" />
      <trkpt lat="48.045229" lon="8.195854" />
      <trkpt lat="48.045333" lon="8.1962" />
      <trkpt lat="48.045377" lon="8.196318" />
      <trkpt lat="48.045451" lon="8.196436" />
      <trkpt lat="48.045616" lon="8.196675" />
      <trkpt lat="48.045857" lon="8.196904" />
      <trkpt lat="48.045911" lon="8.196954" />
      <trkpt lat="48.045927" lon="8.196969" />
      <trkpt lat="48.046067" lon="8.19709" />
      <trkpt lat="48.046159" lon="8.19717" />
      <trkpt lat="48.046274" lon="8.197272" />
      <trkpt lat="48.046391" lon="8.197379" />
      <trkpt lat="48.046576" lon="8.197546" />
      <trkpt lat="48.046673" lon="8.19763" />
      <trkpt lat="48.046747" lon="8.197693" />
      <trkpt lat="48.047215" lon="8.198111" />
      <trkpt lat="48.047634" lon="8.198592" />
      <trkpt lat="48.047831" lon="8.198875" />
      <trkpt lat="48.047997" lon="8.199146" />
      <trkpt lat="48.048046" lon="8.199238" />
      <trkpt lat="48.048326" lon="8.1998" />
      <trkpt lat="48.048471" lon="8.200221" />
      <trkpt lat="48.048561" lon="8.20067" />
      <trkpt lat="48.048569" lon="8.2007" />
      <trkpt lat="48.048593" lon="8.200866" />
      <trkpt lat="48.048612" lon="8.200994" />
      <trkpt lat="48.048641" lon="8.201235" />
      <trkpt lat="48.048698" lon="8.201638" />
      <trkpt lat="48.048733" lon="8.201808" />
      <trkpt lat="48.048779" lon="8.201997" />
      <trkpt lat="48.048813" lon="8.202103" />
      <trkpt lat="48.048824" lon="8.202139" />
      <trkpt lat="48.049052" lon="8.202656" />
      <trkpt lat="48.049436" lon="8.203303" />
      <trkpt lat="48.049525" lon="8.203481" />
      <trkpt lat="48.049732" lon="8.20394" />
      <trkpt lat="48.049991" lon="8.204526" />
      <trkpt lat="48.050187" lon="8.204946" />
      <trkpt lat="48.050488" lon="8.205458" />
      <trkpt lat="48.050618" lon="8.205656" />
      <trkpt lat="48.050756" lon="8.205756" />
      <trkpt lat="48.05084" lon="8.20577" />
    </trkseg>
  </trk>
</gpx>