<?xml version="1.0" encoding="UTF-8"?>
<gpx version="1.1" xmlns="http://www.topografix.com/GPX/1/1" creator="https://github.com/georust/gpx">
  <trk>
    <name>03: MittelgebirgeClassique2023 - Final</name>
    <trkseg>
      <trkpt lat="48.279406" lon="8.090605" />
      <trkpt lat="48.279235" lon="8.091846" />
      <trkpt lat="48.279097" lon="8.092703" />
      <trkpt lat="48.279059" lon="8.092973" />
      <trkpt lat="48.278952" lon="8.093635" />
      <trkpt lat="48.278829" lon="8.094044" />
      <trkpt lat="48.278726" lon="8.09426" />
      <trkpt lat="48.27865" lon="8.094389" />
      <trkpt lat="48.278751" lon="8.094581" />
      <trkpt lat="48.278749" lon="8.094833" />
      <trkpt lat="48.278663" lon="8.095156" />
      <trkpt lat="48.278655" lon="8.095305" />
      <trkpt lat="48.278671" lon="8.095461" />
      <trkpt lat="48.278765" lon="8.095705" />
      <trkpt lat="48.278986" lon="8.095848" />
      <trkpt lat="48.279561" lon="8.095984" />
      <trkpt lat="48.279539" lon="8.096411" />
      <trkpt lat="48.279501" lon="8.096646" />
      <trkpt lat="48.279416" lon="8.096687" />
      <trkpt lat="48.278888" lon="8.096639" />
      <trkpt lat="48.278926" lon="8.097182" />
      <trkpt lat="48.278913" lon="8.09827" />
      <trkpt lat="48.27897" lon="8.098949" />
      <trkpt lat="48.279181" lon="8.100616" />
      <trkpt lat="48.27958" lon="8.103229" />
      <trkpt lat="48.280042" lon="8.105448" />
      <trkpt lat="48.28003" lon="8.106799" />
      <trkpt lat="48.280167" lon="8.108245" />
      <trkpt lat="48.280244" lon="8.108393" />
      <trkpt lat="48.281273" lon="8.111369" />
      <trkpt lat="48.281334" lon="8.111654" />
      <trkpt lat="48.281366" lon="8.111638" />
      <trkpt lat="48.282148" lon="8.111138" />
      <trkpt lat="48.282253" lon="8.111075" />
      <trkpt lat="48.282452" lon="8.112035" />
      <trkpt lat="48.283886" lon="8.112218" />
      <trkpt lat="48.284189" lon="8.112212" />
      <trkpt lat="48.284537" lon="8.112145" />
      <trkpt lat="48.285216" lon="8.111866" />
      <trkpt lat="48.285314" lon="8.111817" />
      <trkpt lat="48.285963" lon="8.111218" />
      <trkpt lat="48.286112" lon="8.111095" />
      <trkpt lat="48.286353" lon="8.110895" />
      <trkpt lat="48.286395" lon="8.110894" />
      <trkpt lat="48.286838" lon="8.110882" />
      <trkpt lat="48.286985" lon="8.110756" />
      <trkpt lat="48.287096" lon="8.111109" />
      <trkpt lat="48.287249" lon="8.111645" />
      <trkpt lat="48.287422" lon="8.112003" />
      <trkpt lat="48.287931" lon="8.112677" />
      <trkpt lat="48.288067" lon="8.113114" />
      <trkpt lat="48.288107" lon="8.113559" />
      <trkpt lat="48.288169" lon="8.114392" />
      <trkpt lat="48.288196" lon="8.114705" />
      <trkpt lat="48.288198" lon="8.114742" />
      <trkpt lat="48.288192" lon="8.115292" />
      <trkpt lat="48.288102" lon="8.115702" />
      <trkpt lat="48.287984" lon="8.116042" />
      <trkpt lat="48.287851" lon="8.116427" />
      <trkpt lat="48.287811" lon="8.116546" />
      <trkpt lat="48.287771" lon="8.116683" />
      <trkpt lat="48.287596" lon="8.117175" />
      <trkpt lat="48.28746" lon="8.117569" />
      <trkpt lat="48.287336" lon="8.118023" />
      <trkpt lat="48.287309" lon="8.118419" />
      <trkpt lat="48.287291" lon="8.118687" />
      <trkpt lat="48.287333" lon="8.118758" />
      <trkpt lat="48.287297" lon="8.121252" />
      <trkpt lat="48.287286" lon="8.121998" />
      <trkpt lat="48.28734" lon="8.122702" />
      <trkpt lat="48.28746" lon="8.123336" />
      <trkpt lat="48.287718" lon="8.123913" />
      <trkpt lat="48.287999" lon="8.12438" />
      <trkpt lat="48.288101" lon="8.124441" />
      <trkpt lat="48.288321" lon="8.124574" />
      <trkpt lat="48.28887" lon="8.124647" />
      <trkpt lat="48.289098" lon="8.12468" />
      <trkpt lat="48.289233" lon="8.124844" />
      <trkpt lat="48.289296" lon="8.124961" />
      <trkpt lat="48.289304" lon="8.125032" />
      <trkpt lat="48.289439" lon="8.125056" />
      <trkpt lat="48.289703" lon="8.125539" />
      <trkpt lat="48.290034" lon="8.126007" />
      <trkpt lat="48.290572" lon="8.126364" />
      <trkpt lat="48.291075" lon="8.126383" />
      <trkpt lat="48.291623" lon="8.126194" />
      <trkpt lat="48.292049" lon="8.126056" />
      <trkpt lat="48.292505" lon="8.125938" />
      <trkpt lat="48.293404" lon="8.125935" />
      <trkpt lat="48.293948" lon="8.126001" />
      <trkpt lat="48.294179" lon="8.125985" />
      <trkpt lat="48.294519" lon="8.125876" />
      <trkpt lat="48.294917" lon="8.125856" />
      <trkpt lat="48.295776" lon="8.12597" />
      <trkpt lat="48.296228" lon="8.12613" />
      <trkpt lat="48.296733" lon="8.126181" />
      <trkpt lat="48.297247" lon="8.126319" />
      <trkpt lat="48.297504" lon="8.126625" />
      <trkpt lat="48.297881" lon="8.126836" />
      <trkpt lat="48.29803" lon="8.126852" />
      <trkpt lat="48.298182" lon="8.12681" />
      <trkpt lat="48.298619" lon="8.126589" />
      <trkpt lat="48.298966" lon="8.126493" />
      <trkpt lat="48.299377" lon="8.126544" />
      <trkpt lat="48.299758" lon="8.126656" />
      <trkpt lat="48.300603" lon="8.127015" />
      <trkpt lat="48.300706" lon="8.12706" />
      <trkpt lat="48.30091" lon="8.127149" />
      <trkpt lat="48.301138" lon="8.127254" />
      <trkpt lat="48.302129" lon="8.127294" />
      <trkpt lat="48.302211" lon="8.127251" />
      <trkpt lat="48.303161" lon="8.126681" />
      <trkpt lat="48.303784" lon="8.125929" />
      <trkpt lat="48.304342" lon="8.125193" />
      <trkpt lat="48.304582" lon="8.124835" />
      <trkpt lat="48.304727" lon="8.124829" />
      <trkpt lat="48.3054" lon="8.124612" />
      <trkpt lat="48.306999" lon="8.123921" />
      <trkpt lat="48.307186" lon="8.123679" />
      <trkpt lat="48.307423" lon="8.123511" />
      <trkpt lat="48.309765" lon="8.122572" />
      <trkpt lat="48.310018" lon="8.122347" />
      <trkpt lat="48.310679" lon="8.121394" />
      <trkpt lat="48.311216" lon="8.120369" />
      <trkpt lat="48.311292" lon="8.11999" />
      <trkpt lat="48.311606" lon="8.119752" />
      <trkpt lat="48.312522" lon="8.119225" />
      <trkpt lat="48.313036" lon="8.119039" />
      <trkpt lat="48.313451" lon="8.11893" />
      <trkpt lat="48.313751" lon="8.118734" />
      <trkpt lat="48.314274" lon="8.118218" />
      <trkpt lat="48.314601" lon="8.117631" />
      <trkpt lat="48.315025" lon="8.117073" />
      <trkpt lat="48.315489" lon="8.116673" />
      <trkpt lat="48.315858" lon="8.116512" />
      <trkpt lat="48.315958" lon="8.116321" />
      <trkpt lat="48.316015" lon="8.116075" />
      <trkpt lat="48.317065" lon="8.114302" />
      <trkpt lat="48.317355" lon="8.113921" />
      <trkpt lat="48.317579" lon="8.113779" />
      <trkpt lat="48.318189" lon="8.113748" />
      <trkpt lat="48.318802" lon="8.113586" />
      <trkpt lat="48.318949" lon="8.113499" />
      <trkpt lat="48.31951" lon="8.112994" />
      <trkpt lat="48.319629" lon="8.112928" />
      <trkpt lat="48.319739" lon="8.112928" />
      <trkpt lat="48.319872" lon="8.113005" />
      <trkpt lat="48.320315" lon="8.113377" />
      <trkpt lat="48.320813" lon="8.113745" />
      <trkpt lat="48.320979" lon="8.11376" />
      <trkpt lat="48.321173" lon="8.113753" />
      <trkpt lat="48.321425" lon="8.113752" />
      <trkpt lat="48.321597" lon="8.113787" />
      <trkpt lat="48.322528" lon="8.114137" />
      <trkpt lat="48.322969" lon="8.114303" />
      <trkpt lat="48.323117" lon="8.11429" />
      <trkpt lat="48.323531" lon="8.114132" />
      <trkpt lat="48.324295" lon="8.113859" />
      <trkpt lat="48.324509" lon="8.113852" />
      <trkpt lat="48.324681" lon="8.113924" />
      <trkpt lat="48.325882" lon="8.114917" />
      <trkpt lat="48.326339" lon="8.11554" />
      <trkpt lat="48.326616" lon="8.115842" />
      <trkpt lat="48.327099" lon="8.116264" />
      <trkpt lat="48.327146" lon="8.116392" />
      <trkpt lat="48.327133" lon="8.116483" />
      <trkpt lat="48.327095" lon="8.116553" />
      <trkpt lat="48.326989" lon="8.116607" />
      <trkpt lat="48.326974" lon="8.116649" />
      <trkpt lat="48.326765" lon="8.116804" />
      <trkpt lat="48.326694" lon="8.116903" />
      <trkpt lat="48.326655" lon="8.117055" />
      <trkpt lat="48.326637" lon="8.117321" />
      <trkpt lat="48.326591" lon="8.117442" />
      <trkpt lat="48.326549" lon="8.117484" />
      <trkpt lat="48.326304" lon="8.117429" />
      <trkpt lat="48.326192" lon="8.11745" />
      <trkpt lat="48.326029" lon="8.117616" />
      <trkpt lat="48.325904" lon="8.117882" />
      <trkpt lat="48.325767" lon="8.118513" />
      <trkpt lat="48.325673" lon="8.118782" />
      <trkpt lat="48.325473" lon="8.11898" />
      <trkpt lat="48.325164" lon="8.119146" />
      <trkpt lat="48.325073" lon="8.1192" />
      <trkpt lat="48.325053" lon="8.119314" />
      <trkpt lat="48.325097" lon="8.119377" />
      <trkpt lat="48.325721" lon="8.119357" />
      <trkpt lat="48.325902" lon="8.119194" />
      <trkpt lat="48.326205" lon="8.11918" />
      <trkpt lat="48.326641" lon="8.121162" />
      <trkpt lat="48.326861" lon="8.121332" />
      <trkpt lat="48.327092" lon="8.121113" />
      <trkpt lat="48.327284" lon="8.12082" />
      <trkpt lat="48.327696" lon="8.120202" />
      <trkpt lat="48.32807" lon="8.12003" />
      <trkpt lat="48.328503" lon="8.11969" />
      <trkpt lat="48.328847" lon="8.119752" />
      <trkpt lat="48.329357" lon="8.11992" />
      <trkpt lat="48.3296" lon="8.11998" />
      <trkpt lat="48.32979" lon="8.119915" />
      <trkpt lat="48.330301" lon="8.119138" />
      <trkpt lat="48.330436" lon="8.119082" />
      <trkpt lat="48.330957" lon="8.119124" />
      <trkpt lat="48.331443" lon="8.118641" />
      <trkpt lat="48.331616" lon="8.118503" />
      <trkpt lat="48.332131" lon="8.118291" />
      <trkpt lat="48.332834" lon="8.117796" />
      <trkpt lat="48.332906" lon="8.117917" />
      <trkpt lat="48.333012" lon="8.118456" />
      <trkpt lat="48.333184" lon="8.119008" />
      <trkpt lat="48.333502" lon="8.120878" />
      <trkpt lat="48.334027" lon="8.121878" />
      <trkpt lat="48.334237" lon="8.122125" />
      <trkpt lat="48.334409" lon="8.122597" />
      <trkpt lat="48.334511" lon="8.122775" />
      <trkpt lat="48.334849" lon="8.122976" />
      <trkpt lat="48.335037" lon="8.122977" />
      <trkpt lat="48.335394" lon="8.123133" />
      <trkpt lat="48.336069" lon="8.123218" />
      <trkpt lat="48.33672" lon="8.123199" />
      <trkpt lat="48.337073" lon="8.123066" />
      <trkpt lat="48.337357" lon="8.123025" />
      <trkpt lat="48.337867" lon="8.123033" />
      <trkpt lat="48.338369" lon="8.123102" />
      <trkpt lat="48.338548" lon="8.123072" />
      <trkpt lat="48.338669" lon="8.123015" />
      <trkpt lat="48.33906" lon="8.12296" />
      <trkpt lat="48.339209" lon="8.12317" />
      <trkpt lat="48.339564" lon="8.124057" />
      <trkpt lat="48.339684" lon="8.124295" />
      <trkpt lat="48.340091" lon="8.124843" />
      <trkpt lat="48.340194" lon="8.12495" />
      <trkpt lat="48.340367" lon="8.12535" />
      <trkpt lat="48.34048" lon="8.125824" />
      <trkpt lat="48.34064" lon="8.126974" />
      <trkpt lat="48.340663" lon="8.127145" />
      <trkpt lat="48.340679" lon="8.127763" />
      <trkpt lat="48.340642" lon="8.128009" />
      <trkpt lat="48.340371" lon="8.128558" />
      <trkpt lat="48.340317" lon="8.128833" />
      <trkpt lat="48.340322" lon="8.128967" />
      <trkpt lat="48.340394" lon="8.129117" />
      <trkpt lat="48.340498" lon="8.129187" />
      <trkpt lat="48.340857" lon="8.129289" />
      <trkpt lat="48.341331" lon="8.129251" />
      <trkpt lat="48.341511" lon="8.129138" />
      <trkpt lat="48.341744" lon="8.128881" />
      <trkpt lat="48.342652" lon="8.127476" />
      <trkpt lat="48.342808" lon="8.127137" />
      <trkpt lat="48.34294" lon="8.126772" />
      <trkpt lat="48.342998" lon="8.126483" />
      <trkpt lat="48.343094" lon="8.126171" />
      <trkpt lat="48.343153" lon="8.125885" />
      <trkpt lat="48.343265" lon="8.125567" />
      <trkpt lat="48.343363" lon="8.125416" />
      <trkpt lat="48.343636" lon="8.125277" />
      <trkpt lat="48.343743" lon="8.125279" />
      <trkpt lat="48.34387" lon="8.125398" />
      <trkpt lat="48.344078" lon="8.125818" />
      <trkpt lat="48.344152" lon="8.126054" />
      <trkpt lat="48.344393" lon="8.127319" />
      <trkpt lat="48.344596" lon="8.128239" />
      <trkpt lat="48.344847" lon="8.129944" />
      <trkpt lat="48.344886" lon="8.130379" />
      <trkpt lat="48.344932" lon="8.130493" />
      <trkpt lat="48.34503" lon="8.130585" />
      <trkpt lat="48.344971" lon="8.130822" />
      <trkpt lat="48.344386" lon="8.132261" />
      <trkpt lat="48.344429" lon="8.13257" />
      <trkpt lat="48.344552" lon="8.133153" />
      <trkpt lat="48.344556" lon="8.13399" />
      <trkpt lat="48.344467" lon="8.134848" />
      <trkpt lat="48.344364" lon="8.135297" />
      <trkpt lat="48.344191" lon="8.13582" />
      <trkpt lat="48.343673" lon="8.136739" />
      <trkpt lat="48.343578" lon="8.136847" />
      <trkpt lat="48.343458" lon="8.13689" />
      <trkpt lat="48.342869" lon="8.136898" />
      <trkpt lat="48.342523" lon="8.137015" />
      <trkpt lat="48.342186" lon="8.137236" />
      <trkpt lat="48.342059" lon="8.137435" />
      <trkpt lat="48.342063" lon="8.137571" />
      <trkpt lat="48.342103" lon="8.137665" />
      <trkpt lat="48.342266" lon="8.137711" />
      <trkpt lat="48.342607" lon="8.137945" />
      <trkpt lat="48.342737" lon="8.138135" />
      <trkpt lat="48.34284" lon="8.138395" />
      <trkpt lat="48.343214" lon="8.139794" />
      <trkpt lat="48.343274" lon="8.140196" />
      <trkpt lat="48.343277" lon="8.140362" />
      <trkpt lat="48.343255" lon="8.140506" />
      <trkpt lat="48.343131" lon="8.141018" />
      <trkpt lat="48.343116" lon="8.141271" />
      <trkpt lat="48.343132" lon="8.141378" />
      <trkpt lat="48.343223" lon="8.141552" />
      <trkpt lat="48.34359" lon="8.142011" />
      <trkpt lat="48.343725" lon="8.14225" />
      <trkpt lat="48.343934" lon="8.142388" />
      <trkpt lat="48.344099" lon="8.142424" />
      <trkpt lat="48.344602" lon="8.142424" />
      <trkpt lat="48.344816" lon="8.142456" />
      <trkpt lat="48.34525" lon="8.142673" />
      <trkpt lat="48.345429" lon="8.142866" />
      <trkpt lat="48.345586" lon="8.14316" />
      <trkpt lat="48.345618" lon="8.143369" />
      <trkpt lat="48.34561" lon="8.1435" />
      <trkpt lat="48.345675" lon="8.144055" />
      <trkpt lat="48.34574" lon="8.144287" />
      <trkpt lat="48.3458" lon="8.144795" />
      <trkpt lat="48.345192" lon="8.145492" />
      <trkpt lat="48.344929" lon="8.145913" />
      <trkpt lat="48.34485" lon="8.14665" />
      <trkpt lat="48.344674" lon="8.14697" />
      <trkpt lat="48.344449" lon="8.147125" />
      <trkpt lat="48.344103" lon="8.147091" />
      <trkpt lat="48.343794" lon="8.147121" />
      <trkpt lat="48.343033" lon="8.14721" />
      <trkpt lat="48.342844" lon="8.147333" />
      <trkpt lat="48.342662" lon="8.147524" />
      <trkpt lat="48.342346" lon="8.148064" />
      <trkpt lat="48.342261" lon="8.148475" />
      <trkpt lat="48.342289" lon="8.148865" />
      <trkpt lat="48.34241" lon="8.149678" />
      <trkpt lat="48.342494" lon="8.150029" />
      <trkpt lat="48.342624" lon="8.151146" />
      <trkpt lat="48.343105" lon="8.152568" />
      <trkpt lat="48.343174" lon="8.152886" />
      <trkpt lat="48.343264" lon="8.153123" />
      <trkpt lat="48.34385" lon="8.153941" />
      <trkpt lat="48.344225" lon="8.154311" />
      <trkpt lat="48.345865" lon="8.156232" />
      <trkpt lat="48.346545" lon="8.15749" />
      <trkpt lat="48.346807" lon="8.157817" />
      <trkpt lat="48.347645" lon="8.158608" />
      <trkpt lat="48.348507" lon="8.158812" />
      <trkpt lat="48.348583" lon="8.158948" />
      <trkpt lat="48.348635" lon="8.15911" />
      <trkpt lat="48.348662" lon="8.159531" />
      <trkpt lat="48.348847" lon="8.160075" />
      <trkpt lat="48.349056" lon="8.160519" />
      <trkpt lat="48.349158" lon="8.160727" />
      <trkpt lat="48.349209" lon="8.161177" />
      <trkpt lat="48.349205" lon="8.16122" />
      <trkpt lat="48.349197" lon="8.161366" />
      <trkpt lat="48.349169" lon="8.161524" />
      <trkpt lat="48.349045" lon="8.161712" />
      <trkpt lat="48.348856" lon="8.161864" />
      <trkpt lat="48.348262" lon="8.162159" />
      <trkpt lat="48.348065" lon="8.162357" />
      <trkpt lat="48.348015" lon="8.162445" />
      <trkpt lat="48.347813" lon="8.163161" />
      <trkpt lat="48.347738" lon="8.163798" />
      <trkpt lat="48.347775" lon="8.164122" />
      <trkpt lat="48.348323" lon="8.164909" />
      <trkpt lat="48.348523" lon="8.165317" />
      <trkpt lat="48.348678" lon="8.16581" />
      <trkpt lat="48.348819" lon="8.166156" />
      <trkpt lat="48.349" lon="8.166429" />
      <trkpt lat="48.349185" lon="8.166579" />
      <trkpt lat="48.349358" lon="8.166642" />
      <trkpt lat="48.351289" lon="8.166405" />
      <trkpt lat="48.352222" lon="8.166391" />
      <trkpt lat="48.352969" lon="8.166423" />
      <trkpt lat="48.353497" lon="8.166601" />
      <trkpt lat="48.353845" lon="8.166837" />
      <trkpt lat="48.354194" lon="8.167179" />
      <trkpt lat="48.35473" lon="8.167907" />
      <trkpt lat="48.354957" lon="8.168415" />
      <trkpt lat="48.355071" lon="8.168843" />
      <trkpt lat="48.355145" lon="8.16937" />
      <trkpt lat="48.355183" lon="8.169839" />
      <trkpt lat="48.355163" lon="8.170204" />
      <trkpt lat="48.355" lon="8.170928" />
      <trkpt lat="48.354981" lon="8.171309" />
      <trkpt lat="48.354939" lon="8.172027" />
      <trkpt lat="48.354956" lon="8.17238" />
      <trkpt lat="48.355047" lon="8.173065" />
      <trkpt lat="48.355927" lon="8.173414" />
      <trkpt lat="48.356302" lon="8.173513" />
      <trkpt lat="48.356633" lon="8.173558" />
      <trkpt lat="48.357062" lon="8.173564" />
      <trkpt lat="48.357307" lon="8.17355" />
      <trkpt lat="48.35757" lon="8.173544" />
      <trkpt lat="48.358346" lon="8.17421" />
      <trkpt lat="48.359533" lon="8.176203" />
      <trkpt lat="48.359863" lon="8.177421" />
      <trkpt lat="48.360154" lon="8.178219" />
      <trkpt lat="48.360211" lon="8.178562" />
      <trkpt lat="48.360199" lon="8.178991" />
      <trkpt lat="48.360169" lon="8.179237" />
      <trkpt lat="48.360012" lon="8.1802" />
      <trkpt lat="48.359879" lon="8.180694" />
      <trkpt lat="48.359659" lon="8.180995" />
      <trkpt lat="48.359494" lon="8.181055" />
      <trkpt lat="48.359096" lon="8.1809" />
      <trkpt lat="48.358728" lon="8.180659" />
      <trkpt lat="48.358528" lon="8.18052" />
      <trkpt lat="48.358256" lon="8.180206" />
      <trkpt lat="48.35811" lon="8.180127" />
      <trkpt lat="48.35794" lon="8.180172" />
      <trkpt lat="48.357807" lon="8.180328" />
      <trkpt lat="48.357693" lon="8.180583" />
      <trkpt lat="48.357299" lon="8.181731" />
      <trkpt lat="48.357227" lon="8.182088" />
      <trkpt lat="48.357135" lon="8.183846" />
      <trkpt lat="48.357169" lon="8.184131" />
      <trkpt lat="48.357234" lon="8.184275" />
      <trkpt lat="48.357375" lon="8.184323" />
      <trkpt lat="48.357821" lon="8.184107" />
      <trkpt lat="48.358209" lon="8.184121" />
      <trkpt lat="48.358377" lon="8.184042" />
      <trkpt lat="48.35853" lon="8.183833" />
      <trkpt lat="48.358727" lon="8.183847" />
      <trkpt lat="48.35912" lon="8.184049" />
      <trkpt lat="48.359547" lon="8.184375" />
      <trkpt lat="48.359762" lon="8.184374" />
      <trkpt lat="48.360045" lon="8.18423" />
      <trkpt lat="48.360242" lon="8.184316" />
      <trkpt lat="48.360476" lon="8.184468" />
      <trkpt lat="48.360572" lon="8.184713" />
      <trkpt lat="48.360247" lon="8.185662" />
      <trkpt lat="48.360208" lon="8.185903" />
      <trkpt lat="48.360001" lon="8.186167" />
      <trkpt lat="48.359871" lon="8.186544" />
      <trkpt lat="48.359809" lon="8.186944" />
      <trkpt lat="48.359802" lon="8.1872" />
      <trkpt lat="48.359694" lon="8.187793" />
      <trkpt lat="48.359657" lon="8.188283" />
      <trkpt lat="48.359666" lon="8.188854" />
      <trkpt lat="48.359743" lon="8.18951" />
      <trkpt lat="48.359573" lon="8.190785" />
      <trkpt lat="48.359513" lon="8.191487" />
      <trkpt lat="48.35959" lon="8.19179" />
      <trkpt lat="48.359743" lon="8.192042" />
      <trkpt lat="48.359839" lon="8.19249" />
      <trkpt lat="48.359811" lon="8.192773" />
      <trkpt lat="48.359685" lon="8.192915" />
      <trkpt lat="48.359544" lon="8.192861" />
      <trkpt lat="48.359402" lon="8.192663" />
      <trkpt lat="48.35917" lon="8.192275" />
      <trkpt lat="48.358849" lon="8.191538" />
      <trkpt lat="48.358753" lon="8.191243" />
      <trkpt lat="48.358683" lon="8.190919" />
      <trkpt lat="48.358661" lon="8.190563" />
      <trkpt lat="48.358547" lon="8.189611" />
      <trkpt lat="48.358477" lon="8.189493" />
      <trkpt lat="48.358413" lon="8.189438" />
      <trkpt lat="48.358303" lon="8.189446" />
      <trkpt lat="48.358215" lon="8.189546" />
      <trkpt lat="48.358168" lon="8.189697" />
      <trkpt lat="48.358199" lon="8.189945" />
      <trkpt lat="48.358098" lon="8.190776" />
      <trkpt lat="48.358164" lon="8.19156" />
      <trkpt lat="48.358156" lon="8.192123" />
      <trkpt lat="48.358287" lon="8.192527" />
      <trkpt lat="48.358592" lon="8.193704" />
      <trkpt lat="48.358576" lon="8.194776" />
      <trkpt lat="48.358603" lon="8.195211" />
      <trkpt lat="48.358728" lon="8.196353" />
      <trkpt lat="48.358725" lon="8.196517" />
      <trkpt lat="48.358687" lon="8.196679" />
      <trkpt lat="48.358381" lon="8.197258" />
      <trkpt lat="48.358159" lon="8.198091" />
      <trkpt lat="48.357887" lon="8.198821" />
      <trkpt lat="48.357855" lon="8.199224" />
      <trkpt lat="48.357797" lon="8.20005" />
      <trkpt lat="48.357812" lon="8.20032" />
      <trkpt lat="48.357779" lon="8.200596" />
      <trkpt lat="48.357572" lon="8.201218" />
      <trkpt lat="48.357162" lon="8.201939" />
      <trkpt lat="48.357087" lon="8.202023" />
      <trkpt lat="48.356745" lon="8.202584" />
      <trkpt lat="48.356321" lon="8.203296" />
      <trkpt lat="48.356067" lon="8.203783" />
      <trkpt lat="48.355894" lon="8.204421" />
      <trkpt lat="48.355734" lon="8.205627" />
      <trkpt lat="48.355428" lon="8.206271" />
      <trkpt lat="48.355166" lon="8.206697" />
      <trkpt lat="48.354994" lon="8.206925" />
      <trkpt lat="48.354606" lon="8.207334" />
      <trkpt lat="48.354435" lon="8.208072" />
      <trkpt lat="48.35418" lon="8.209143" />
      <trkpt lat="48.353894" lon="8.210112" />
      <trkpt lat="48.353682" lon="8.211866" />
      <trkpt lat="48.353573" lon="8.212185" />
      <trkpt lat="48.353201" lon="8.212625" />
      <trkpt lat="48.353048" lon="8.212916" />
      <trkpt lat="48.35299" lon="8.213022" />
      <trkpt lat="48.352807" lon="8.213387" />
      <trkpt lat="48.351977" lon="8.215243" />
      <trkpt lat="48.351494" lon="8.21676" />
      <trkpt lat="48.351475" lon="8.216899" />
      <trkpt lat="48.351555" lon="8.217348" />
      <trkpt lat="48.351559" lon="8.217525" />
      <trkpt lat="48.35153" lon="8.218593" />
      <trkpt lat="48.351338" lon="8.219269" />
      <trkpt lat="48.351354" lon="8.219363" />
      <trkpt lat="48.351388" lon="8.219474" />
      <trkpt lat="48.351386" lon="8.219535" />
      <trkpt lat="48.35137" lon="8.219606" />
      <trkpt lat="48.35101" lon="8.220079" />
      <trkpt lat="48.350834" lon="8.22019" />
      <trkpt lat="48.350637" lon="8.220206" />
      <trkpt lat="48.350458" lon="8.220285" />
      <trkpt lat="48.3503" lon="8.220433" />
      <trkpt lat="48.349927" lon="8.220904" />
      <trkpt lat="48.34907" lon="8.22171" />
      <trkpt lat="48.348934" lon="8.221839" />
      <trkpt lat="48.348687" lon="8.221963" />
      <trkpt lat="48.348445" lon="8.221952" />
      <trkpt lat="48.348044" lon="8.221824" />
      <trkpt lat="48.347888" lon="8.221906" />
      <trkpt lat="48.347624" lon="8.222114" />
      <trkpt lat="48.347529" lon="8.222228" />
      <trkpt lat="48.34728" lon="8.222525" />
      <trkpt lat="48.347106" lon="8.222792" />
      <trkpt lat="48.346867" lon="8.223307" />
      <trkpt lat="48.346737" lon="8.223453" />
      <trkpt lat="48.346601" lon="8.223555" />
      <trkpt lat="48.346215" lon="8.223622" />
      <trkpt lat="48.345997" lon="8.223704" />
      <trkpt lat="48.345784" lon="8.223864" />
      <trkpt lat="48.345261" lon="8.22439" />
      <trkpt lat="48.345113" lon="8.224567" />
      <trkpt lat="48.344701" lon="8.22518" />
      <trkpt lat="48.344639" lon="8.225273" />
      <trkpt lat="48.344487" lon="8.225399" />
      <trkpt lat="48.344344" lon="8.225444" />
      <trkpt lat="48.344364" lon="8.225731" />
      <trkpt lat="48.344245" lon="8.226399" />
      <trkpt lat="48.34413" lon="8.226972" />
      <trkpt lat="48.344101" lon="8.227616" />
      <trkpt lat="48.344118" lon="8.227952" />
      <trkpt lat="48.344167" lon="8.228274" />
      <trkpt lat="48.344235" lon="8.228624" />
      <trkpt lat="48.344334" lon="8.228943" />
      <trkpt lat="48.344568" lon="8.2294" />
      <trkpt lat="48.344706" lon="8.229584" />
      <trkpt lat="48.345053" lon="8.229892" />
      <trkpt lat="48.345244" lon="8.230059" />
      <trkpt lat="48.346064" lon="8.230804" />
      <trkpt lat="48.346132" lon="8.230968" />
      <trkpt lat="48.346176" lon="8.231786" />
      <trkpt lat="48.346237" lon="8.232017" />
      <trkpt lat="48.346332" lon="8.232226" />
      <trkpt lat="48.346587" lon="8.23264" />
      <trkpt lat="48.34717" lon="8.233237" />
      <trkpt lat="48.347849" lon="8.234212" />
      <trkpt lat="48.348327" lon="8.23481" />
      <trkpt lat="48.34852" lon="8.235121" />
      <trkpt lat="48.348714" lon="8.235694" />
      <trkpt lat="48.348813" lon="8.236368" />
      <trkpt lat="48.348883" lon="8.236635" />
      <trkpt lat="48.34902" lon="8.236975" />
      <trkpt lat="48.349505" lon="8.237675" />
      <trkpt lat="48.349964" lon="8.238523" />
      <trkpt lat="48.350195" lon="8.238859" />
      <trkpt lat="48.350574" lon="8.239124" />
      <trkpt lat="48.350838" lon="8.239285" />
      <trkpt lat="48.351133" lon="8.239527" />
      <trkpt lat="48.352404" lon="8.241228" />
      <trkpt lat="48.352553" lon="8.241426" />
      <trkpt lat="48.35279" lon="8.24169" />
      <trkpt lat="48.352928" lon="8.241826" />
      <trkpt lat="48.35316" lon="8.24213" />
      <trkpt lat="48.353262" lon="8.242365" />
      <trkpt lat="48.35337" lon="8.242857" />
      <trkpt lat="48.353424" lon="8.243453" />
      <trkpt lat="48.353506" lon="8.243963" />
      <trkpt lat="48.35364" lon="8.244384" />
      <trkpt lat="48.354005" lon="8.245165" />
      <trkpt lat="48.354071" lon="8.245403" />
      <trkpt lat="48.354105" lon="8.245641" />
      <trkpt lat="48.354122" lon="8.246162" />
      <trkpt lat="48.35409" lon="8.246514" />
      <trkpt lat="48.353908" lon="8.247635" />
      <trkpt lat="48.353853" lon="8.247929" />
      <trkpt lat="48.353825" lon="8.248088" />
      <trkpt lat="48.353709" lon="8.24875" />
      <trkpt lat="48.353548" lon="8.249761" />
      <trkpt lat="48.35353" lon="8.250058" />
      <trkpt lat="48.353548" lon="8.2505" />
      <trkpt lat="48.353597" lon="8.250902" />
      <trkpt lat="48.353941" lon="8.252961" />
      <trkpt lat="48.354002" lon="8.253279" />
      <trkpt lat="48.354151" lon="8.253782" />
      <trkpt lat="48.354604" lon="8.254605" />
      <trkpt lat="48.355421" lon="8.255911" />
      <trkpt lat="48.355771" lon="8.256529" />
      <trkpt lat="48.355973" lon="8.257062" />
      <trkpt lat="48.356308" lon="8.258168" />
      <trkpt lat="48.356503" lon="8.258755" />
      <trkpt lat="48.356572" lon="8.258938" />
      <trkpt lat="48.356716" lon="8.259167" />
      <trkpt lat="48.357384" lon="8.25997" />
      <trkpt lat="48.357556" lon="8.260293" />
      <trkpt lat="48.35769" lon="8.260652" />
      <trkpt lat="48.357779" lon="8.261017" />
      <trkpt lat="48.357842" lon="8.261557" />
      <trkpt lat="48.357853" lon="8.262432" />
      <trkpt lat="48.357836" lon="8.26274" />
      <trkpt lat="48.357746" lon="8.263976" />
      <trkpt lat="48.357788" lon="8.26455" />
      <trkpt lat="48.357883" lon="8.264935" />
      <trkpt lat="48.358055" lon="8.265293" />
      <trkpt lat="48.358176" lon="8.265451" />
      <trkpt lat="48.358807" lon="8.266012" />
      <trkpt lat="48.359046" lon="8.266348" />
      <trkpt lat="48.35911" lon="8.266475" />
      <trkpt lat="48.359129" lon="8.266521" />
      <trkpt lat="48.359329" lon="8.266973" />
      <trkpt lat="48.359991" lon="8.268629" />
      <trkpt lat="48.360007" lon="8.268666" />
      <trkpt lat="48.360104" lon="8.268884" />
      <trkpt lat="48.36015" lon="8.26899" />
      <trkpt lat="48.360674" lon="8.270288" />
      <trkpt lat="48.360807" lon="8.270585" />
      <trkpt lat="48.361013" lon="8.270946" />
      <trkpt lat="48.362389" lon="8.272697" />
      <trkpt lat="48.362478" lon="8.272814" />
      <trkpt lat="48.362694" lon="8.273102" />
      <trkpt lat="48.363167" lon="8.273867" />
      <trkpt lat="48.363274" lon="8.273985" />
      <trkpt lat="48.363542" lon="8.274147" />
      <trkpt lat="48.363652" lon="8.274253" />
      <trkpt lat="48.363833" lon="8.274506" />
      <trkpt lat="48.36398" lon="8.274771" />
      <trkpt lat="48.364419" lon="8.275657" />
      <trkpt lat="48.364762" lon="8.276092" />
      <trkpt lat="48.365088" lon="8.276425" />
      <trkpt lat="48.365586" lon="8.276927" />
      <trkpt lat="48.366563" lon="8.277901" />
      <trkpt lat="48.366895" lon="8.278336" />
      <trkpt lat="48.367185" lon="8.278978" />
      <trkpt lat="48.367332" lon="8.27943" />
      <trkpt lat="48.36749" lon="8.279821" />
      <trkpt lat="48.367656" lon="8.280163" />
      <trkpt lat="48.367876" lon="8.280449" />
      <trkpt lat="48.368052" lon="8.280622" />
      <trkpt lat="48.368438" lon="8.280867" />
      <trkpt lat="48.368708" lon="8.280931" />
      <trkpt lat="48.368872" lon="8.280924" />
      <trkpt lat="48.36913" lon="8.280781" />
      <trkpt lat="48.369498" lon="8.280398" />
      <trkpt lat="48.369635" lon="8.280312" />
      <trkpt lat="48.369886" lon="8.280237" />
      <trkpt lat="48.370133" lon="8.280241" />
      <trkpt lat="48.370394" lon="8.280317" />
      <trkpt lat="48.370738" lon="8.280588" />
      <trkpt lat="48.370992" lon="8.280949" />
      <trkpt lat="48.371161" lon="8.281391" />
      <trkpt lat="48.371342" lon="8.281923" />
      <trkpt lat="48.371585" lon="8.282536" />
      <trkpt lat="48.371807" lon="8.28287" />
      <trkpt lat="48.371948" lon="8.283006" />
      <trkpt lat="48.372001" lon="8.283044" />
      <trkpt lat="48.37217" lon="8.283124" />
      <trkpt lat="48.37232" lon="8.283182" />
      <trkpt lat="48.372633" lon="8.283205" />
      <trkpt lat="48.372776" lon="8.283187" />
      <trkpt lat="48.373058" lon="8.283087" />
      <trkpt lat="48.372888" lon="8.281983" />
      <trkpt lat="48.372888" lon="8.281693" />
      <trkpt lat="48.372927" lon="8.281188" />
      <trkpt lat="48.373077" lon="8.279814" />
      <trkpt lat="48.373142" lon="8.279286" />
      <trkpt lat="48.373181" lon="8.279177" />
      <trkpt lat="48.373234" lon="8.279073" />
      <trkpt lat="48.373596" lon="8.278622" />
      <trkpt lat="48.374102" lon="8.277414" />
      <trkpt lat="48.374273" lon="8.277115" />
      <trkpt lat="48.374953" lon="8.276642" />
      <trkpt lat="48.375205" lon="8.276377" />
      <trkpt lat="48.376371" lon="8.27413" />
      <trkpt lat="48.376636" lon="8.273517" />
      <trkpt lat="48.376816" lon="8.273262" />
      <trkpt lat="48.377018" lon="8.273104" />
      <trkpt lat="48.377191" lon="8.273101" />
      <trkpt lat="48.377544" lon="8.273275" />
      <trkpt lat="48.377723" lon="8.273427" />
      <trkpt lat="48.378101" lon="8.274231" />
      <trkpt lat="48.37818" lon="8.274323" />
      <trkpt lat="48.378265" lon="8.274368" />
      <trkpt lat="48.378344" lon="8.274365" />
      <trkpt lat="48.37843" lon="8.274312" />
      <trkpt lat="48.378607" lon="8.274101" />
      <trkpt lat="48.378862" lon="8.273705" />
      <trkpt lat="48.379474" lon="8.272864" />
      <trkpt lat="48.379862" lon="8.272223" />
      <trkpt lat="48.380132" lon="8.271857" />
      <trkpt lat="48.380301" lon="8.271721" />
      <trkpt lat="48.380529" lon="8.271702" />
      <trkpt lat="48.380811" lon="8.271797" />
      <trkpt lat="48.380997" lon="8.27179" />
      <trkpt lat="48.38113" lon="8.271659" />
      <trkpt lat="48.381314" lon="8.27129" />
      <trkpt lat="48.381548" lon="8.271061" />
      <trkpt lat="48.381631" lon="8.271012" />
      <trkpt lat="48.381882" lon="8.271008" />
      <trkpt lat="48.382134" lon="8.271107" />
      <trkpt lat="48.382731" lon="8.27163" />
      <trkpt lat="48.382869" lon="8.271685" />
      <trkpt lat="48.38303" lon="8.271682" />
      <trkpt lat="48.383456" lon="8.271522" />
      <trkpt lat="48.383519" lon="8.271499" />
      <trkpt lat="48.383646" lon="8.27142" />
      <trkpt lat="48.383702" lon="8.271368" />
      <trkpt lat="48.383921" lon="8.271142" />
      <trkpt lat="48.384017" lon="8.27108" />
      <trkpt lat="48.384183" lon="8.271077" />
      <trkpt lat="48.384615" lon="8.271475" />
      <trkpt lat="48.384781" lon="8.271504" />
      <trkpt lat="48.385095" lon="8.27142" />
      <trkpt lat="48.385208" lon="8.271385" />
      <trkpt lat="48.385363" lon="8.271278" />
      <trkpt lat="48.385424" lon="8.271182" />
      <trkpt lat="48.385541" lon="8.270873" />
      <trkpt lat="48.385572" lon="8.270768" />
      <trkpt lat="48.385738" lon="8.270306" />
      <trkpt lat="48.385864" lon="8.270103" />
      <trkpt lat="48.385966" lon="8.270011" />
      <trkpt lat="48.387056" lon="8.269342" />
      <trkpt lat="48.3872" lon="8.269297" />
      <trkpt lat="48.387278" lon="8.269306" />
      <trkpt lat="48.387645" lon="8.269481" />
      <trkpt lat="48.387969" lon="8.269594" />
      <trkpt lat="48.388119" lon="8.269745" />
      <trkpt lat="48.388331" lon="8.27011" />
      <trkpt lat="48.388472" lon="8.27027" />
      <trkpt lat="48.388947" lon="8.270445" />
      <trkpt lat="48.38939" lon="8.27076" />
      <trkpt lat="48.389677" lon="8.270798" />
      <trkpt lat="48.389924" lon="8.27083" />
      <trkpt lat="48.390307" lon="8.270947" />
      <trkpt lat="48.390812" lon="8.270964" />
      <trkpt lat="48.391211" lon="8.271038" />
      <trkpt lat="48.391599" lon="8.271195" />
      <trkpt lat="48.392566" lon="8.27146" />
      <trkpt lat="48.392737" lon="8.271466" />
      <trkpt lat="48.392868" lon="8.271432" />
      <trkpt lat="48.393072" lon="8.271275" />
      <trkpt lat="48.393128" lon="8.271157" />
      <trkpt lat="48.393205" lon="8.2706" />
      <trkpt lat="48.393306" lon="8.270392" />
      <trkpt lat="48.393481" lon="8.270256" />
      <trkpt lat="48.394114" lon="8.270096" />
      <trkpt lat="48.394215" lon="8.270028" />
      <trkpt lat="48.394332" lon="8.26989" />
      <trkpt lat="48.394371" lon="8.269718" />
      <trkpt lat="48.394376" lon="8.269468" />
      <trkpt lat="48.394346" lon="8.268917" />
      <trkpt lat="48.39436" lon="8.268722" />
      <trkpt lat="48.394481" lon="8.268237" />
      <trkpt lat="48.394662" lon="8.267912" />
      <trkpt lat="48.394867" lon="8.267743" />
      <trkpt lat="48.39522" lon="8.267534" />
      <trkpt lat="48.395344" lon="8.267393" />
      <trkpt lat="48.395445" lon="8.267204" />
      <trkpt lat="48.395518" lon="8.266932" />
      <trkpt lat="48.395546" lon="8.266651" />
      <trkpt lat="48.39558" lon="8.265707" />
      <trkpt lat="48.395615" lon="8.265312" />
      <trkpt lat="48.395662" lon="8.26503" />
      <trkpt lat="48.395821" lon="8.264389" />
      <trkpt lat="48.395865" lon="8.26418" />
      <trkpt lat="48.395895" lon="8.264074" />
      <trkpt lat="48.395926" lon="8.263991" />
      <trkpt lat="48.396004" lon="8.263902" />
      <trkpt lat="48.396184" lon="8.263757" />
      <trkpt lat="48.396622" lon="8.263482" />
      <trkpt lat="48.397173" lon="8.263281" />
      <trkpt lat="48.397374" lon="8.263038" />
      <trkpt lat="48.397656" lon="8.262373" />
      <trkpt lat="48.398248" lon="8.261449" />
      <trkpt lat="48.398658" lon="8.261115" />
      <trkpt lat="48.398989" lon="8.260769" />
      <trkpt lat="48.39965" lon="8.259992" />
      <trkpt lat="48.399959" lon="8.259681" />
      <trkpt lat="48.400184" lon="8.259597" />
      <trkpt lat="48.400892" lon="8.259628" />
      <trkpt lat="48.401073" lon="8.259609" />
      <trkpt lat="48.401835" lon="8.259227" />
      <trkpt lat="48.402902" lon="8.259006" />
      <trkpt lat="48.403591" lon="8.258689" />
      <trkpt lat="48.404011" lon="8.258648" />
      <trkpt lat="48.404288" lon="8.258563" />
      <trkpt lat="48.404411" lon="8.258531" />
      <trkpt lat="48.404438" lon="8.258523" />
      <trkpt lat="48.404645" lon="8.258532" />
      <trkpt lat="48.405396" lon="8.259096" />
      <trkpt lat="48.405705" lon="8.259227" />
      <trkpt lat="48.406334" lon="8.259344" />
      <trkpt lat="48.407233" lon="8.259645" />
      <trkpt lat="48.407377" lon="8.259615" />
      <trkpt lat="48.40745" lon="8.259448" />
      <trkpt lat="48.407443" lon="8.259366" />
      <trkpt lat="48.407408" lon="8.259299" />
      <trkpt lat="48.407346" lon="8.259253" />
      <trkpt lat="48.406909" lon="8.25922" />
      <trkpt lat="48.406466" lon="8.258859" />
      <trkpt lat="48.406124" lon="8.25884" />
      <trkpt lat="48.40603" lon="8.258799" />
      <trkpt lat="48.405607" lon="8.258319" />
      <trkpt lat="48.405235" lon="8.257972" />
      <trkpt lat="48.405174" lon="8.257879" />
      <trkpt lat="48.405152" lon="8.257765" />
      <trkpt lat="48.405185" lon="8.257537" />
      <trkpt lat="48.405352" lon="8.257164" />
      <trkpt lat="48.40552" lon="8.256571" />
      <trkpt lat="48.405619" lon="8.256006" />
      <trkpt lat="48.405732" lon="8.254555" />
      <trkpt lat="48.405789" lon="8.254431" />
      <trkpt lat="48.405842" lon="8.254368" />
      <trkpt lat="48.405997" lon="8.254319" />
      <trkpt lat="48.406139" lon="8.254352" />
      <trkpt lat="48.406526" lon="8.254557" />
      <trkpt lat="48.406688" lon="8.254578" />
      <trkpt lat="48.406808" lon="8.254453" />
      <trkpt lat="48.406892" lon="8.254185" />
      <trkpt lat="48.407269" lon="8.252692" />
      <trkpt lat="48.407355" lon="8.252493" />
      <trkpt lat="48.407554" lon="8.252163" />
      <trkpt lat="48.407793" lon="8.251931" />
      <trkpt lat="48.40787" lon="8.251821" />
      <trkpt lat="48.408161" lon="8.251086" />
      <trkpt lat="48.40839" lon="8.250865" />
      <trkpt lat="48.408583" lon="8.250782" />
      <trkpt lat="48.408783" lon="8.250648" />
      <trkpt lat="48.408881" lon="8.250513" />
      <trkpt lat="48.408913" lon="8.250255" />
      <trkpt lat="48.408815" lon="8.249665" />
      <trkpt lat="48.408833" lon="8.249456" />
      <trkpt lat="48.410139" lon="8.246839" />
      <trkpt lat="48.410399" lon="8.246426" />
      <trkpt lat="48.410694" lon="8.246068" />
      <trkpt lat="48.410994" lon="8.245812" />
      <trkpt lat="48.411179" lon="8.245714" />
      <trkpt lat="48.411372" lon="8.245658" />
      <trkpt lat="48.411564" lon="8.245647" />
      <trkpt lat="48.412493" lon="8.245727" />
      <trkpt lat="48.412822" lon="8.245635" />
      <trkpt lat="48.413001" lon="8.245543" />
      <trkpt lat="48.413118" lon="8.245403" />
      <trkpt lat="48.413215" lon="8.245251" />
      <trkpt lat="48.413297" lon="8.245001" />
      <trkpt lat="48.413516" lon="8.244817" />
      <trkpt lat="48.413638" lon="8.244746" />
      <trkpt lat="48.41378" lon="8.244716" />
      <trkpt lat="48.41401" lon="8.244743" />
      <trkpt lat="48.41458" lon="8.244974" />
      <trkpt lat="48.414758" lon="8.245109" />
      <trkpt lat="48.414859" lon="8.245255" />
      <trkpt lat="48.415001" lon="8.245894" />
      <trkpt lat="48.415062" lon="8.245985" />
      <trkpt lat="48.415175" lon="8.246012" />
      <trkpt lat="48.415282" lon="8.245944" />
      <trkpt lat="48.415328" lon="8.245762" />
      <trkpt lat="48.415284" lon="8.245595" />
      <trkpt lat="48.415053" lon="8.245242" />
      <trkpt lat="48.414752" lon="8.244622" />
      <trkpt lat="48.414469" lon="8.244155" />
      <trkpt lat="48.413556" lon="8.242755" />
      <trkpt lat="48.413287" lon="8.242041" />
      <trkpt lat="48.413262" lon="8.241601" />
      <trkpt lat="48.413342" lon="8.241171" />
      <trkpt lat="48.413472" lon="8.240896" />
      <trkpt lat="48.413613" lon="8.240736" />
      <trkpt lat="48.414148" lon="8.240364" />
      <trkpt lat="48.41425" lon="8.240151" />
      <trkpt lat="48.414275" lon="8.239911" />
      <trkpt lat="48.414193" lon="8.239511" />
      <trkpt lat="48.414051" lon="8.239294" />
      <trkpt lat="48.413732" lon="8.238976" />
      <trkpt lat="48.413669" lon="8.238809" />
      <trkpt lat="48.413666" lon="8.23854" />
      <trkpt lat="48.413702" lon="8.238402" />
      <trkpt lat="48.414056" lon="8.23781" />
      <trkpt lat="48.414158" lon="8.236908" />
      <trkpt lat="48.414302" lon="8.236415" />
      <trkpt lat="48.414579" lon="8.236129" />
      <trkpt lat="48.415238" lon="8.235818" />
      <trkpt lat="48.415338" lon="8.235729" />
      <trkpt lat="48.415473" lon="8.235455" />
      <trkpt lat="48.415497" lon="8.235074" />
      <trkpt lat="48.41527" lon="8.234336" />
      <trkpt lat="48.415254" lon="8.234109" />
      <trkpt lat="48.415292" lon="8.234025" />
      <trkpt lat="48.415431" lon="8.233982" />
      <trkpt lat="48.415541" lon="8.234108" />
      <trkpt lat="48.415735" lon="8.235276" />
      <trkpt lat="48.415748" lon="8.235673" />
      <trkpt lat="48.415555" lon="8.236181" />
      <trkpt lat="48.414982" lon="8.23675" />
      <trkpt lat="48.414943" lon="8.237128" />
      <trkpt lat="48.415157" lon="8.237709" />
      <trkpt lat="48.415736" lon="8.238218" />
      <trkpt lat="48.415868" lon="8.238781" />
      <trkpt lat="48.415931" lon="8.239417" />
      <trkpt lat="48.415804" lon="8.240286" />
      <trkpt lat="48.415844" lon="8.240485" />
      <trkpt lat="48.415994" lon="8.240564" />
      <trkpt lat="48.416322" lon="8.2405" />
      <trkpt lat="48.416535" lon="8.240596" />
      <trkpt lat="48.417163" lon="8.241103" />
      <trkpt lat="48.417378" lon="8.241376" />
      <trkpt lat="48.417559" lon="8.241761" />
      <trkpt lat="48.417708" lon="8.241809" />
      <trkpt lat="48.417767" lon="8.241787" />
      <trkpt lat="48.417813" lon="8.241727" />
      <trkpt lat="48.417826" lon="8.241612" />
      <trkpt lat="48.417808" lon="8.241497" />
      <trkpt lat="48.41701" lon="8.240315" />
      <trkpt lat="48.41684" lon="8.239878" />
      <trkpt lat="48.416777" lon="8.2394" />
      <trkpt lat="48.416755" lon="8.238814" />
      <trkpt lat="48.416775" lon="8.238577" />
      <trkpt lat="48.416801" lon="8.238415" />
      <trkpt lat="48.417066" lon="8.237652" />
      <trkpt lat="48.417341" lon="8.236904" />
      <trkpt lat="48.417436" lon="8.236562" />
      <trkpt lat="48.417547" lon="8.235756" />
      <trkpt lat="48.417589" lon="8.235604" />
      <trkpt lat="48.417724" lon="8.235424" />
      <trkpt lat="48.417935" lon="8.235309" />
      <trkpt lat="48.418056" lon="8.235177" />
      <trkpt lat="48.418134" lon="8.234979" />
      <trkpt lat="48.418287" lon="8.233787" />
      <trkpt lat="48.41827" lon="8.232751" />
      <trkpt lat="48.418292" lon="8.23255" />
      <trkpt lat="48.418426" lon="8.231975" />
      <trkpt lat="48.418557" lon="8.23165" />
      <trkpt lat="48.418819" lon="8.231229" />
      <trkpt lat="48.419493" lon="8.230278" />
      <trkpt lat="48.420308" lon="8.229327" />
      <trkpt lat="48.420728" lon="8.228613" />
      <trkpt lat="48.42084" lon="8.228238" />
      <trkpt lat="48.42086" lon="8.228075" />
      <trkpt lat="48.420847" lon="8.227895" />
      <trkpt lat="48.42076" lon="8.227566" />
      <trkpt lat="48.420469" lon="8.227056" />
      <trkpt lat="48.420224" lon="8.226584" />
      <trkpt lat="48.420141" lon="8.22628" />
      <trkpt lat="48.420092" lon="8.225937" />
      <trkpt lat="48.420064" lon="8.225445" />
      <trkpt lat="48.420076" lon="8.225112" />
      <trkpt lat="48.420108" lon="8.224923" />
      <trkpt lat="48.42017" lon="8.224759" />
      <trkpt lat="48.420503" lon="8.224199" />
      <trkpt lat="48.421025" lon="8.223422" />
      <trkpt lat="48.421111" lon="8.223267" />
      <trkpt lat="48.421155" lon="8.223118" />
      <trkpt lat="48.421218" lon="8.222659" />
      <trkpt lat="48.421219" lon="8.222188" />
      <trkpt lat="48.421193" lon="8.221113" />
      <trkpt lat="48.421205" lon="8.220902" />
      <trkpt lat="48.421313" lon="8.220277" />
      <trkpt lat="48.421327" lon="8.220211" />
      <trkpt lat="48.421444" lon="8.219844" />
      <trkpt lat="48.421477" lon="8.219777" />
      <trkpt lat="48.421529" lon="8.219682" />
      <trkpt lat="48.421959" lon="8.218868" />
      <trkpt lat="48.422026" lon="8.21869" />
      <trkpt lat="48.422069" lon="8.218528" />
      <trkpt lat="48.422132" lon="8.218" />
      <trkpt lat="48.422187" lon="8.217445" />
      <trkpt lat="48.42228" lon="8.217038" />
      <trkpt lat="48.422603" lon="8.21609" />
      <trkpt lat="48.422809" lon="8.2155" />
      <trkpt lat="48.423169" lon="8.214838" />
      <trkpt lat="48.423303" lon="8.214445" />
      <trkpt lat="48.423859" lon="8.213453" />
      <trkpt lat="48.423925" lon="8.213337" />
      <trkpt lat="48.424025" lon="8.213158" />
      <trkpt lat="48.424535" lon="8.212259" />
      <trkpt lat="48.424785" lon="8.211873" />
      <trkpt lat="48.425241" lon="8.21139" />
      <trkpt lat="48.425495" lon="8.211128" />
      <trkpt lat="48.425609" lon="8.211009" />
      <trkpt lat="48.42575" lon="8.210741" />
      <trkpt lat="48.425817" lon="8.21052" />
      <trkpt lat="48.42584" lon="8.210207" />
      <trkpt lat="48.42583" lon="8.209617" />
      <trkpt lat="48.425857" lon="8.209387" />
      <trkpt lat="48.425972" lon="8.208951" />
      <trkpt lat="48.426084" lon="8.208739" />
      <trkpt lat="48.42634" lon="8.208409" />
      <trkpt lat="48.42645" lon="8.208342" />
      <trkpt lat="48.426729" lon="8.208235" />
      <trkpt lat="48.427258" lon="8.207969" />
      <trkpt lat="48.427615" lon="8.207679" />
      <trkpt lat="48.427754" lon="8.207517" />
      <trkpt lat="48.427839" lon="8.207365" />
      <trkpt lat="48.428026" lon="8.206925" />
      <trkpt lat="48.428109" lon="8.206759" />
      <trkpt lat="48.428276" lon="8.206733" />
      <trkpt lat="48.428624" lon="8.206756" />
      <trkpt lat="48.428764" lon="8.206688" />
      <trkpt lat="48.429005" lon="8.206488" />
      <trkpt lat="48.429079" lon="8.206433" />
      <trkpt lat="48.429399" lon="8.206169" />
      <trkpt lat="48.429546" lon="8.206684" />
      <trkpt lat="48.429641" lon="8.207058" />
      <trkpt lat="48.429645" lon="8.20708" />
      <trkpt lat="48.429676" lon="8.207212" />
      <trkpt lat="48.429682" lon="8.207241" />
      <trkpt lat="48.429749" lon="8.207562" />
      <trkpt lat="48.429763" lon="8.207624" />
      <trkpt lat="48.429793" lon="8.207755" />
      <trkpt lat="48.429828" lon="8.207892" />
      <trkpt lat="48.429901" lon="8.208159" />
      <trkpt lat="48.429962" lon="8.208324" />
      <trkpt lat="48.430253" lon="8.20899" />
      <trkpt lat="48.43075" lon="8.210144" />
      <trkpt lat="48.431095" lon="8.210983" />
      <trkpt lat="48.431455" lon="8.211692" />
      <trkpt lat="48.431573" lon="8.211827" />
      <trkpt lat="48.431708" lon="8.211938" />
      <trkpt lat="48.431916" lon="8.212059" />
      <trkpt lat="48.432244" lon="8.212156" />
      <trkpt lat="48.432557" lon="8.212149" />
      <trkpt lat="48.4327" lon="8.212158" />
      <trkpt lat="48.432908" lon="8.212227" />
      <trkpt lat="48.433567" lon="8.212848" />
      <trkpt lat="48.433842" lon="8.213229" />
      <trkpt lat="48.433878" lon="8.213289" />
      <trkpt lat="48.434131" lon="8.213755" />
      <trkpt lat="48.434577" lon="8.215243" />
      <trkpt lat="48.434684" lon="8.215446" />
      <trkpt lat="48.434885" lon="8.215657" />
      <trkpt lat="48.435297" lon="8.216129" />
      <trkpt lat="48.435473" lon="8.216268" />
      <trkpt lat="48.435711" lon="8.216422" />
      <trkpt lat="48.435858" lon="8.216566" />
      <trkpt lat="48.435922" lon="8.216668" />
      <trkpt lat="48.436227" lon="8.217372" />
      <trkpt lat="48.436516" lon="8.217818" />
      <trkpt lat="48.437017" lon="8.218376" />
      <trkpt lat="48.437078" lon="8.218444" />
      <trkpt lat="48.438373" lon="8.219788" />
      <trkpt lat="48.439303" lon="8.221287" />
      <trkpt lat="48.439391" lon="8.221387" />
      <trkpt lat="48.439643" lon="8.221638" />
      <trkpt lat="48.439896" lon="8.221948" />
      <trkpt lat="48.44025" lon="8.222449" />
      <trkpt lat="48.440474" lon="8.222858" />
      <trkpt lat="48.440597" lon="8.223067" />
      <trkpt lat="48.440742" lon="8.223214" />
      <trkpt lat="48.440787" lon="8.22324" />
      <trkpt lat="48.44131" lon="8.22323" />
      <trkpt lat="48.441477" lon="8.223265" />
      <trkpt lat="48.441676" lon="8.223385" />
      <trkpt lat="48.441934" lon="8.223649" />
      <trkpt lat="48.442081" lon="8.223845" />
      <trkpt lat="48.442383" lon="8.224384" />
      <trkpt lat="48.442616" lon="8.225044" />
      <trkpt lat="48.442663" lon="8.22525" />
      <trkpt lat="48.44269" lon="8.225426" />
      <trkpt lat="48.442699" lon="8.225808" />
      <trkpt lat="48.442616" lon="8.22654" />
      <trkpt lat="48.442608" lon="8.226917" />
      <trkpt lat="48.442686" lon="8.22722" />
      <trkpt lat="48.442807" lon="8.227379" />
      <trkpt lat="48.44311" lon="8.227638" />
      <trkpt lat="48.443267" lon="8.227779" />
      <trkpt lat="48.443504" lon="8.228066" />
      <trkpt lat="48.443742" lon="8.228493" />
      <trkpt lat="48.444088" lon="8.229224" />
      <trkpt lat="48.444229" lon="8.229442" />
      <trkpt lat="48.444309" lon="8.229513" />
      <trkpt lat="48.444495" lon="8.22957" />
      <trkpt lat="48.444813" lon="8.229554" />
      <trkpt lat="48.445391" lon="8.229538" />
      <trkpt lat="48.445972" lon="8.22946" />
      <trkpt lat="48.446547" lon="8.229505" />
      <trkpt lat="48.446647" lon="8.229521" />
      <trkpt lat="48.447251" lon="8.229646" />
      <trkpt lat="48.447646" lon="8.229788" />
      <trkpt lat="48.448212" lon="8.230035" />
      <trkpt lat="48.448306" lon="8.23007" />
      <trkpt lat="48.448807" lon="8.230121" />
      <trkpt lat="48.449063" lon="8.230263" />
      <trkpt lat="48.449179" lon="8.230418" />
      <trkpt lat="48.449242" lon="8.230562" />
      <trkpt lat="48.449303" lon="8.230873" />
      <trkpt lat="48.449309" lon="8.231011" />
      <trkpt lat="48.449287" lon="8.231186" />
      <trkpt lat="48.449219" lon="8.231418" />
      <trkpt lat="48.449104" lon="8.231777" />
      <trkpt lat="48.449075" lon="8.231981" />
      <trkpt lat="48.449103" lon="8.232445" />
      <trkpt lat="48.449241" lon="8.23332" />
      <trkpt lat="48.449539" lon="8.234254" />
      <trkpt lat="48.449604" lon="8.234469" />
      <trkpt lat="48.449767" lon="8.235031" />
      <trkpt lat="48.449891" lon="8.235732" />
      <trkpt lat="48.449952" lon="8.236064" />
      <trkpt lat="48.450026" lon="8.236453" />
      <trkpt lat="48.450126" lon="8.236742" />
      <trkpt lat="48.450158" lon="8.236803" />
      <trkpt lat="48.450227" lon="8.236958" />
      <trkpt lat="48.450369" lon="8.237258" />
      <trkpt lat="48.450575" lon="8.237689" />
      <trkpt lat="48.450716" lon="8.237986" />
      <trkpt lat="48.450852" lon="8.238234" />
      <trkpt lat="48.450894" lon="8.238307" />
      <trkpt lat="48.450999" lon="8.238387" />
      <trkpt lat="48.451181" lon="8.238436" />
      <trkpt lat="48.451694" lon="8.238396" />
      <trkpt lat="48.451887" lon="8.238466" />
      <trkpt lat="48.452188" lon="8.238727" />
      <trkpt lat="48.45242" lon="8.23909" />
      <trkpt lat="48.452513" lon="8.239344" />
      <trkpt lat="48.452553" lon="8.239592" />
      <trkpt lat="48.45254" lon="8.239725" />
      <trkpt lat="48.452298" lon="8.240649" />
      <trkpt lat="48.452283" lon="8.240708" />
      <trkpt lat="48.452219" lon="8.240969" />
      <trkpt lat="48.452118" lon="8.241399" />
      <trkpt lat="48.452086" lon="8.242037" />
      <trkpt lat="48.452019" lon="8.242719" />
      <trkpt lat="48.451948" lon="8.243135" />
      <trkpt lat="48.451691" lon="8.244253" />
      <trkpt lat="48.451642" lon="8.244444" />
      <trkpt lat="48.451427" lon="8.245479" />
      <trkpt lat="48.451292" lon="8.246352" />
      <trkpt lat="48.451237" lon="8.246536" />
      <trkpt lat="48.450662" lon="8.247617" />
      <trkpt lat="48.450617" lon="8.247753" />
      <trkpt lat="48.450599" lon="8.247917" />
      <trkpt lat="48.450587" lon="8.248868" />
      <trkpt lat="48.450424" lon="8.249768" />
      <trkpt lat="48.450257" lon="8.251163" />
      <trkpt lat="48.450144" lon="8.25158" />
      <trkpt lat="48.449957" lon="8.251929" />
      <trkpt lat="48.449543" lon="8.252268" />
      <trkpt lat="48.449263" lon="8.252617" />
      <trkpt lat="48.448856" lon="8.253468" />
      <trkpt lat="48.448583" lon="8.25417" />
      <trkpt lat="48.44851" lon="8.254415" />
      <trkpt lat="48.448432" lon="8.254869" />
      <trkpt lat="48.4484" lon="8.255337" />
      <trkpt lat="48.44842" lon="8.256078" />
      <trkpt lat="48.448479" lon="8.256302" />
      <trkpt lat="48.448559" lon="8.256389" />
      <trkpt lat="48.448626" lon="8.256415" />
      <trkpt lat="48.448692" lon="8.256403" />
      <trkpt lat="48.448772" lon="8.256332" />
      <trkpt lat="48.448813" lon="8.256232" />
      <trkpt lat="48.448835" lon="8.256088" />
      <trkpt lat="48.448873" lon="8.255272" />
      <trkpt lat="48.44892" lon="8.255085" />
      <trkpt lat="48.448999" lon="8.25489" />
      <trkpt lat="48.449284" lon="8.254422" />
      <trkpt lat="48.449644" lon="8.253933" />
      <trkpt lat="48.449737" lon="8.253875" />
      <trkpt lat="48.449985" lon="8.25383" />
      <trkpt lat="48.450097" lon="8.253867" />
      <trkpt lat="48.450533" lon="8.254127" />
      <trkpt lat="48.451041" lon="8.254345" />
      <trkpt lat="48.451293" lon="8.254522" />
      <trkpt lat="48.451523" lon="8.254838" />
      <trkpt lat="48.451731" lon="8.255269" />
      <trkpt lat="48.451843" lon="8.255601" />
      <trkpt lat="48.451959" lon="8.255859" />
      <trkpt lat="48.45218" lon="8.256236" />
      <trkpt lat="48.45219" lon="8.256389" />
      <trkpt lat="48.452139" lon="8.256462" />
      <trkpt lat="48.452071" lon="8.256436" />
      <trkpt lat="48.451883" lon="8.256034" />
      <trkpt lat="48.451745" lon="8.25588" />
      <trkpt lat="48.450998" lon="8.255193" />
      <trkpt lat="48.45092" lon="8.255159" />
      <trkpt lat="48.450867" lon="8.255177" />
      <trkpt lat="48.450847" lon="8.255311" />
      <trkpt lat="48.450889" lon="8.255412" />
      <trkpt lat="48.451277" lon="8.255798" />
      <trkpt lat="48.451453" lon="8.256118" />
      <trkpt lat="48.452113" lon="8.257787" />
      <trkpt lat="48.452382" lon="8.258226" />
      <trkpt lat="48.45261" lon="8.258409" />
      <trkpt lat="48.452741" lon="8.258456" />
      <trkpt lat="48.452857" lon="8.258457" />
      <trkpt lat="48.452966" lon="8.258412" />
      <trkpt lat="48.453081" lon="8.258344" />
      <trkpt lat="48.453282" lon="8.25806" />
      <trkpt lat="48.453519" lon="8.257583" />
      <trkpt lat="48.453614" lon="8.25732" />
      <trkpt lat="48.45367" lon="8.256846" />
      <trkpt lat="48.453783" lon="8.256359" />
      <trkpt lat="48.453973" lon="8.255775" />
      <trkpt lat="48.454036" lon="8.255719" />
      <trkpt lat="48.4541" lon="8.255769" />
      <trkpt lat="48.454103" lon="8.255924" />
      <trkpt lat="48.453878" lon="8.25674" />
      <trkpt lat="48.453865" lon="8.256937" />
      <trkpt lat="48.453877" lon="8.256998" />
      <trkpt lat="48.453939" lon="8.257063" />
      <trkpt lat="48.454006" lon="8.257013" />
      <trkpt lat="48.454066" lon="8.256678" />
      <trkpt lat="48.454113" lon="8.25653" />
      <trkpt lat="48.454207" lon="8.256376" />
      <trkpt lat="48.454276" lon="8.256345" />
      <trkpt lat="48.454887" lon="8.256467" />
      <trkpt lat="48.456124" lon="8.256331" />
      <trkpt lat="48.456322" lon="8.256217" />
      <trkpt lat="48.456507" lon="8.255893" />
      <trkpt lat="48.456609" lon="8.255584" />
      <trkpt lat="48.456827" lon="8.254628" />
      <trkpt lat="48.456955" lon="8.254239" />
      <trkpt lat="48.457017" lon="8.254127" />
      <trkpt lat="48.457098" lon="8.254096" />
      <trkpt lat="48.45716" lon="8.254102" />
      <trkpt lat="48.457273" lon="8.254184" />
      <trkpt lat="48.457712" lon="8.25474" />
      <trkpt lat="48.457822" lon="8.254919" />
      <trkpt lat="48.457931" lon="8.255214" />
      <trkpt lat="48.458157" lon="8.25674" />
      <trkpt lat="48.4584" lon="8.257865" />
      <trkpt lat="48.458394" lon="8.257966" />
      <trkpt lat="48.458345" lon="8.258033" />
      <trkpt lat="48.458288" lon="8.258024" />
      <trkpt lat="48.458248" lon="8.257976" />
      <trkpt lat="48.458209" lon="8.257701" />
      <trkpt lat="48.458122" lon="8.257359" />
      <trkpt lat="48.45771" lon="8.256387" />
      <trkpt lat="48.457612" lon="8.256288" />
      <trkpt lat="48.457557" lon="8.25629" />
      <trkpt lat="48.457491" lon="8.256382" />
      <trkpt lat="48.457481" lon="8.256464" />
      <trkpt lat="48.457499" lon="8.256558" />
      <trkpt lat="48.45764" lon="8.256848" />
      <trkpt lat="48.457739" lon="8.257239" />
      <trkpt lat="48.457969" lon="8.258515" />
      <trkpt lat="48.458162" lon="8.25914" />
      <trkpt lat="48.458712" lon="8.260359" />
      <trkpt lat="48.459087" lon="8.26098" />
      <trkpt lat="48.459188" lon="8.261092" />
      <trkpt lat="48.459352" lon="8.261142" />
      <trkpt lat="48.459559" lon="8.261124" />
      <trkpt lat="48.460395" lon="8.260987" />
      <trkpt lat="48.461068" lon="8.260751" />
      <trkpt lat="48.461889" lon="8.260376" />
      <trkpt lat="48.46247" lon="8.260198" />
      <trkpt lat="48.462826" lon="8.260238" />
      <trkpt lat="48.463117" lon="8.260334" />
      <trkpt lat="48.463398" lon="8.260611" />
      <trkpt lat="48.464281" lon="8.261737" />
      <trkpt lat="48.464793" lon="8.262583" />
      <trkpt lat="48.465541" lon="8.263789" />
      <trkpt lat="48.4657" lon="8.264" />
      <trkpt lat="48.466366" lon="8.264554" />
      <trkpt lat="48.467012" lon="8.264902" />
      <trkpt lat="48.468519" lon="8.265562" />
      <trkpt lat="48.469076" lon="8.265657" />
      <trkpt lat="48.469775" lon="8.265575" />
      <trkpt lat="48.469935" lon="8.265489" />
      <trkpt lat="48.470155" lon="8.265318" />
      <trkpt lat="48.470553" lon="8.26489" />
      <trkpt lat="48.471196" lon="8.263916" />
      <trkpt lat="48.471422" lon="8.263672" />
      <trkpt lat="48.47164" lon="8.263643" />
      <trkpt lat="48.472593" lon="8.26443" />
      <trkpt lat="48.472823" lon="8.264632" />
      <trkpt lat="48.473601" lon="8.26509" />
      <trkpt lat="48.474046" lon="8.265419" />
      <trkpt lat="48.474289" lon="8.265677" />
      <trkpt lat="48.47448" lon="8.266031" />
      <trkpt lat="48.475098" lon="8.267697" />
      <trkpt lat="48.475285" lon="8.268176" />
      <trkpt lat="48.475633" lon="8.2689" />
      <trkpt lat="48.475823" lon="8.269211" />
      <trkpt lat="48.476834" lon="8.270862" />
      <trkpt lat="48.47708" lon="8.271258" />
      <trkpt lat="48.477477" lon="8.271882" />
      <trkpt lat="48.479166" lon="8.274668" />
      <trkpt lat="48.479268" lon="8.274841" />
      <trkpt lat="48.479286" lon="8.27487" />
      <trkpt lat="48.479335" lon="8.27495" />
      <trkpt lat="48.479387" lon="8.275034" />
      <trkpt lat="48.479571" lon="8.275334" />
      <trkpt lat="48.479967" lon="8.275987" />
      <trkpt lat="48.480029" lon="8.27609" />
      <trkpt lat="48.480215" lon="8.275885" />
      <trkpt lat="48.480514" lon="8.275425" />
      <trkpt lat="48.480764" lon="8.275182" />
      <trkpt lat="48.481013" lon="8.274994" />
      <trkpt lat="48.481038" lon="8.27508" />
      <trkpt lat="48.481327" lon="8.274921" />
      <trkpt lat="48.481885" lon="8.274691" />
      <trkpt lat="48.482071" lon="8.27464" />
      <trkpt lat="48.482867" lon="8.274539" />
      <trkpt lat="48.482939" lon="8.27451" />
      <trkpt lat="48.482987" lon="8.274428" />
      <trkpt lat="48.483229" lon="8.274418" />
      <trkpt lat="48.483332" lon="8.274214" />
      <trkpt lat="48.485945" lon="8.273623" />
      <trkpt lat="48.486435" lon="8.273514" />
      <trkpt lat="48.48656" lon="8.273448" />
      <trkpt lat="48.487078" lon="8.272949" />
      <trkpt lat="48.487558" lon="8.272357" />
      <trkpt lat="48.487856" lon="8.272195" />
      <trkpt lat="48.487895" lon="8.272083" />
      <trkpt lat="48.488572" lon="8.271023" />
      <trkpt lat="48.488778" lon="8.270556" />
      <trkpt lat="48.489232" lon="8.269888" />
      <trkpt lat="48.489553" lon="8.269534" />
      <trkpt lat="48.490441" lon="8.26891" />
      <trkpt lat="48.491451" lon="8.268298" />
      <trkpt lat="48.491648" lon="8.268197" />
      <trkpt lat="48.491893" lon="8.267978" />
      <trkpt lat="48.492273" lon="8.267547" />
      <trkpt lat="48.492412" lon="8.26733" />
      <trkpt lat="48.492649" lon="8.266801" />
      <trkpt lat="48.492902" lon="8.265767" />
      <trkpt lat="48.49296" lon="8.265379" />
      <trkpt lat="48.492982" lon="8.264949" />
      <trkpt lat="48.492965" lon="8.264584" />
      <trkpt lat="48.492895" lon="8.264143" />
      <trkpt lat="48.492642" lon="8.263113" />
      <trkpt lat="48.49259" lon="8.262828" />
      <trkpt lat="48.492612" lon="8.262617" />
      <trkpt lat="48.492677" lon="8.262331" />
      <trkpt lat="48.492804" lon="8.261984" />
      <trkpt lat="48.493397" lon="8.260664" />
      <trkpt lat="48.494241" lon="8.259055" />
      <trkpt lat="48.494381" lon="8.259036" />
      <trkpt lat="48.494617" lon="8.258403" />
      <trkpt lat="48.494788" lon="8.257828" />
      <trkpt lat="48.495041" lon="8.256745" />
      <trkpt lat="48.495155" lon="8.256014" />
      <trkpt lat="48.495213" lon="8.25546" />
      <trkpt lat="48.495251" lon="8.25474" />
      <trkpt lat="48.495258" lon="8.253978" />
      <trkpt lat="48.495219" lon="8.253136" />
      <trkpt lat="48.495095" lon="8.251969" />
      <trkpt lat="48.495011" lon="8.25151" />
      <trkpt lat="48.494885" lon="8.250984" />
      <trkpt lat="48.494991" lon="8.250915" />
      <trkpt lat="48.495607" lon="8.251003" />
      <trkpt lat="48.496665" lon="8.25117" />
      <trkpt lat="48.497122" lon="8.25129" />
      <trkpt lat="48.49727" lon="8.2514" />
      <trkpt lat="48.497451" lon="8.251604" />
      <trkpt lat="48.497627" lon="8.251875" />
      <trkpt lat="48.497855" lon="8.252353" />
      <trkpt lat="48.497975" lon="8.252745" />
      <trkpt lat="48.498032" lon="8.253071" />
      <trkpt lat="48.498083" lon="8.253594" />
      <trkpt lat="48.498156" lon="8.254973" />
      <trkpt lat="48.498142" lon="8.25912" />
      <trkpt lat="48.498169" lon="8.259476" />
      <trkpt lat="48.498327" lon="8.260207" />
      <trkpt lat="48.498637" lon="8.260835" />
      <trkpt lat="48.498704" lon="8.260948" />
      <trkpt lat="48.499231" lon="8.261445" />
      <trkpt lat="48.499404" lon="8.261563" />
      <trkpt lat="48.499605" lon="8.261646" />
      <trkpt lat="48.499835" lon="8.261699" />
      <trkpt lat="48.500109" lon="8.261691" />
      <trkpt lat="48.500392" lon="8.261565" />
      <trkpt lat="48.500485" lon="8.261508" />
      <trkpt lat="48.500742" lon="8.261241" />
      <trkpt lat="48.502088" lon="8.259074" />
      <trkpt lat="48.50235" lon="8.258703" />
      <trkpt lat="48.502584" lon="8.258456" />
      <trkpt lat="48.503244" lon="8.257915" />
      <trkpt lat="48.503515" lon="8.257783" />
      <trkpt lat="48.503997" lon="8.257661" />
      <trkpt lat="48.504224" lon="8.257671" />
      <trkpt lat="48.504588" lon="8.257811" />
      <trkpt lat="48.504916" lon="8.258072" />
      <trkpt lat="48.50521" lon="8.258446" />
      <trkpt lat="48.505376" lon="8.25872" />
      <trkpt lat="48.50548" lon="8.258956" />
      <trkpt lat="48.505633" lon="8.259434" />
      <trkpt lat="48.505831" lon="8.2605" />
      <trkpt lat="48.506003" lon="8.261054" />
      <trkpt lat="48.50609" lon="8.262175" />
      <trkpt lat="48.506177" lon="8.26247" />
      <trkpt lat="48.506305" lon="8.262707" />
      <trkpt lat="48.506454" lon="8.262869" />
      <trkpt lat="48.506801" lon="8.263073" />
      <trkpt lat="48.507121" lon="8.263067" />
      <trkpt lat="48.507537" lon="8.262906" />
      <trkpt lat="48.508335" lon="8.262309" />
      <trkpt lat="48.508962" lon="8.261931" />
      <trkpt lat="48.50931" lon="8.261799" />
      <trkpt lat="48.50958" lon="8.26177" />
      <trkpt lat="48.509906" lon="8.26179" />
      <trkpt lat="48.511926" lon="8.26246" />
      <trkpt lat="48.512122" lon="8.262602" />
      <trkpt lat="48.513706" lon="8.263964" />
      <trkpt lat="48.513867" lon="8.264145" />
      <trkpt lat="48.514002" lon="8.264353" />
      <trkpt lat="48.514425" lon="8.265097" />
      <trkpt lat="48.514568" lon="8.265268" />
      <trkpt lat="48.514647" lon="8.265313" />
      <trkpt lat="48.51472" lon="8.265262" />
      <trkpt lat="48.514742" lon="8.265173" />
      <trkpt lat="48.514699" lon="8.264957" />
      <trkpt lat="48.513753" lon="8.263539" />
      <trkpt lat="48.512507" lon="8.261896" />
      <trkpt lat="48.51212" lon="8.261479" />
      <trkpt lat="48.510039" lon="8.259852" />
      <trkpt lat="48.509707" lon="8.259653" />
      <trkpt lat="48.50896" lon="8.259377" />
      <trkpt lat="48.508636" lon="8.259325" />
      <trkpt lat="48.50842" lon="8.25935" />
      <trkpt lat="48.508028" lon="8.259483" />
      <trkpt lat="48.507936" lon="8.259478" />
      <trkpt lat="48.507773" lon="8.25937" />
      <trkpt lat="48.507676" lon="8.259112" />
      <trkpt lat="48.507667" lon="8.258886" />
      <trkpt lat="48.507732" lon="8.258565" />
      <trkpt lat="48.507842" lon="8.258237" />
      <trkpt lat="48.507901" lon="8.257938" />
      <trkpt lat="48.507896" lon="8.257715" />
      <trkpt lat="48.507648" lon="8.25678" />
      <trkpt lat="48.506976" lon="8.25451" />
      <trkpt lat="48.506765" lon="8.253423" />
      <trkpt lat="48.506529" lon="8.252697" />
      <trkpt lat="48.506379" lon="8.252378" />
      <trkpt lat="48.506318" lon="8.252178" />
      <trkpt lat="48.506301" lon="8.252011" />
      <trkpt lat="48.50632" lon="8.251919" />
      <trkpt lat="48.506394" lon="8.251809" />
      <trkpt lat="48.506506" lon="8.251804" />
      <trkpt lat="48.506562" lon="8.251837" />
      <trkpt lat="48.506693" lon="8.252002" />
      <trkpt lat="48.507634" lon="8.254444" />
      <trkpt lat="48.507798" lon="8.254841" />
      <trkpt lat="48.507948" lon="8.255127" />
      <trkpt lat="48.508265" lon="8.255531" />
      <trkpt lat="48.50859" lon="8.255862" />
      <trkpt lat="48.508902" lon="8.256094" />
      <trkpt lat="48.509569" lon="8.256337" />
      <trkpt lat="48.509936" lon="8.256408" />
      <trkpt lat="48.510267" lon="8.256529" />
      <trkpt lat="48.510727" lon="8.256955" />
      <trkpt lat="48.511668" lon="8.25752" />
      <trkpt lat="48.512049" lon="8.257793" />
      <trkpt lat="48.512192" lon="8.257863" />
      <trkpt lat="48.512673" lon="8.25796" />
      <trkpt lat="48.512894" lon="8.25814" />
      <trkpt lat="48.513198" lon="8.258516" />
      <trkpt lat="48.513322" lon="8.258588" />
      <trkpt lat="48.513869" lon="8.258637" />
      <trkpt lat="48.51417" lon="8.258616" />
      <trkpt lat="48.514661" lon="8.258608" />
      <trkpt lat="48.514852" lon="8.258652" />
      <trkpt lat="48.515026" lon="8.258754" />
      <trkpt lat="48.517124" lon="8.260274" />
      <trkpt lat="48.517507" lon="8.260586" />
      <trkpt lat="48.517776" lon="8.260862" />
      <trkpt lat="48.518813" lon="8.262261" />
      <trkpt lat="48.51897" lon="8.26251" />
      <trkpt lat="48.519135" lon="8.262935" />
      <trkpt lat="48.519362" lon="8.264056" />
      <trkpt lat="48.519421" lon="8.264264" />
      <trkpt lat="48.519512" lon="8.264415" />
      <trkpt lat="48.519816" lon="8.264695" />
      <trkpt lat="48.519999" lon="8.264957" />
      <trkpt lat="48.520096" lon="8.265187" />
      <trkpt lat="48.520192" lon="8.265683" />
      <trkpt lat="48.52025" lon="8.266693" />
      <trkpt lat="48.520278" lon="8.26691" />
      <trkpt lat="48.52037" lon="8.267241" />
      <trkpt lat="48.520545" lon="8.267646" />
      <trkpt lat="48.520598" lon="8.267839" />
      <trkpt lat="48.52062" lon="8.268124" />
      <trkpt lat="48.520528" lon="8.270878" />
      <trkpt lat="48.520541" lon="8.271021" />
      <trkpt lat="48.520653" lon="8.271286" />
      <trkpt lat="48.520841" lon="8.271502" />
      <trkpt lat="48.520975" lon="8.271599" />
      <trkpt lat="48.521825" lon="8.271988" />
      <trkpt lat="48.522117" lon="8.272257" />
      <trkpt lat="48.522323" lon="8.272507" />
      <trkpt lat="48.5226" lon="8.272912" />
      <trkpt lat="48.523124" lon="8.273751" />
      <trkpt lat="48.523564" lon="8.274126" />
      <trkpt lat="48.523813" lon="8.274418" />
      <trkpt lat="48.524093" lon="8.274752" />
      <trkpt lat="48.524367" lon="8.274944" />
      <trkpt lat="48.525138" lon="8.275124" />
      <trkpt lat="48.525491" lon="8.275178" />
      <trkpt lat="48.525662" lon="8.27507" />
      <trkpt lat="48.525752" lon="8.274991" />
      <trkpt lat="48.525799" lon="8.274959" />
      <trkpt lat="48.526308" lon="8.274845" />
      <trkpt lat="48.526746" lon="8.275021" />
      <trkpt lat="48.526879" lon="8.275025" />
      <trkpt lat="48.527459" lon="8.274864" />
      <trkpt lat="48.527622" lon="8.275155" />
      <trkpt lat="48.528348" lon="8.276461" />
      <trkpt lat="48.529019" lon="8.277663" />
      <trkpt lat="48.529167" lon="8.277926" />
      <trkpt lat="48.529285" lon="8.278139" />
      <trkpt lat="48.529628" lon="8.278767" />
      <trkpt lat="48.529668" lon="8.278838" />
      <trkpt lat="48.529781" lon="8.279051" />
      <trkpt lat="48.529872" lon="8.279287" />
      <trkpt lat="48.530063" lon="8.280089" />
      <trkpt lat="48.530226" lon="8.280632" />
      <trkpt lat="48.531129" lon="8.28271" />
      <trkpt lat="48.531529" lon="8.283384" />
      <trkpt lat="48.53193" lon="8.283962" />
      <trkpt lat="48.532262" lon="8.284366" />
      <trkpt lat="48.532455" lon="8.28459" />
      <trkpt lat="48.532542" lon="8.284743" />
      <trkpt lat="48.532646" lon="8.28507" />
      <trkpt lat="48.532706" lon="8.28581" />
      <trkpt lat="48.532784" lon="8.286343" />
      <trkpt lat="48.532864" lon="8.286872" />
      <trkpt lat="48.533073" lon="8.287813" />
      <trkpt lat="48.533105" lon="8.288051" />
      <trkpt lat="48.533107" lon="8.288104" />
      <trkpt lat="48.533107" lon="8.288235" />
      <trkpt lat="48.5331" lon="8.288553" />
      <trkpt lat="48.533113" lon="8.288761" />
      <trkpt lat="48.533186" lon="8.288922" />
      <trkpt lat="48.533201" lon="8.2889" />
      <trkpt lat="48.533243" lon="8.288841" />
      <trkpt lat="48.53345" lon="8.288671" />
      <trkpt lat="48.533576" lon="8.288608" />
    </trkseg>
  </trk>
</gpx>