<?xml version="1.0" encoding="UTF-8"?>
<gpx version="1.1" xmlns="http://www.topografix.com/GPX/1/1" creator="https://github.com/georust/gpx">
  <wpt lat="48.1" lon="8">
    <ele>0</ele>
    <name>K1</name>
    <desc>Furtwangen</desc>
  </wpt>
  <wpt lat="48.2" lon="8">
    <ele>0</ele>
    <name>K2</name>
    <desc>Haslach</desc>
  </wpt>
  <wpt lat="49.3" lon="8">
    <ele>0</ele>
    <name>K3</name>
    <desc>END</desc>
  </wpt>
  <trk>
    <name>01: to CP-1</name>
    <trkseg>
      <trkpt lat="48" lon="8">
        <ele>200</ele>
      </trkpt>
      <trkpt lat="48.05" lon="8">
        <ele>300</ele>
      </trkpt>
      <trkpt lat="48.1" lon="8">
        <ele>200</ele>
      </trkpt>
    </trkseg>
  </trk>
  <trk>
    <name>02: to CP-2</name>
    <trkseg>
      <trkpt lat="48.1" lon="8">
        <ele>200</ele>
      </trkpt>
      <trkpt lat="48.2" lon="8">
        <ele>200</ele>
      </trkpt>
    </trkseg>
  </trk>
  <trk>
    <name>03: to END</name>
    <trkseg>
      <trkpt lat="48.2" lon="8">
        <ele>200</ele>
      </trkpt>
      <trkpt lat="48.23" lon="8">
        <ele>500</ele>
      </trkpt>
      <trkpt lat="48.26" lon="8">
        <ele>100</ele>
      </trkpt>
      <trkpt lat="48.3" lon="8">
        <ele>200</ele>
      </trkpt>
    </trkseg>
  </trk>
</gpx>